<?xml version="1.0" encoding="UTF-8"?>
<kml xmlns="http://www.opengis.net/kml/2.2" xmlns:gx="http://www.google.com/kml/ext/2.2" xmlns:kml="http://www.opengis.net/kml/2.2" xmlns:atom="http://www.w3.org/2005/Atom">
<Document id="document">
	<name>สาย 1 หน้ามอ pky</name>
	<gx:CascadingStyle kml:id="__managed_style_0B7460D521403027EF4C_normal">
		<Style>
			<IconStyle>
				<Icon>
					<href>https://earth.google.com/earth/document/icon?color=db4436&amp;id=2000&amp;scale=4</href>
				</Icon>
				<hotSpot x="64" y="128" xunits="pixels" yunits="insetPixels"/>
			</IconStyle>
			<LabelStyle>
				<scale>0</scale>
			</LabelStyle>
			<LineStyle>
				<color>ff2dc0fb</color>
				<width>4</width>
			</LineStyle>
			<PolyStyle>
				<color>40ffffff</color>
			</PolyStyle>
			<BalloonStyle>
				<text><![CDATA[<div>&lt;h3&gt;$[name]&lt;/h3&gt;<br></div>]]></text>
			</BalloonStyle>
		</Style>
	</gx:CascadingStyle>
	<StyleMap id="__managed_style_0B7460D521403027EF4C">
		<Pair>
			<key>normal</key>
			<styleUrl>#__managed_style_0B7460D521403027EF4C_normal</styleUrl>
		</Pair>
		<Pair>
			<key>highlight</key>
			<styleUrl>#__managed_style_0B7460D521403027EF4C_highlight</styleUrl>
		</Pair>
	</StyleMap>
	<gx:CascadingStyle kml:id="__managed_style_06A93FAE744031EE2A09_highlight">
		<Style>
			<IconStyle>
				<scale>1.2</scale>
				<Icon>
					<href>https://earth.google.com/earth/document/icon?color=1976d2&amp;id=2000&amp;scale=4</href>
				</Icon>
				<hotSpot x="64" y="128" xunits="pixels" yunits="insetPixels"/>
			</IconStyle>
			<LabelStyle>
			</LabelStyle>
			<LineStyle>
				<color>ff589d0f</color>
				<width>4.383</width>
			</LineStyle>
			<PolyStyle>
				<color>40ffffff</color>
			</PolyStyle>
			<BalloonStyle>
				<text><![CDATA[<div>&lt;h3&gt;$[name]&lt;/h3&gt;<br></div>]]></text>
			</BalloonStyle>
		</Style>
	</gx:CascadingStyle>
	<gx:CascadingStyle kml:id="__managed_style_0B7460D521403027EF4C_highlight">
		<Style>
			<IconStyle>
				<scale>1.2</scale>
				<Icon>
					<href>https://earth.google.com/earth/document/icon?color=db4436&amp;id=2000&amp;scale=4</href>
				</Icon>
				<hotSpot x="64" y="128" xunits="pixels" yunits="insetPixels"/>
			</IconStyle>
			<LabelStyle>
				<scale>0</scale>
			</LabelStyle>
			<LineStyle>
				<color>ff2dc0fb</color>
				<width>6</width>
			</LineStyle>
			<PolyStyle>
				<color>40ffffff</color>
			</PolyStyle>
			<BalloonStyle>
				<text><![CDATA[<div>&lt;h3&gt;$[name]&lt;/h3&gt;<br></div>]]></text>
			</BalloonStyle>
		</Style>
	</gx:CascadingStyle>
	<gx:CascadingStyle kml:id="__managed_style_06A93FAE744031EE2A09_normal">
		<Style>
			<IconStyle>
				<Icon>
					<href>https://earth.google.com/earth/document/icon?color=1976d2&amp;id=2000&amp;scale=4</href>
				</Icon>
				<hotSpot x="64" y="128" xunits="pixels" yunits="insetPixels"/>
			</IconStyle>
			<LabelStyle>
			</LabelStyle>
			<LineStyle>
				<color>ff589d0f</color>
				<width>2.922</width>
			</LineStyle>
			<PolyStyle>
				<color>40ffffff</color>
			</PolyStyle>
			<BalloonStyle>
				<text><![CDATA[<div>&lt;h3&gt;$[name]&lt;/h3&gt;<br></div>]]></text>
			</BalloonStyle>
		</Style>
	</gx:CascadingStyle>
	<StyleMap id="__managed_style_06A93FAE744031EE2A09">
		<Pair>
			<key>normal</key>
			<styleUrl>#__managed_style_06A93FAE744031EE2A09_normal</styleUrl>
		</Pair>
		<Pair>
			<key>highlight</key>
			<styleUrl>#__managed_style_06A93FAE744031EE2A09_highlight</styleUrl>
		</Pair>
	</StyleMap>
	<gx:CascadingStyle kml:id="__managed_style_0701B3DAFC4030200BC8_highlight">
		<styleUrl>https://earth.google.com/balloon_components/base/1.1.0.0/card_template.kml#main</styleUrl>
		<Style>
			<IconStyle>
				<scale>1.2</scale>
				<Icon>
					<href>https://earth.google.com/earth/document/icon?color=1976d2&amp;id=2000&amp;scale=4</href>
				</Icon>
				<hotSpot x="64" y="128" xunits="pixels" yunits="insetPixels"/>
			</IconStyle>
			<LabelStyle>
			</LabelStyle>
			<LineStyle>
				<color>ff2dc0fb</color>
				<width>6</width>
			</LineStyle>
			<PolyStyle>
				<color>40ffffff</color>
			</PolyStyle>
			<BalloonStyle>
			</BalloonStyle>
		</Style>
	</gx:CascadingStyle>
	<gx:CascadingStyle kml:id="__managed_style_0701B3DAFC4030200BC8_normal">
		<styleUrl>https://earth.google.com/balloon_components/base/1.1.0.0/card_template.kml#main</styleUrl>
		<Style>
			<IconStyle>
				<Icon>
					<href>https://earth.google.com/earth/document/icon?color=1976d2&amp;id=2000&amp;scale=4</href>
				</Icon>
				<hotSpot x="64" y="128" xunits="pixels" yunits="insetPixels"/>
			</IconStyle>
			<LabelStyle>
			</LabelStyle>
			<LineStyle>
				<color>ff2dc0fb</color>
				<width>4</width>
			</LineStyle>
			<PolyStyle>
				<color>40ffffff</color>
			</PolyStyle>
			<BalloonStyle>
			</BalloonStyle>
		</Style>
	</gx:CascadingStyle>
	<StyleMap id="__managed_style_0701B3DAFC4030200BC8">
		<Pair>
			<key>normal</key>
			<styleUrl>#__managed_style_0701B3DAFC4030200BC8_normal</styleUrl>
		</Pair>
		<Pair>
			<key>highlight</key>
			<styleUrl>#__managed_style_0701B3DAFC4030200BC8_highlight</styleUrl>
		</Pair>
	</StyleMap>
	<Folder id="5D0DCF5ECB000001">
		<name>หน้ามหาวิทยาลัย - PKY</name>
		<open>1</open>
		<styleUrl>#__managed_style_0701B3DAFC4030200BC8</styleUrl>
		<Folder id="0AC25AE23A40302165B9">
			<name>ขาไป</name>
			<open>1</open>
			<styleUrl>#__managed_style_0701B3DAFC4030200BC8</styleUrl>
			<Placemark id="04775E355240303536E3">
				<name>ขาไป</name>
				<LookAt>
					<longitude>99.90373606464856</longitude>
					<latitude>19.03161120717052</latitude>
					<altitude>508.4578630681944</altitude>
					<heading>0</heading>
					<tilt>0</tilt>
					<gx:fovy>35</gx:fovy>
					<range>234.3917247510399</range>
					<altitudeMode>absolute</altitudeMode>
				</LookAt>
				<styleUrl>#__managed_style_06A93FAE744031EE2A09</styleUrl>
				<LineString>
					<coordinates>
						99.92296949918538,19.03062467243611,0 99.92284012133511,19.0306259188257,0 99.92277252095454,19.03065425338932,0 99.92246633213452,19.03064620336592,0 99.92230324924381,19.03064284943453,0 99.9221565341085,19.03063285498648,0 99.92189086455106,19.03060467129457,0 99.92161404871588,19.03057444104257,0 99.92148402542863,19.03056498949266,0 99.92132132684438,19.03054629083023,0 99.92121506025765,19.03053411614679,0 99.92104261361321,19.03051188053043,0 99.92088655936304,19.03049529062419,0 99.92050565118429,19.03044977230608,0 99.92027904948792,19.03042258666393,0 99.91997841052435,19.0303904488125,0 99.91975412345327,19.03036730311569,0 99.91956048807323,19.03034128758883,0 99.91941391904052,19.03032409530888,0 99.91931982226491,19.03030193929819,0 99.9192544078788,19.03028958125419,0 99.91921417847448,19.03028088606772,0 99.91916178995027,19.03026661265292,0 99.91910308930444,19.03025002671038,0 99.91905558326802,19.03022784614383,0 99.91899981420421,19.03020342846796,0 99.91895587505277,19.03017646080579,0 99.91886100485029,19.03010717814078,0 99.91878675135273,19.03005552945718,0 99.91871096240901,19.02999216403381,0 99.91865080890372,19.0299382179503,0 99.91856879842067,19.02987801628478,0 99.91848895320351,19.02981543182213,0 99.91840212055484,19.02974971431106,0 99.91831615713154,19.02968859779124,0 99.91822166130962,19.02963389039224,0 99.91811114008121,19.02956897342519,0 99.91800876065386,19.0294884471954,0 99.91796120330309,19.02946169401655,0 99.91791858405608,19.02943398685027,0 99.91788763355744,19.02941932648808,0 99.91785169864791,19.02940033384762,0 99.91781571709681,19.02938921578315,0 99.91777546307654,19.0293746152767,0 99.91773136917169,19.02936407139865,0 99.9176833061267,19.02935966621732,0 99.91762340398434,19.0293617726667,0 99.91754788623469,19.02937518912143,0 99.91748786293887,19.02938818253019,0 99.91704723734738,19.02950290053029,0 99.91659216148206,19.02962169008209,0 99.91644278603948,19.02966370400046,0 99.91623746201091,19.02971282232681,0 99.91575593946115,19.02983976145692,0 99.91553102174046,19.0299008052509,0 99.91537534322678,19.02994362731028,0 99.91469902790128,19.03012481373789,0 99.9139624945166,19.03031753230766,0 99.91361694544668,19.03040841178325,0 99.91338163971426,19.03047940342477,0 99.91301097073108,19.03059545091799,0 99.91269931278403,19.03069775394173,0 99.91234896152362,19.03082864533016,0 99.91194717205049,19.03098563341572,0 99.91180200744839,19.03103402476862,0 99.91169282039715,19.03106814188295,0 99.91161972840277,19.03108777776002,0 99.91155778599433,19.03110181722418,0 99.91151885267273,19.03110586106142,0 99.91148018565981,19.03110256124362,0 99.91143598688198,19.03109375412085,0 99.9113893634121,19.03107935486393,0 99.91132615100686,19.03103985883987,0 99.91127985109864,19.03099360072076,0 99.91126040957856,19.03095379262633,0 99.91124360113632,19.03090977555481,0 99.91123727309687,19.03086644750696,0 99.91123625701542,19.0308163728202,0 99.91123663011749,19.03072445591931,0 99.91124170416838,19.03059213608818,0 99.91123948431783,19.03050396581106,0 99.91123943939738,19.03039915802131,0 99.91122982688722,19.03031918101867,0 99.91121934469211,19.0302362357443,0 99.91119943837495,19.03013679174654,0 99.91117770976257,19.03005362635826,0 99.91117022148477,19.02999610834813,0 99.91116807671936,19.02995951202694,0 99.91115506561709,19.02993397517075,0 99.91112678453445,19.02988601286239,0 99.91109399477435,19.0298409015191,0 99.91105587970249,19.02980209851683,0 99.91101535653782,19.02977395863153,0 99.91097106204607,19.02973676318905,0 99.91093040227348,19.02971386183217,0 99.91090062785071,19.02969944531784,0 99.91087871386772,19.02969118049772,0 99.91084531902635,19.02968157946107,0 99.91078684797799,19.02967393383278,0 99.91071188730736,19.02967488367994,0 99.91063909949062,19.02968194614864,0 99.91014838087791,19.02974703192814,0 99.90962265398214,19.02981618640507,0 99.90949426536065,19.02982060380168,0 99.90928531576782,19.0298097898556,0 99.90923501943608,19.0298034243466,0 99.90920384959017,19.02979885441448,0 99.90915498981938,19.02978168111774,0 99.909116394701,19.02975666319497,0 99.90905295613896,19.02971639144217,0 99.9088795388635,19.02958291769234,0 99.90873677632115,19.02945926123035,0 99.90864333675579,19.02937828125556,0 99.90856062225062,19.02931628674734,0 99.90848921319244,19.02925660794234,0 99.90840775426875,19.02920254717298,0 99.90833285906591,19.02915846824535,0 99.90819826090042,19.02907631736654,0 99.90802154599794,19.02896946214703,0 99.90791008468489,19.02889939224993,0 99.90778225630353,19.02882036645396,0 99.90771458517474,19.02876564949315,0 99.90766147383034,19.02873436318792,0 99.907590518817,19.02869950597031,0 99.90751502962382,19.02865633341754,0 99.90746923621612,19.0286300827862,0 99.90742460261838,19.0286037241327,0 99.90734706908579,19.02857866693209,0 99.90725299335138,19.02856868705455,0 99.90716486041292,19.02857601431558,0 99.90700233474104,19.02860188114093,0 99.90683178318476,19.02863058415461,0 99.90671419452559,19.028655995687,0 99.90651765372687,19.02870024031907,0 99.906429698414,19.02872476743714,0 99.90637310865165,19.02873946484816,0 99.90632274868916,19.02876045300836,0 99.90628633572575,19.02878739117623,0 99.90625438278954,19.0288174404449,0 99.90622193740732,19.02886527976373,0 99.90618949373724,19.02891001403812,0 99.90611307593512,19.02903674721741,0 99.90608356759051,19.02909586304989,0 99.90605192384109,19.02916703236284,0 99.90602929134685,19.0292260311523,0 99.90601324194992,19.02927989907662,0 99.90591985008008,19.02953701706511,0 99.90587273426596,19.02962486762687,0 99.90581253376085,19.02973290035647,0 99.90552923464577,19.03019029503039,0 99.90548496519678,19.03024958741383,0 99.90543879842829,19.03032870350735,0 99.90539111124845,19.03038387019761,0 99.9053326180034,19.03045481818194,0 99.9052762134136,19.0305039050609,0 99.90521844347289,19.03054101160394,0 99.90514295189215,19.03058040129084,0 99.90500273268341,19.03065654173133,0 99.90476410476336,19.03077994969832,0 99.90455969750428,19.03089453112611,0 99.90444023201449,19.03095867177215,0 99.9042961522654,19.03104656043863,0 99.9041856262005,19.0311219740902,0 99.90408285415447,19.03117307270209,0 99.90399193873353,19.03123349720019,0 99.90394107897524,19.03125437216631,0 99.90388196521707,19.03126676055268,0 99.90382339432676,19.03126786098992,0 99.90377243143135,19.03126036588509,0 99.90370871933783,19.0312435952685,0 99.9036545600281,19.03120281013251,0 99.90361387214382,19.03116241328133,0 99.90353323226391,19.03105263465526,0 99.90344977968738,19.03094800364484,0 99.9033784863017,19.03083435924631,0 99.90336405592413,19.03079311243366,0 99.90335939447863,19.03074912394352,0 99.90335311067939,19.03070894108303,0 99.90334020442728,19.03065899436563,0 99.90332158617026,19.03061598883807,0 99.90329794293841,19.03055824548671,0 99.90326683687717,19.03051509237266,0 99.90321617239003,19.03048744651979,0 99.90313809082635,19.0304797737364,0 99.90309367743481,19.03049669229832,0 99.90303148883152,19.03053459907344,0 99.90299585100182,19.03057151428396,0 99.90295235462584,19.03060087101043,0 99.9029171734888,19.03061113378971,0 99.90287893928911,19.03061933451188,0 99.90279666710452,19.03063465926351,0 99.90270588599758,19.03063576462164,0 99.90227135854356,19.03062940169848,0 99.90183021929639,19.03062946689596,0 99.90139427762355,19.03064410577643,0 99.90117344713481,19.03064436040397,0 99.90051139386992,19.03065183265436,0 99.89982366708033,19.03066122221703,0 99.89942518954319,19.03066337455964,0 99.89931280843086,19.030662607534,0 99.89920036685241,19.03066482937742,0 99.89912841099058,19.03065876830486,0 99.89907911017691,19.03065467204211,0 99.89903826844827,19.03065386640464,0 99.89897992880459,19.03064410620669,0 99.89891843712238,19.03063909884548,0 99.89880436253664,19.03061274528982,0 99.89871093245613,19.03058317711263,0 99.89861266943907,19.03055546126391,0 99.89852076842348,19.03050187620535,0 99.8984010848434,19.03042734538381,0 99.89829756051788,19.03036630124142,0 99.89826538028345,19.03032616726024,0 99.89823074764037,19.03029759101899,0 99.89818827889337,19.0302661802486,0 99.89813757414601,19.03023681387389,0 99.89809746685272,19.03022242161601,0 99.89802208162523,19.03021144120593,0 99.89798961744216,19.03020637440079,0 99.89795775972338,19.03019218981539,0 99.89791431727326,19.03017022221986,0 99.89786780184863,19.03014415386195,0 99.89781552763671,19.03010817236028,0 99.89778951615862,19.03008977950144,0 99.89772226793323,19.03003864743712,0 99.89731344091011,19.02982525148673,0 99.8970133330462,19.029669766858,0 99.89682888755428,19.02955618119919,0 99.89664899673724,19.02946379071459,0 99.89647406702471,19.02935692602718,0 99.89625894829153,19.02922941663478,0 99.89615071909736,19.02915985170285,0 99.89607367096541,19.02909516448791,0 99.89594318963215,19.02901162839429,0 99.89583588043607,19.02894149605209,0 99.89573837599163,19.02888477712077,0 99.89564379363304,19.02883288995645,0 99.89551862013651,19.02874870987602,0 99.89545203421154,19.02870371759909,0 99.89540646651101,19.02866892500299,0 99.8953795627182,19.02864057415592,0 99.89534873396339,19.02860561594223,0 99.89532323993146,19.02857741867541,0 99.89530434276139,19.0285462173031,0 99.89528716649465,19.02851214780974,0 99.89527564439115,19.02848017253037,0 99.89526569618553,19.02843207642115,0 99.89527126382028,19.02838730657022,0 99.89528564467926,19.02834243467729,0 99.89530942405669,19.0282749148795,0 99.8953443211774,19.02820152655404,0 99.89541277454644,19.02807658823923,0 99.89551337478588,19.02789474836258,0 99.89560674322158,19.0277352306237,0 99.89565071198722,19.02762027983993,0 99.89566820744257,19.02754102836936,0 99.89567186677453,19.02742994803635,0 99.89566578174002,19.02735478677057,0 99.89565349883176,19.02719832955287,0 99.89563391065803,19.02703266002153,0 99.89561144390782,19.02685358138722,0 99.89559287657845,19.02672463476333,0 99.89556118149559,19.02652581025008,0 99.89553113408765,19.02632502233261,0 99.89550378254903,19.02608196044655,0 99.89548278911487,19.02596766019114,0 99.89547983864409,19.02589527674474,0 99.89546840082996,19.02582986401351,0 99.89544202299508,19.02577307599462,0 99.89541392408093,19.02572980911088,0 99.89537116331584,19.02569393303466,0 99.89534257195687,19.02567858159017,0 99.89530235634736,19.0256593337491,0 99.89524801236384,19.02564083610413,0 99.89504865299803,19.02560914357633,0 
					</coordinates>
				</LineString>
			</Placemark>
		</Folder>
		<Folder id="05E03650D0403021ED56">
			<name>ขากลับ</name>
			<open>1</open>
			<styleUrl>#__managed_style_0701B3DAFC4030200BC8</styleUrl>
			<Placemark id="5D0DCF5ECB000008">
				<name>สายหน้ามอ - ขากลับ</name>
				<styleUrl>#__managed_style_06A93FAE744031EE2A09</styleUrl>
				<LineString>
					<tessellate>1</tessellate>
					<coordinates>
						99.89500988569043,19.02566511639834,0 99.89522757789325,19.02570579750613,0 99.89527315992943,19.02571402863694,0 99.89531695789617,19.02572344688164,0 99.89535644753852,19.02573637694295,0 99.89537892335325,19.02574779178182,0 99.89539419344449,19.02575929936681,0 99.89540972587602,19.02577951815073,0 99.8954228643377,19.02579879647984,0 99.89543478139169,19.02583072953411,0 99.8954320188969,19.02588412389755,0 99.8954418322041,19.02602096446613,0 99.8954879371127,19.02633786059646,0 99.89552645250063,19.02665629912071,0 99.89554793781704,19.0268466425283,0 99.89557138043597,19.02699592843769,0 99.89558966807029,19.02714084782436,0 99.89560408837067,19.02725807107856,0 99.89561487903748,19.02737035031834,0 99.89562005584122,19.02743630742955,0 99.89562114534395,19.02749881521009,0 99.89562167107833,19.02756245231704,0 99.89561130553243,19.02762783988515,0 99.89560537737842,19.02765817093927,0 99.89559521283125,19.02768512288381,0 99.89557127640008,19.02772756965667,0 99.89554733995664,19.02777001642645,0 99.89542445772896,19.0279740743686,0 99.89537044529628,19.02807862323104,0 99.89530708546341,19.0281954955259,0 99.89525989457222,19.02827611960237,0 99.89523593668474,19.02835051575817,0 99.89514683815798,19.0286059860174,0 99.89511313018862,19.02869119384166,0 99.89505154656905,19.0288417716292,0 99.89503330019863,19.02887497119722,0 99.89502830822479,19.02891337283744,0 99.89502159224239,19.02895559267422,0 99.89502171984772,19.02898964281345,0 99.89502619496044,19.02902554573819,0 99.89503362828519,19.02906950792946,0 99.89504027161452,19.02909371984957,0 99.89505742924955,19.02913074623569,0 99.89507626593576,19.02915571442912,0 99.8951020364743,19.02918101300531,0 99.89512781692184,19.02920478428118,0 99.89515587687916,19.02922918354419,0 99.89518293528239,19.02924749324099,0 99.8952054056399,19.02926499669601,0 99.89524514437868,19.02929151450337,0 99.89527312365445,19.02931347096141,0 99.895314588754,19.02933534931465,0 99.89536640019051,19.02936756698853,0 99.8957950794526,19.0295949904059,0 99.89599845475423,19.02970180051762,0 99.89619940622181,19.02981235748906,0 99.89637669999999,19.0299071,0 99.89661812147696,19.03004284947437,0 99.8968845263062,19.03019144595034,0 99.8974879729395,19.03052189694616,0 99.89755282971426,19.0305608835642,0 99.89781283399932,19.03067617138518,0 99.89789051264691,19.03072755617714,0 99.89795930000001,19.0307576,0 99.89802217839114,19.03077573377248,0 99.89809331170518,19.03077269427273,0 99.89815468448204,19.03074586920518,0 99.89819928274848,19.03072524751923,0 99.89824967965964,19.03068889002353,0 99.8982808639928,19.03064712641381,0 99.8983121047694,19.03059906561032,0 99.89832820462186,19.03056664456518,0 99.89836823247249,19.03055325755728,0 99.89840705083154,19.03055134153423,0 99.89846339999998,19.030555,0 99.89851530556776,19.03056279252525,0 99.89855913291414,19.03058044880468,0 99.89859201932987,19.03059878325855,0 99.89866064995948,19.03062436884472,0 99.89881119635083,19.03067528264911,0 99.89897638258951,19.03071532640133,0 99.89913077484105,19.03072290189377,0 99.90038680925953,19.03072974435802,0 99.90075141849086,19.03073561376684,0 99.90120392650371,19.03074003862613,0 99.90180363427636,19.03072881997875,0 99.90211450000001,19.0307233,0 99.90247346754609,19.03072060033864,0 99.90280594122312,19.03072466244829,0 99.90296601356582,19.03075452049856,0 99.90301301433178,19.03078474881597,0 99.9030687932183,19.03081609000107,0 99.90311408026656,19.03084053994406,0 99.90317949773292,19.03086867259323,0 99.90325741356051,19.03091993175522,0 99.90331882247371,19.03096468623951,0 99.90335869500483,19.03100667695655,0 99.90339330849079,19.03105423708957,0 99.90348614747889,19.03117065241454,0 99.90355288464332,19.03126558699391,0 99.90358790674149,19.03132560729573,0 99.90361616925183,19.03139177324995,0 99.90364426288785,19.03146432418097,0 99.90367054563394,19.03153088006843,0 99.90367558961638,19.03156941445745,0 99.90367726439285,19.03160991502987,0 99.9036480622611,19.03166570139807,0 99.90360637720066,19.03172021606663,0 99.90355474947106,19.0317704092955,0 99.9034953878998,19.03182084458735,0 99.90344042601154,19.03187516062668,0 99.90336418972686,19.03194868057768,0 99.90325881097749,19.03205083230764,0 99.90318203415607,19.03212055998557,0 99.90308937072703,19.03219545570093,0 99.90300402042037,19.03226661247516,0 99.90293781103847,19.03229983824288,0 99.90287082890815,19.03232380332928,0 99.90281199518822,19.03234020130864,0 99.90274230038312,19.03235336391326,0 99.90267069564503,19.03236896543336,0 99.90256903880508,19.03238022636807,0 99.90246715913889,19.03237796566177,0 99.9022642420725,19.03237216961657,0 99.90203856704537,19.03236449556066,0 99.90184453195384,19.0323669878867,0 99.90171065727786,19.03236255176473,0 99.90158905597671,19.03235925110403,0 99.90147809088879,19.03235520801571,0 99.90137013694205,19.03235903004138,0 99.90129142591296,19.03235975181337,0 99.90117126148779,19.03237205548169,0 99.90099159942248,19.03239217487802,0 99.90079025930075,19.03241228691405,0 99.90070374382101,19.03243032816493,0 99.90066473478841,19.03244814141809,0 99.90063822027953,19.03246238841982,0 99.90061548102753,19.03248135070449,0 99.90060387770819,19.03248770594838,0 99.90058983276614,19.03249757630878,0 99.90058044178842,19.03251435957366,0 99.90057790745033,19.03253480313065,0 99.90058519748841,19.03255490527734,0 99.90059599932668,19.0325665828992,0 99.90060742710121,19.03257575648998,0 99.90062371145244,19.03258261776118,0 99.90064008586346,19.03258846592277,0 99.90066318726721,19.0325904353246,0 99.90068752661128,19.032588751556,0 99.90072034324557,19.03257987906681,0 99.90074607663034,19.03257214778958,0 99.90076843065123,19.03256681237663,0 99.90081520353111,19.03255668237442,0 99.90086414318344,19.03254706677683,0 99.90091538546289,19.03253959422253,0 99.90100440021287,19.03252823212013,0 99.9011779567457,19.03250793583945,0 99.90134220000002,19.0324987,0 99.9014281,19.0324913,0 99.90151841429336,19.03248823091122,0 99.9015887182551,19.03248999331211,0 99.90168854584277,19.03249389816736,0 99.9018004,19.0324959,0 99.90185095404367,19.03249898502155,0 99.90194493603417,19.03250126245788,0 99.90206431097658,19.03250878009941,0 99.9022861984467,19.03252604515544,0 99.90245597366335,19.03253608783253,0 99.90254332844084,19.03252962315672,0 99.90263576983902,19.03252441828935,0 99.9027332200109,19.03250558504811,0 99.90281327200171,19.03248748092446,0 99.90290253752971,19.03246174321059,0 99.90305435811182,19.03238759830954,0 99.90315517121809,19.03232247992193,0 99.90333918199846,19.03216831933792,0 99.90352852143906,19.03197470097052,0 99.90370737124795,19.03179001177737,0 99.90384054954362,19.03166395733304,0 99.90397109001033,19.03153304613473,0 99.90407499629475,19.03142754645866,0 99.90421907766778,19.03128352504267,0 99.90434938854679,19.03116670816095,0 99.90445972251143,19.03109089364101,0 99.9046152850847,19.03100756932649,0 99.90480655819309,19.03090342724408,0 99.90496413600029,19.03083809307064,0 99.90516192815463,19.03073746876915,0 99.90522619719064,19.03070195209334,0 99.90528269729116,19.03066220292013,0 99.90539987095825,19.03057007601139,0 99.90547287354526,19.03048629328018,0 99.90553796431156,19.03040644332452,0 99.90558369656586,19.03034415480203,0 99.90565125993676,19.03024085810583,0 99.90574141800496,19.03009191072951,0 99.90585318677218,19.02991250813858,0 99.90595108898574,19.02976240350803,0 99.90600752580717,19.02965930029432,0 99.90605078165807,19.02955335699993,0 99.90607407967558,19.02947872885956,0 99.90609806083113,19.02940401413673,0 99.90616139637841,19.02922565981362,0 99.9061897224248,19.02915601076307,0 99.90622688740874,19.02908767489572,0 99.90628658872578,19.02898560212174,0 99.9063293893816,19.02892731520017,0 99.90634847665316,19.02889924483679,0 99.90637435290922,19.02887755491659,0 99.90639292080505,19.02886686371473,0 99.90641082436308,19.02885677683301,0 99.9064485014122,19.02883903393725,0 99.90648798052901,19.02882401818241,0 99.90651969576905,19.02881603577983,0 99.90662869849709,19.02879139607569,0 99.90673479482462,19.02876897669316,0 99.90690634593645,19.02873571959951,0 99.90712580576009,19.02869517246023,0 99.90717220114318,19.02868790473777,0 99.90721681624652,19.02868507219764,0 99.90725612174253,19.02868340043183,0 99.90729190577115,19.02868577572207,0 99.9073126384004,19.02868966880358,0 99.90733647986221,19.02869547099459,0 99.90736273894528,19.02870250864797,0 99.90740073632364,19.02872367470639,0 99.90742850075655,19.02873861940959,0 99.907521,19.0287925,0 99.9076565,19.0288739,0 99.90772860000001,19.0289235,0 99.9078609,19.0290031,0 99.90803540000002,19.0291096,0 99.90808250000001,19.0291377,0 99.90818866802736,19.02920843843264,0 99.90833645758383,19.02930407272108,0 99.90853244448058,19.02943447755415,0 99.90856460594527,19.02946468987593,0 99.90868932819077,19.02957382588789,0 99.90880418652473,19.02967335409655,0 99.90887129016326,19.02973511061561,0 99.90894447163554,19.02979568378725,0 99.9089824961809,19.02982050275534,0 99.90901153136822,19.02983896507903,0 99.90905479126673,19.02986077477356,0 99.90908869877673,19.02987745690941,0 99.90912389605154,19.02988680553812,0 99.90915792905449,19.02989656816431,0 99.90919608857622,19.02990607736695,0 99.90922624129252,19.02991129868187,0 99.90926052688887,19.02991640750294,0 99.90930308433268,19.02992062537152,0 99.90934058256964,19.02992321917916,0 99.90937335755596,19.02992624284858,0 99.90939904234845,19.02992551920986,0 99.90943616927039,19.02992746433799,0 99.90948261263841,19.02992858096647,0 99.90952680215651,19.02992792250604,0 99.90957283029385,19.0299238894257,0 99.90960660868049,19.02992256350347,0 99.90964157683351,19.02991843005227,0 99.90967464424344,19.0299150367702,0 99.90984097381811,19.0298975531796,0 99.91026415619285,19.02983985282127,0 99.91050910104917,19.02981047793745,0 99.91057523420405,19.02980069939127,0 99.91062127425697,19.02979570005842,0 99.91066185077509,19.02979312754055,0 99.91069825878597,19.02979156269507,0 99.91073620964383,19.02979459919177,0 99.91077416935616,19.02979966915855,0 99.91080542413501,19.02980942720705,0 99.91083294101841,19.02981838846855,0 99.91084728478859,19.02982447461733,0 99.91086358249737,19.0298323588577,0 99.9108793385896,19.02984162092145,0 99.91089544490808,19.02985254630534,0 99.91091782148723,19.02986821374753,0 99.91093956983327,19.02988772356298,0 99.91095182457181,19.02990638660984,0 99.91096434050667,19.02992244341209,0 99.91097574489642,19.02994032080113,0 99.91098639280325,19.02995944812126,0 99.91099597924197,19.02997493035704,0 99.91100369742543,19.02999331724477,0 99.91101028822673,19.03001127358357,0 99.91101836931729,19.03003371602654,0 99.91102447064193,19.03005568062547,0 99.91103017363338,19.03008176303325,0 99.91103363677878,19.03010373346703,0 99.91103923292769,19.03012626108437,0 99.91104824961165,19.03019001492088,0 99.91106227635682,19.03026418513848,0 99.91107432528027,19.03038302101941,0 99.91107475417263,19.03052789879625,0 99.91107416271883,19.03060580521239,0 99.91108254638814,19.03072213659476,0 99.91108770993813,19.03077140883892,0 99.9110929233691,19.0308199952959,0 99.91109752378419,19.03086150239242,0 99.91110305161634,19.03088887944081,0 99.91110952104293,19.03091662404688,0 99.91111627525905,19.03093596916484,0 99.91112236026913,19.03095526933439,0 99.91112990790893,19.03097999218157,0 99.91113823713863,19.03100282898556,0 99.91114598080819,19.03101990717161,0 99.91115945252641,19.03103951537188,0 99.91117104793692,19.03105696064103,0 99.91118264334986,19.03107440590946,0 99.91119693321056,19.03109257113401,0 99.91121084787653,19.0311051840196,0 99.91123947517495,19.03113386121693,0 99.91128121373795,19.03116556364382,0 99.91132138898637,19.03118761230077,0 99.91136445659612,19.03120546130565,0 99.91141701585288,19.03122167297516,0 99.91148735246944,19.03122731081861,0 99.9115471140735,19.03122368771228,0 99.91162162576744,19.03121438503779,0 99.9116974232885,19.03119714802417,0 99.91180149947577,19.03116538934337,0 99.91196875770136,19.03110616625279,0 99.91210144872753,19.03105485266454,0 99.91227561708942,19.03098802274804,0 99.91261132034577,19.03086139384195,0 99.91285733662848,19.03077492029177,0 99.91296684690185,19.0307378588575,0 99.91319071392341,19.03066153898197,0 99.91379190672743,19.03049003763992,0 99.91403249951296,19.03042338922324,0 99.91457715356186,19.03027847476828,0 99.91466906077154,19.03025474406395,0 99.91508423483164,19.03014743380043,0 99.91526225901504,19.03009896044673,0 99.91550838416386,19.030037131432,0 99.91571414680106,19.0299799337813,0 99.91618670353884,19.02985214996097,0 99.91650351304787,19.02976893024233,0 99.91696551290912,19.02964044775683,0 99.91756001666634,19.02948706705062,0 99.91759329487401,19.02947839089694,0 99.91762590921188,19.02947631066712,0 99.91766462891573,19.02947648217331,0 99.91770748606611,19.02947930354638,0 99.91775176712677,19.02949060330645,0 99.91778608589827,19.02950196130066,0 99.91782395880952,19.02951924755491,0 99.91786803393487,19.02954434244534,0 99.91792400478163,19.02957614057685,0 99.91809030867432,19.0296935834934,0 99.91824079383302,19.02981005700926,0 99.91849174008128,19.0299961228666,0 99.91872267263297,19.03016312105965,0 99.91880734217206,19.03022303949539,0 99.91888486655162,19.03027535618796,0 99.91895832148151,19.03031973316981,0 99.91902534393846,19.03035143190946,0 99.91908618739174,19.0303735165807,0 99.9191579,19.0303916,0 99.9192156,19.0304071,0 99.91928160000001,19.0304197,0 99.9195386,19.0304647,0 99.9196534,19.0304849,0 99.91993692757995,19.03053448737826,0 99.9202226703556,19.03057644198491,0 99.92057264048063,19.03061773327401,0 99.92080357986745,19.03064468726654,0 99.92150185116616,19.03072277729565,0 99.92167665043961,19.03073325090539,0 99.92185967933837,19.03073844680939,0 99.92211365937348,19.0307633862421,0 99.92231483875703,19.03078023487368,0 99.92256247153024,19.03079331675647,0 99.92280917013859,19.03080498383355,0 99.92287764839816,19.03081060434582,0 99.92294612666231,19.03081622483285,0 99.92301870915057,19.03082730171078,0 99.92307103859886,19.03083175940958,0 99.92316210728406,19.03083670953029,0 99.92325736831344,19.03084008473956,0 
					</coordinates>
				</LineString>
			</Placemark>
		</Folder>
		<Folder id="0715DA4FEC403022CD28">
			<name>จุดจอด</name>
			<open>1</open>
			<styleUrl>#__managed_style_0701B3DAFC4030200BC8</styleUrl>
			<Placemark id="05BB790E2B403024B194">
				<name>สถานีชาร์จ</name>
				<LookAt>
					<longitude>99.92345868076127</longitude>
					<latitude>19.03135846581405</latitude>
					<altitude>468.324751456469</altitude>
					<heading>0</heading>
					<tilt>0</tilt>
					<gx:fovy>30.0000002471087</gx:fovy>
					<range>734.6556386763406</range>
					<altitudeMode>absolute</altitudeMode>
				</LookAt>
				<styleUrl>#__managed_style_0B7460D521403027EF4C</styleUrl>
				<Point>
					<coordinates>99.92445937023484,19.03131839662782,466.42123819271</coordinates>
				</Point>
			</Placemark>
			<Placemark id="5D0DCF5ECB000002">
				<name>จุดจอดรถบัสหน้ามหาวิทยาลัย</name>
				<styleUrl>#__managed_style_0B7460D521403027EF4C</styleUrl>
				<Point>
					<coordinates>99.923098,19.030564,0</coordinates>
				</Point>
			</Placemark>
			<Placemark id="5D0DCF5ECB000003">
				<name>สถานีหน้าคณะทันตแพทยศาสตร์(ขากลับ)</name>
				<styleUrl>#__managed_style_0B7460D521403027EF4C</styleUrl>
				<Point>
					<coordinates>99.91542589999999,19.0298661,0</coordinates>
				</Point>
			</Placemark>
			<Placemark id="5D0DCF5ECB00000A">
				<name>สถานีหน้าเรือนเอื้องคำ</name>
				<styleUrl>#__managed_style_0B7460D521403027EF4C</styleUrl>
				<Point>
					<coordinates>99.906696,19.028584,0</coordinates>
				</Point>
			</Placemark>
			<Placemark id="00831DCC454030264207">
				<name>สถานีหน้าคณะวิศวกรรมศาสตร์(ขาไป)</name>
				<LookAt>
					<longitude>99.90111458526931</longitude>
					<latitude>19.03095636325637</latitude>
					<altitude>500.9971810078289</altitude>
					<heading>0</heading>
					<tilt>0</tilt>
					<gx:fovy>30.0000002471087</gx:fovy>
					<range>358.382471220466</range>
					<altitudeMode>absolute</altitudeMode>
				</LookAt>
				<styleUrl>#__managed_style_0B7460D521403027EF4C</styleUrl>
				<Point>
					<coordinates>99.90122070886962,19.03052994712539,496.0665564205555</coordinates>
				</Point>
			</Placemark>
			<Placemark id="5D0DCF5ECB00000C">
				<name>สถานีหน้าหอประชุมพญางำเมือง</name>
				<styleUrl>#__managed_style_0B7460D521403027EF4C</styleUrl>
				<Point>
					<coordinates>99.89771139999999,19.0299998,0</coordinates>
				</Point>
			</Placemark>
			<Placemark id="5D0DCF5ECB000006">
				<name>สถานีหน้าอาคารสำนักงานอธิการบดี</name>
				<styleUrl>#__managed_style_0B7460D521403027EF4C</styleUrl>
				<Point>
					<coordinates>99.8960666,19.0290339,0</coordinates>
				</Point>
			</Placemark>
			<Placemark id="5D0DCF5ECB00000B">
				<name>จุดจอดรถบัสPKY</name>
				<styleUrl>#__managed_style_0B7460D521403027EF4C</styleUrl>
				<Point>
					<coordinates>99.89511322118474,19.02547799506988,0</coordinates>
				</Point>
			</Placemark>
			<Placemark id="5D0DCF5ECB000005">
				<name>สถานีหน้าคณะพยาบาลศาสตร์</name>
				<styleUrl>#__managed_style_0B7460D521403027EF4C</styleUrl>
				<Point>
					<coordinates>99.897615,19.0306625,0</coordinates>
				</Point>
			</Placemark>
			<Placemark id="5D0DCF5ECB000007">
				<name>สถานีหน้าคณะศิลปศาสตร์</name>
				<styleUrl>#__managed_style_0B7460D521403027EF4C</styleUrl>
				<Point>
					<coordinates>99.89576676362599,19.02964859160329,0</coordinates>
				</Point>
			</Placemark>
			<Placemark id="5D0DCF5ECB000004">
				<name>สถานีหน้าคณะวิศวกรรมศาสตร์(ขากลับ)</name>
				<styleUrl>#__managed_style_0B7460D521403027EF4C</styleUrl>
				<Point>
					<coordinates>99.90119970000001,19.0307963,0</coordinates>
				</Point>
			</Placemark>
			<Placemark id="09AF95A25D40302D4F90">
				<name>สถานีหน้าคณะทันตแพทยศาสตร์(ขาไป)</name>
				<LookAt>
					<longitude>99.91478808480865</longitude>
					<latitude>19.02931871572977</latitude>
					<altitude>496.4235333172153</altitude>
					<heading>0</heading>
					<tilt>0</tilt>
					<gx:fovy>30.0000002471087</gx:fovy>
					<range>800.0936039215594</range>
					<altitudeMode>absolute</altitudeMode>
				</LookAt>
				<styleUrl>#__managed_style_0B7460D521403027EF4C</styleUrl>
				<Point>
					<coordinates>99.91511731812263,19.03018576512214,509.8011858280373</coordinates>
				</Point>
			</Placemark>
		</Folder>
	</Folder>
</Document>
</kml>
