<?xml version="1.0" encoding="UTF-8"?>
<kml xmlns="http://www.opengis.net/kml/2.2" xmlns:gx="http://www.google.com/kml/ext/2.2" xmlns:kml="http://www.opengis.net/kml/2.2" xmlns:atom="http://www.w3.org/2005/Atom">
<Document id="14157r6mD__vModUW1E1VKANirpZ3obRq">
	<name>ALL</name>
	<gx:CascadingStyle kml:id="__managed_style_1718CD0CA940375C4344_highlight">
		<Style>
			<IconStyle>
				<scale>1.2</scale>
				<Icon>
					<href>https://earth.google.com/earth/document/icon?color=db4436&amp;id=2000&amp;scale=4</href>
				</Icon>
				<hotSpot x="64" y="128" xunits="pixels" yunits="insetPixels"/>
			</IconStyle>
			<LabelStyle>
				<scale>0</scale>
			</LabelStyle>
			<LineStyle>
				<color>ff2dc0fb</color>
				<width>6</width>
			</LineStyle>
			<PolyStyle>
				<color>40ffffff</color>
			</PolyStyle>
			<BalloonStyle>
				<text><![CDATA[<h3>$[name]</h3>]]></text>
			</BalloonStyle>
		</Style>
	</gx:CascadingStyle>
	<gx:CascadingStyle kml:id="__managed_style_20F7ECF35D40375C4343_normal">
		<Style>
			<IconStyle>
				<Icon>
					<href>https://earth.google.com/earth/document/icon?color=1976d2&amp;id=2000&amp;scale=4</href>
				</Icon>
				<hotSpot x="64" y="128" xunits="pixels" yunits="insetPixels"/>
			</IconStyle>
			<LabelStyle>
			</LabelStyle>
			<LineStyle>
				<color>ff2dc0fb</color>
				<width>4</width>
			</LineStyle>
			<PolyStyle>
				<color>40ffffff</color>
			</PolyStyle>
			<BalloonStyle>
			</BalloonStyle>
		</Style>
	</gx:CascadingStyle>
	<gx:CascadingStyle kml:id="__managed_style_059CA6086040375C4344_normal">
		<Style>
			<IconStyle>
				<Icon>
					<href>https://earth.google.com/earth/document/icon?color=db4436&amp;id=2000&amp;scale=4</href>
				</Icon>
				<hotSpot x="64" y="128" xunits="pixels" yunits="insetPixels"/>
			</IconStyle>
			<LabelStyle>
				<scale>0</scale>
			</LabelStyle>
			<LineStyle>
				<color>ff2dc0fb</color>
				<width>4</width>
			</LineStyle>
			<PolyStyle>
				<color>40ffffff</color>
			</PolyStyle>
			<BalloonStyle>
			</BalloonStyle>
		</Style>
	</gx:CascadingStyle>
	<gx:CascadingStyle kml:id="__managed_style_1718CD0CA940375C4344_normal">
		<Style>
			<IconStyle>
				<Icon>
					<href>https://earth.google.com/earth/document/icon?color=db4436&amp;id=2000&amp;scale=4</href>
				</Icon>
				<hotSpot x="64" y="128" xunits="pixels" yunits="insetPixels"/>
			</IconStyle>
			<LabelStyle>
				<scale>0</scale>
			</LabelStyle>
			<LineStyle>
				<color>ff2dc0fb</color>
				<width>4</width>
			</LineStyle>
			<PolyStyle>
				<color>40ffffff</color>
			</PolyStyle>
			<BalloonStyle>
				<text><![CDATA[<h3>$[name]</h3>]]></text>
			</BalloonStyle>
		</Style>
	</gx:CascadingStyle>
	<StyleMap id="__managed_style_1718CD0CA940375C4344">
		<Pair>
			<key>normal</key>
			<styleUrl>#__managed_style_1718CD0CA940375C4344_normal</styleUrl>
		</Pair>
		<Pair>
			<key>highlight</key>
			<styleUrl>#__managed_style_1718CD0CA940375C4344_highlight</styleUrl>
		</Pair>
	</StyleMap>
	<StyleMap id="__managed_style_059CA6086040375C4344">
		<Pair>
			<key>normal</key>
			<styleUrl>#__managed_style_059CA6086040375C4344_normal</styleUrl>
		</Pair>
		<Pair>
			<key>highlight</key>
			<styleUrl>#__managed_style_059CA6086040375C4344_highlight</styleUrl>
		</Pair>
	</StyleMap>
	<StyleMap id="__managed_style_0FAB3DC67F40375C4343">
		<Pair>
			<key>normal</key>
			<styleUrl>#__managed_style_0FAB3DC67F40375C4343_normal</styleUrl>
		</Pair>
		<Pair>
			<key>highlight</key>
			<styleUrl>#__managed_style_0FAB3DC67F40375C4343_highlight</styleUrl>
		</Pair>
	</StyleMap>
	<StyleMap id="__managed_style_13A524AAA240375C4343">
		<Pair>
			<key>normal</key>
			<styleUrl>#__managed_style_13A524AAA240375C4343_normal</styleUrl>
		</Pair>
		<Pair>
			<key>highlight</key>
			<styleUrl>#__managed_style_13A524AAA240375C4343_highlight</styleUrl>
		</Pair>
	</StyleMap>
	<gx:CascadingStyle kml:id="__managed_style_13A524AAA240375C4343_normal">
		<Style>
			<IconStyle>
				<Icon>
					<href>https://earth.google.com/earth/document/icon?color=db4436&amp;id=2000&amp;scale=4</href>
				</Icon>
				<hotSpot x="64" y="128" xunits="pixels" yunits="insetPixels"/>
			</IconStyle>
			<LabelStyle>
				<scale>0</scale>
			</LabelStyle>
			<LineStyle>
				<color>ff2dc0fb</color>
				<width>4</width>
			</LineStyle>
			<PolyStyle>
				<color>40ffffff</color>
			</PolyStyle>
			<BalloonStyle>
				<text><![CDATA[<div>&lt;h3&gt;$[name]&lt;/h3&gt;<br></div>]]></text>
			</BalloonStyle>
		</Style>
	</gx:CascadingStyle>
	<gx:CascadingStyle kml:id="__managed_style_2D4458C78140375C4344_highlight">
		<Style>
			<IconStyle>
				<scale>1.2</scale>
				<Icon>
					<href>https://earth.google.com/earth/document/icon?color=1976d2&amp;id=2000&amp;scale=4</href>
				</Icon>
				<hotSpot x="64" y="128" xunits="pixels" yunits="insetPixels"/>
			</IconStyle>
			<LabelStyle>
			</LabelStyle>
			<LineStyle>
				<color>ff5252ff</color>
				<width>9.6375</width>
			</LineStyle>
			<PolyStyle>
				<color>40ffffff</color>
			</PolyStyle>
			<BalloonStyle>
			</BalloonStyle>
		</Style>
	</gx:CascadingStyle>
	<gx:CascadingStyle kml:id="__managed_style_20F7ECF35D40375C4343_highlight">
		<Style>
			<IconStyle>
				<scale>1.2</scale>
				<Icon>
					<href>https://earth.google.com/earth/document/icon?color=1976d2&amp;id=2000&amp;scale=4</href>
				</Icon>
				<hotSpot x="64" y="128" xunits="pixels" yunits="insetPixels"/>
			</IconStyle>
			<LabelStyle>
			</LabelStyle>
			<LineStyle>
				<color>ff2dc0fb</color>
				<width>6</width>
			</LineStyle>
			<PolyStyle>
				<color>40ffffff</color>
			</PolyStyle>
			<BalloonStyle>
			</BalloonStyle>
		</Style>
	</gx:CascadingStyle>
	<gx:CascadingStyle kml:id="__managed_style_047DACE86640375C4341_highlight">
		<Style>
			<IconStyle>
				<scale>1.2</scale>
				<Icon>
					<href>https://earth.google.com/earth/document/icon?color=1976d2&amp;id=2000&amp;scale=4</href>
				</Icon>
				<hotSpot x="64" y="128" xunits="pixels" yunits="insetPixels"/>
			</IconStyle>
			<LabelStyle>
			</LabelStyle>
			<LineStyle>
				<color>ff589d0f</color>
				<width>4.383</width>
			</LineStyle>
			<PolyStyle>
				<color>40ffffff</color>
			</PolyStyle>
			<BalloonStyle>
				<text><![CDATA[<div>&lt;h3&gt;$[name]&lt;/h3&gt;<br></div>]]></text>
			</BalloonStyle>
		</Style>
	</gx:CascadingStyle>
	<StyleMap id="__managed_style_2D4458C78140375C4344">
		<Pair>
			<key>normal</key>
			<styleUrl>#__managed_style_2D4458C78140375C4344_normal</styleUrl>
		</Pair>
		<Pair>
			<key>highlight</key>
			<styleUrl>#__managed_style_2D4458C78140375C4344_highlight</styleUrl>
		</Pair>
	</StyleMap>
	<gx:CascadingStyle kml:id="__managed_style_0FAB3DC67F40375C4343_normal">
		<Style>
			<IconStyle>
				<Icon>
					<href>https://earth.google.com/earth/document/icon?color=db4436&amp;id=2000&amp;scale=4</href>
				</Icon>
				<hotSpot x="64" y="128" xunits="pixels" yunits="insetPixels"/>
			</IconStyle>
			<LabelStyle>
				<scale>0</scale>
			</LabelStyle>
			<LineStyle>
				<color>ff2dc0fb</color>
				<width>2</width>
			</LineStyle>
			<PolyStyle>
				<color>40ffffff</color>
			</PolyStyle>
			<BalloonStyle>
				<text><![CDATA[<div>&lt;h3&gt;$[name]&lt;/h3&gt;<br></div>]]></text>
			</BalloonStyle>
		</Style>
	</gx:CascadingStyle>
	<gx:CascadingStyle kml:id="__managed_style_047DACE86640375C4341_normal">
		<Style>
			<IconStyle>
				<Icon>
					<href>https://earth.google.com/earth/document/icon?color=1976d2&amp;id=2000&amp;scale=4</href>
				</Icon>
				<hotSpot x="64" y="128" xunits="pixels" yunits="insetPixels"/>
			</IconStyle>
			<LabelStyle>
			</LabelStyle>
			<LineStyle>
				<color>ff589d0f</color>
				<width>2.922</width>
			</LineStyle>
			<PolyStyle>
				<color>40ffffff</color>
			</PolyStyle>
			<BalloonStyle>
				<text><![CDATA[<div>&lt;h3&gt;$[name]&lt;/h3&gt;<br></div>]]></text>
			</BalloonStyle>
		</Style>
	</gx:CascadingStyle>
	<gx:CascadingStyle kml:id="__managed_style_2D4458C78140375C4344_normal">
		<Style>
			<IconStyle>
				<Icon>
					<href>https://earth.google.com/earth/document/icon?color=1976d2&amp;id=2000&amp;scale=4</href>
				</Icon>
				<hotSpot x="64" y="128" xunits="pixels" yunits="insetPixels"/>
			</IconStyle>
			<LabelStyle>
			</LabelStyle>
			<LineStyle>
				<color>ff5252ff</color>
				<width>6.425</width>
			</LineStyle>
			<PolyStyle>
				<color>40ffffff</color>
			</PolyStyle>
			<BalloonStyle>
			</BalloonStyle>
		</Style>
	</gx:CascadingStyle>
	<gx:CascadingStyle kml:id="__managed_style_13A524AAA240375C4343_highlight">
		<Style>
			<IconStyle>
				<scale>1.2</scale>
				<Icon>
					<href>https://earth.google.com/earth/document/icon?color=db4436&amp;id=2000&amp;scale=4</href>
				</Icon>
				<hotSpot x="64" y="128" xunits="pixels" yunits="insetPixels"/>
			</IconStyle>
			<LabelStyle>
				<scale>0</scale>
			</LabelStyle>
			<LineStyle>
				<color>ff2dc0fb</color>
				<width>6</width>
			</LineStyle>
			<PolyStyle>
				<color>40ffffff</color>
			</PolyStyle>
			<BalloonStyle>
				<text><![CDATA[<div>&lt;h3&gt;$[name]&lt;/h3&gt;<br></div>]]></text>
			</BalloonStyle>
		</Style>
	</gx:CascadingStyle>
	<gx:CascadingStyle kml:id="__managed_style_0C06C6699B40375C944C_highlight">
		<Style>
			<IconStyle>
				<scale>1.2</scale>
				<Icon>
					<href>https://earth.google.com/earth/document/icon?color=1976d2&amp;id=2000&amp;scale=4</href>
				</Icon>
				<hotSpot x="64" y="128" xunits="pixels" yunits="insetPixels"/>
			</IconStyle>
			<LabelStyle>
			</LabelStyle>
			<LineStyle>
				<color>fff5a542</color>
				<width>6</width>
			</LineStyle>
			<PolyStyle>
				<color>40ffffff</color>
			</PolyStyle>
			<BalloonStyle>
				<text><![CDATA[<div>&lt;h3&gt;$[name]&lt;/h3&gt;<br></div>]]></text>
			</BalloonStyle>
		</Style>
	</gx:CascadingStyle>
	<StyleMap id="__managed_style_047DACE86640375C4341">
		<Pair>
			<key>normal</key>
			<styleUrl>#__managed_style_047DACE86640375C4341_normal</styleUrl>
		</Pair>
		<Pair>
			<key>highlight</key>
			<styleUrl>#__managed_style_047DACE86640375C4341_highlight</styleUrl>
		</Pair>
	</StyleMap>
	<gx:CascadingStyle kml:id="__managed_style_0C06C6699B40375C944C_normal">
		<Style>
			<IconStyle>
				<Icon>
					<href>https://earth.google.com/earth/document/icon?color=1976d2&amp;id=2000&amp;scale=4</href>
				</Icon>
				<hotSpot x="64" y="128" xunits="pixels" yunits="insetPixels"/>
			</IconStyle>
			<LabelStyle>
			</LabelStyle>
			<LineStyle>
				<color>fff5a542</color>
				<width>4</width>
			</LineStyle>
			<PolyStyle>
				<color>40ffffff</color>
			</PolyStyle>
			<BalloonStyle>
				<text><![CDATA[<div>&lt;h3&gt;$[name]&lt;/h3&gt;<br></div>]]></text>
			</BalloonStyle>
		</Style>
	</gx:CascadingStyle>
	<gx:CascadingStyle kml:id="__managed_style_0FAB3DC67F40375C4343_highlight">
		<Style>
			<IconStyle>
				<scale>1.2</scale>
				<Icon>
					<href>https://earth.google.com/earth/document/icon?color=db4436&amp;id=2000&amp;scale=4</href>
				</Icon>
				<hotSpot x="64" y="128" xunits="pixels" yunits="insetPixels"/>
			</IconStyle>
			<LabelStyle>
				<scale>0</scale>
			</LabelStyle>
			<LineStyle>
				<color>ff2dc0fb</color>
				<width>3</width>
			</LineStyle>
			<PolyStyle>
				<color>40ffffff</color>
			</PolyStyle>
			<BalloonStyle>
				<text><![CDATA[<div>&lt;h3&gt;$[name]&lt;/h3&gt;<br></div>]]></text>
			</BalloonStyle>
		</Style>
	</gx:CascadingStyle>
	<StyleMap id="__managed_style_0C06C6699B40375C944C">
		<Pair>
			<key>normal</key>
			<styleUrl>#__managed_style_0C06C6699B40375C944C_normal</styleUrl>
		</Pair>
		<Pair>
			<key>highlight</key>
			<styleUrl>#__managed_style_0C06C6699B40375C944C_highlight</styleUrl>
		</Pair>
	</StyleMap>
	<gx:CascadingStyle kml:id="__managed_style_059CA6086040375C4344_highlight">
		<Style>
			<IconStyle>
				<scale>1.2</scale>
				<Icon>
					<href>https://earth.google.com/earth/document/icon?color=db4436&amp;id=2000&amp;scale=4</href>
				</Icon>
				<hotSpot x="64" y="128" xunits="pixels" yunits="insetPixels"/>
			</IconStyle>
			<LabelStyle>
				<scale>0</scale>
			</LabelStyle>
			<LineStyle>
				<color>ff2dc0fb</color>
				<width>6</width>
			</LineStyle>
			<PolyStyle>
				<color>40ffffff</color>
			</PolyStyle>
			<BalloonStyle>
			</BalloonStyle>
		</Style>
	</gx:CascadingStyle>
	<StyleMap id="__managed_style_20F7ECF35D40375C4343">
		<Pair>
			<key>normal</key>
			<styleUrl>#__managed_style_20F7ECF35D40375C4343_normal</styleUrl>
		</Pair>
		<Pair>
			<key>highlight</key>
			<styleUrl>#__managed_style_20F7ECF35D40375C4343_highlight</styleUrl>
		</Pair>
	</StyleMap>
	<Folder id="0C1A6EF3CB40325B5D84">
		<name>All</name>
		<open>1</open>
		<styleUrl>#__managed_style_20F7ECF35D40375C4343</styleUrl>
		<Folder id="5D1009BDA7000001">
			<name>สายประตูสาม</name>
			<open>1</open>
			<styleUrl>#__managed_style_20F7ECF35D40375C4343</styleUrl>
			<Folder id="5D1009BDA7000002">
				<name>ประตูสาม - ICT</name>
				<open>1</open>
				<styleUrl>#__managed_style_20F7ECF35D40375C4343</styleUrl>
				<Folder id="5D1009BDA7000009">
					<name>เส้นทาง</name>
					<open>1</open>
					<styleUrl>#__managed_style_20F7ECF35D40375C4343</styleUrl>
					<Placemark id="03A9AD851740375C9433">
						<name>สายประตูสาม</name>
						<LookAt>
							<longitude>99.89546172248137</longitude>
							<latitude>19.02276084753386</latitude>
							<altitude>496.3879145203686</altitude>
							<heading>355.1946774940564</heading>
							<tilt>0</tilt>
							<gx:fovy>35</gx:fovy>
							<range>168.7475368155174</range>
							<altitudeMode>absolute</altitudeMode>
						</LookAt>
						<styleUrl>#__managed_style_0C06C6699B40375C944C</styleUrl>
						<LineString>
							<coordinates>
								99.89528645980076,19.02263372814512,0 99.8953166163238,19.02271561902679,0 99.89534826332641,19.02278107090341,0 99.89536780595201,19.02281342901316,0 99.89538626145118,19.02282223313894,0 99.89541323191156,19.02281615521867,0 99.89552089598889,19.0228005847509,0 99.89557907154858,19.02279978533151,0 99.89588135298379,19.02279549613332,0 99.89615577913807,19.02279665259621,0 99.89629265773218,19.02279663445112,0 99.89636330700135,19.02279569088462,0 99.8965929795264,19.02279429722811,0 99.89690664499193,19.02279040521476,0 99.89706216506777,19.02279177119615,0 99.89733244344319,19.02279126439193,0 99.89747108688469,19.02279286454157,0 99.89778886253019,19.02279944009946,0 99.89811062462086,19.02280473276474,0 99.89827150567386,19.02280737888858,0 99.89844527175748,19.02280766627991,0 99.89856239768324,19.02281273400918,0 99.89867123571047,19.02283594926448,0 99.89876613254006,19.02288249632738,0 99.89890985724892,19.02298529030983,0 99.89896834198014,19.02304568811621,0 99.89901327258417,19.02310077129481,0 99.89902615334559,19.02314009214846,0 99.89902908335391,19.02317931778735,0 99.89902951069431,19.02325553715907,0 99.89902338704185,19.02332029302991,0 99.89901556094611,19.0233921420824,0 99.89900331196264,19.02352775922241,0 99.89898187037282,19.02366373238264,0 99.89897787263068,19.02371560083159,0 99.89900129752067,19.02381028733986,0 99.89911292768781,19.02424380343073,0 99.89916658661868,19.02444284073665,0 99.89921419934484,19.02464448259472,0 99.89926377752073,19.02484798987541,0 99.89931605457959,19.02505760042643,0 99.89939373525004,19.0253667256579,0 99.89951500768493,19.02591256010293,0 99.8995743336051,19.02618781788245,0 99.89966011439873,19.02658928838872,0 99.89966660395849,19.02662318669194,0 99.89967313961479,19.026661834369,0 99.89966698726376,19.02668018072455,0 99.89965908962722,19.02669654131346,0 99.89963878605367,19.02673041782001,0 99.89958723259133,19.02681046262804,0 99.89946837582943,19.02700429499296,0 99.89936527217262,19.02716397706713,0 99.89926764150945,19.02732670136187,0 99.89917759179501,19.02749150055526,0 99.89903758184806,19.02775365452266,0 99.89898661280347,19.02789043250301,0 99.89891573613818,19.02807730047263,0 99.8988285148094,19.0283182300841,0 99.89875011083937,19.02853251205634,0 99.89862208564277,19.02888451250946,0 99.89850345883306,19.02920035726997,0 99.89838606259131,19.02951331350378,0 99.89826114215781,19.02983960571085,0 99.89813912760916,19.03018164503686,0 99.8980457331767,19.03020434028986,0 99.8979637721182,19.03021508334704,0 99.89789683155887,19.03024094432597,0 99.89785405543134,19.03027057966311,0 99.89780933921742,19.0303097728553,0 99.89777413861918,19.03036322505367,0 99.89775696882572,19.03040426412828,0 99.89774258970766,19.03046227471486,0 99.89774728197895,19.03053283552678,0 99.89776491286658,19.0305992725841,0 99.8977910755434,19.03065566244847,0 99.89783410917198,19.03070471278451,0 99.89788066162612,19.03073068670469,0 99.89793711634981,19.03075862748262,0 99.89799639349457,19.03077107962787,0 99.89806128742947,19.03077012897205,0 99.89813867374917,19.03075415615752,0 99.89818526002669,19.03073226943078,0 99.89822182846214,19.03070725095058,0 99.89825983536532,19.0306786839012,0 99.89829272055765,19.03063118349018,0 99.89831693631896,19.03059775064639,0 99.89836272434538,19.03056913250862,0 99.89843084577103,19.03056312263798,0 99.89850211444779,19.03056900042618,0 99.8985856346372,19.03060919943641,0 99.89867308272005,19.03064055722585,0 99.89878300854977,19.03067510307702,0 99.8988885449878,19.03069939831819,0 99.89900817640981,19.03071883261122,0 99.89913266527951,19.03073006087885,0 99.89927004091572,19.03073582711201,0 99.89943223764786,19.03073621068688,0 99.89957624059318,19.030730815545,0 99.89983851372016,19.03072841831177,0 99.90004096562177,19.03072220089633,0 99.90032899239708,19.03072021009352,0 99.90061461244098,19.03071791032441,0 99.90092352087756,19.03071830043866,0 99.9013551762168,19.03071528507123,0 99.90178809077364,19.03071895207031,0 99.90231371883823,19.03072246242899,0 99.90257653287885,19.03072421705092,0 99.90276247244411,19.03072090658365,0 99.90283828067643,19.03072950828565,0 99.90289756498406,19.03074648644608,0 99.90296941462773,19.03077408842818,0 99.90303847070427,19.03080599768586,0 99.90309728654702,19.03084061110797,0 99.90315524301622,19.03086326416721,0 99.90319819435133,19.03086242228949,0 99.90325833286363,19.03084288835507,0 99.90329477323662,19.03081604171206,0 99.90332020115012,19.03077815642166,0 99.903335490346,19.03073767226174,0 99.90333481341185,19.03068482411307,0 99.90333022401985,19.03063903930276,0 99.90330822558127,19.0305918349793,0 99.9032871900657,19.03055164102551,0 99.90324679819501,19.0304848547966,0 99.90321569975347,19.03043706928262,0 99.90319125041283,19.03037812757461,0 99.90318151833873,19.03031068218362,0 99.90317435978568,19.03021564548917,0 99.90314636571296,19.02987142165381,0 99.90311319003314,19.02946402947892,0 99.90309660225424,19.02926033338927,0 99.90305611508553,19.02889909527835,0 99.90303587156718,19.02871847621959,0 99.90302534043084,19.02858325162857,0 99.90302222278898,19.02851180781218,0 99.90298156573826,19.02845989563699,0 99.90289303088632,19.02845628283334,0 99.90268823308921,19.02846893656649,0 99.9025906340605,19.02846891700095,0 99.90191006307761,19.02848873349733,0 99.90123196708969,19.02850890747024,0 99.9008889765969,19.02851849955565,0 99.90035917460867,19.02852658396348,0 99.89983425164307,19.02853810204967,0 99.89951129858285,19.0285483943425,0 99.89909087215139,19.02856764811734,0 99.89887287436021,19.02855649721718,0 99.89882772265427,19.02852904116928,0 99.89884898242454,19.02844410967399,0 99.89888949793892,19.0283418716616,0 99.89899745328275,19.0280319127765,0 99.89906489985543,19.02787275095242,0 99.89916827493448,19.02764012813434,0 99.8993024703348,19.02739798365467,0 99.89944573421201,19.02716702009664,0 99.89972746960298,19.02672613455638,0 99.89974690884168,19.02666965080389,0 99.89973618857508,19.02659459181635,0 99.89970133371956,19.02648469261234,0 99.89966236185315,19.02634460465338,0 99.89961689905554,19.02612110277636,0 99.89953786724145,19.02574492736233,0 99.89943820948106,19.02533182246612,0 99.89934927508416,19.02497308411392,0 99.89929112714532,19.0247295023965,0 99.8992235820017,19.0244706856856,0 99.89918980950881,19.02434127732094,0 99.89912255169978,19.0240713991372,0 99.89909065648682,19.02393288984926,0 99.89906288341156,19.02382851560992,0 99.89903511037119,19.02372414136643,0 99.89904711830128,19.02361474303639,0 99.89906013805624,19.02351114373727,0 99.8990815453449,19.02333201225133,0 99.89908664775815,19.02321257328829,0 99.8990752447352,19.02314702743766,0 99.89905644469974,19.02307169246053,0 99.89901324228445,19.02301904389211,0 99.89896262986248,19.02296290989456,0 99.89890265790923,19.02291993707747,0 99.89878057219057,19.02283173408776,0 99.89867507727749,19.0227908464263,0 99.89861478449257,19.02277446725185,0 99.89851331958775,19.02276896209293,0 99.89841185468964,19.02276345687865,0 99.89819072641643,19.02275999040861,0 99.89797913025689,19.02275740382926,0 99.89769090385494,19.02275611612703,0 99.89730417272742,19.02274686477936,0 99.89711201218226,19.02274897855285,0 99.89660429243109,19.02275303395468,0 99.89635043254623,19.0227550611357,0 99.89592232782721,19.02275824276032,0 99.89567961289323,19.02275702945063,0 99.89556019990462,19.02276170346994,0 99.89549779581233,19.02276660179729,0 99.89545061468017,19.02275460990874,0 99.89542787485298,19.02273905615337,0 99.89540638779899,19.02270451849332,0 99.89534563056544,19.02259793389895,0 
							</coordinates>
						</LineString>
					</Placemark>
				</Folder>
			</Folder>
		</Folder>
		<Folder id="5D1009F29F000001">
			<name>สาย 1 หน้ามอ pky</name>
			<styleUrl>#__managed_style_20F7ECF35D40375C4343</styleUrl>
			<Folder id="5D1009F29F000002">
				<name>หน้ามหาวิทยาลัย - PKY</name>
				<open>1</open>
				<styleUrl>#__managed_style_20F7ECF35D40375C4343</styleUrl>
				<Folder id="5D1009F29F000003">
					<name>ขาไป</name>
					<open>1</open>
					<styleUrl>#__managed_style_20F7ECF35D40375C4343</styleUrl>
					<Placemark id="5D1009F29F000004">
						<name>ขาไป</name>
						<LookAt>
							<longitude>99.90373606464856</longitude>
							<latitude>19.03161120717052</latitude>
							<altitude>508.4578630681944</altitude>
							<heading>0</heading>
							<tilt>0</tilt>
							<gx:fovy>35</gx:fovy>
							<range>234.3917247510399</range>
							<altitudeMode>absolute</altitudeMode>
						</LookAt>
						<styleUrl>#__managed_style_047DACE86640375C4341</styleUrl>
						<LineString>
							<coordinates>
								99.92296949918538,19.03062467243611,0 99.92284012133511,19.0306259188257,0 99.92277252095454,19.03065425338932,0 99.92246633213452,19.03064620336592,0 99.92230324924381,19.03064284943453,0 99.9221565341085,19.03063285498648,0 99.92189086455106,19.03060467129457,0 99.92161404871588,19.03057444104257,0 99.92148402542863,19.03056498949266,0 99.92132132684438,19.03054629083023,0 99.92121506025765,19.03053411614679,0 99.92104261361321,19.03051188053043,0 99.92088655936304,19.03049529062419,0 99.92050565118429,19.03044977230608,0 99.92027904948792,19.03042258666393,0 99.91997841052435,19.0303904488125,0 99.91975412345327,19.03036730311569,0 99.91956048807323,19.03034128758883,0 99.91941391904052,19.03032409530888,0 99.91931982226491,19.03030193929819,0 99.9192544078788,19.03028958125419,0 99.91921417847448,19.03028088606772,0 99.91916178995027,19.03026661265292,0 99.91910308930444,19.03025002671038,0 99.91905558326802,19.03022784614383,0 99.91899981420421,19.03020342846796,0 99.91895587505277,19.03017646080579,0 99.91886100485029,19.03010717814078,0 99.91878675135273,19.03005552945718,0 99.91871096240901,19.02999216403381,0 99.91865080890372,19.0299382179503,0 99.91856879842067,19.02987801628478,0 99.91848895320351,19.02981543182213,0 99.91840212055484,19.02974971431106,0 99.91831615713154,19.02968859779124,0 99.91822166130962,19.02963389039224,0 99.91811114008121,19.02956897342519,0 99.91800876065386,19.0294884471954,0 99.91796120330309,19.02946169401655,0 99.91791858405608,19.02943398685027,0 99.91788763355744,19.02941932648808,0 99.91785169864791,19.02940033384762,0 99.91781571709681,19.02938921578315,0 99.91777546307654,19.0293746152767,0 99.91773136917169,19.02936407139865,0 99.9176833061267,19.02935966621732,0 99.91762340398434,19.0293617726667,0 99.91754788623469,19.02937518912143,0 99.91748786293887,19.02938818253019,0 99.91704723734738,19.02950290053029,0 99.91659216148206,19.02962169008209,0 99.91644278603948,19.02966370400046,0 99.91623746201091,19.02971282232681,0 99.91575593946115,19.02983976145692,0 99.91553102174046,19.0299008052509,0 99.91537534322678,19.02994362731028,0 99.91469902790128,19.03012481373789,0 99.9139624945166,19.03031753230766,0 99.91361694544668,19.03040841178325,0 99.91338163971426,19.03047940342477,0 99.91301097073108,19.03059545091799,0 99.91269931278403,19.03069775394173,0 99.91234896152362,19.03082864533016,0 99.91194717205049,19.03098563341572,0 99.91180200744839,19.03103402476862,0 99.91169282039715,19.03106814188295,0 99.91161972840277,19.03108777776002,0 99.91155778599433,19.03110181722418,0 99.91151885267273,19.03110586106142,0 99.91148018565981,19.03110256124362,0 99.91143598688198,19.03109375412085,0 99.9113893634121,19.03107935486393,0 99.91132615100686,19.03103985883987,0 99.91127985109864,19.03099360072076,0 99.91126040957856,19.03095379262633,0 99.91124360113632,19.03090977555481,0 99.91123727309687,19.03086644750696,0 99.91123625701542,19.0308163728202,0 99.91123663011749,19.03072445591931,0 99.91124170416838,19.03059213608818,0 99.91123948431783,19.03050396581106,0 99.91123943939738,19.03039915802131,0 99.91122982688722,19.03031918101867,0 99.91121934469211,19.0302362357443,0 99.91119943837495,19.03013679174654,0 99.91117770976257,19.03005362635826,0 99.91117022148477,19.02999610834813,0 99.91116807671936,19.02995951202694,0 99.91115506561709,19.02993397517075,0 99.91112678453445,19.02988601286239,0 99.91109399477435,19.0298409015191,0 99.91105587970249,19.02980209851683,0 99.91101535653782,19.02977395863153,0 99.91097106204607,19.02973676318905,0 99.91093040227348,19.02971386183217,0 99.91090062785071,19.02969944531784,0 99.91087871386772,19.02969118049772,0 99.91084531902635,19.02968157946107,0 99.91078684797799,19.02967393383278,0 99.91071188730736,19.02967488367994,0 99.91063909949062,19.02968194614864,0 99.91014838087791,19.02974703192814,0 99.90962265398214,19.02981618640507,0 99.90949426536065,19.02982060380168,0 99.90928531576782,19.0298097898556,0 99.90923501943608,19.0298034243466,0 99.90920384959017,19.02979885441448,0 99.90915498981938,19.02978168111774,0 99.909116394701,19.02975666319497,0 99.90905295613896,19.02971639144217,0 99.9088795388635,19.02958291769234,0 99.90873677632115,19.02945926123035,0 99.90864333675579,19.02937828125556,0 99.90856062225062,19.02931628674734,0 99.90848921319244,19.02925660794234,0 99.90840775426875,19.02920254717298,0 99.90833285906591,19.02915846824535,0 99.90819826090042,19.02907631736654,0 99.90802154599794,19.02896946214703,0 99.90791008468489,19.02889939224993,0 99.90778225630353,19.02882036645396,0 99.90771458517474,19.02876564949315,0 99.90766147383034,19.02873436318792,0 99.907590518817,19.02869950597031,0 99.90751502962382,19.02865633341754,0 99.90746923621612,19.0286300827862,0 99.90742460261838,19.0286037241327,0 99.90734706908579,19.02857866693209,0 99.90725299335138,19.02856868705455,0 99.90716486041292,19.02857601431558,0 99.90700233474104,19.02860188114093,0 99.90683178318476,19.02863058415461,0 99.90671419452559,19.028655995687,0 99.90651765372687,19.02870024031907,0 99.906429698414,19.02872476743714,0 99.90637310865165,19.02873946484816,0 99.90632274868916,19.02876045300836,0 99.90628633572575,19.02878739117623,0 99.90625438278954,19.0288174404449,0 99.90622193740732,19.02886527976373,0 99.90618949373724,19.02891001403812,0 99.90611307593512,19.02903674721741,0 99.90608356759051,19.02909586304989,0 99.90605192384109,19.02916703236284,0 99.90602929134685,19.0292260311523,0 99.90601324194992,19.02927989907662,0 99.90591985008008,19.02953701706511,0 99.90587273426596,19.02962486762687,0 99.90581253376085,19.02973290035647,0 99.90552923464577,19.03019029503039,0 99.90548496519678,19.03024958741383,0 99.90543879842829,19.03032870350735,0 99.90539111124845,19.03038387019761,0 99.9053326180034,19.03045481818194,0 99.9052762134136,19.0305039050609,0 99.90521844347289,19.03054101160394,0 99.90514295189215,19.03058040129084,0 99.90500273268341,19.03065654173133,0 99.90476410476336,19.03077994969832,0 99.90455969750428,19.03089453112611,0 99.90444023201449,19.03095867177215,0 99.9042961522654,19.03104656043863,0 99.9041856262005,19.0311219740902,0 99.90408285415447,19.03117307270209,0 99.90399193873353,19.03123349720019,0 99.90394107897524,19.03125437216631,0 99.90388196521707,19.03126676055268,0 99.90382339432676,19.03126786098992,0 99.90377243143135,19.03126036588509,0 99.90370871933783,19.0312435952685,0 99.9036545600281,19.03120281013251,0 99.90361387214382,19.03116241328133,0 99.90353323226391,19.03105263465526,0 99.90344977968738,19.03094800364484,0 99.9033784863017,19.03083435924631,0 99.90336405592413,19.03079311243366,0 99.90335939447863,19.03074912394352,0 99.90335311067939,19.03070894108303,0 99.90334020442728,19.03065899436563,0 99.90332158617026,19.03061598883807,0 99.90329794293841,19.03055824548671,0 99.90326683687717,19.03051509237266,0 99.90321617239003,19.03048744651979,0 99.90313809082635,19.0304797737364,0 99.90309367743481,19.03049669229832,0 99.90303148883152,19.03053459907344,0 99.90299585100182,19.03057151428396,0 99.90295235462584,19.03060087101043,0 99.9029171734888,19.03061113378971,0 99.90287893928911,19.03061933451188,0 99.90279666710452,19.03063465926351,0 99.90270588599758,19.03063576462164,0 99.90227135854356,19.03062940169848,0 99.90183021929639,19.03062946689596,0 99.90139427762355,19.03064410577643,0 99.90117344713481,19.03064436040397,0 99.90051139386992,19.03065183265436,0 99.89982366708033,19.03066122221703,0 99.89942518954319,19.03066337455964,0 99.89931280843086,19.030662607534,0 99.89920036685241,19.03066482937742,0 99.89912841099058,19.03065876830486,0 99.89907911017691,19.03065467204211,0 99.89903826844827,19.03065386640464,0 99.89897992880459,19.03064410620669,0 99.89891843712238,19.03063909884548,0 99.89880436253664,19.03061274528982,0 99.89871093245613,19.03058317711263,0 99.89861266943907,19.03055546126391,0 99.89852076842348,19.03050187620535,0 99.8984010848434,19.03042734538381,0 99.89829756051788,19.03036630124142,0 99.89826538028345,19.03032616726024,0 99.89823074764037,19.03029759101899,0 99.89818827889337,19.0302661802486,0 99.89813757414601,19.03023681387389,0 99.89809746685272,19.03022242161601,0 99.89802208162523,19.03021144120593,0 99.89798961744216,19.03020637440079,0 99.89795775972338,19.03019218981539,0 99.89791431727326,19.03017022221986,0 99.89786780184863,19.03014415386195,0 99.89781552763671,19.03010817236028,0 99.89778951615862,19.03008977950144,0 99.89772226793323,19.03003864743712,0 99.89731344091011,19.02982525148673,0 99.8970133330462,19.029669766858,0 99.89682888755428,19.02955618119919,0 99.89664899673724,19.02946379071459,0 99.89647406702471,19.02935692602718,0 99.89625894829153,19.02922941663478,0 99.89615071909736,19.02915985170285,0 99.89607367096541,19.02909516448791,0 99.89594318963215,19.02901162839429,0 99.89583588043607,19.02894149605209,0 99.89573837599163,19.02888477712077,0 99.89564379363304,19.02883288995645,0 99.89551862013651,19.02874870987602,0 99.89545203421154,19.02870371759909,0 99.89540646651101,19.02866892500299,0 99.8953795627182,19.02864057415592,0 99.89534873396339,19.02860561594223,0 99.89532323993146,19.02857741867541,0 99.89530434276139,19.0285462173031,0 99.89528716649465,19.02851214780974,0 99.89527564439115,19.02848017253037,0 99.89526569618553,19.02843207642115,0 99.89527126382028,19.02838730657022,0 99.89528564467926,19.02834243467729,0 99.89530942405669,19.0282749148795,0 99.8953443211774,19.02820152655404,0 99.89541277454644,19.02807658823923,0 99.89551337478588,19.02789474836258,0 99.89560674322158,19.0277352306237,0 99.89565071198722,19.02762027983993,0 99.89566820744257,19.02754102836936,0 99.89567186677453,19.02742994803635,0 99.89566578174002,19.02735478677057,0 99.89565349883176,19.02719832955287,0 99.89563391065803,19.02703266002153,0 99.89561144390782,19.02685358138722,0 99.89559287657845,19.02672463476333,0 99.89556118149559,19.02652581025008,0 99.89553113408765,19.02632502233261,0 99.89550378254903,19.02608196044655,0 99.89548278911487,19.02596766019114,0 99.89547983864409,19.02589527674474,0 99.89546840082996,19.02582986401351,0 99.89544202299508,19.02577307599462,0 99.89541392408093,19.02572980911088,0 99.89537116331584,19.02569393303466,0 99.89534257195687,19.02567858159017,0 99.89530235634736,19.0256593337491,0 99.89524801236384,19.02564083610413,0 99.89504865299803,19.02560914357633,0 
							</coordinates>
						</LineString>
					</Placemark>
				</Folder>
				<Folder id="5D1009F29F000005">
					<name>ขากลับ</name>
					<open>1</open>
					<styleUrl>#__managed_style_20F7ECF35D40375C4343</styleUrl>
					<Placemark id="5D1009F29F000006">
						<name>สายหน้ามอ - ขากลับ</name>
						<styleUrl>#__managed_style_047DACE86640375C4341</styleUrl>
						<LineString>
							<tessellate>1</tessellate>
							<coordinates>
								99.89500988569043,19.02566511639834,0 99.89522757789325,19.02570579750613,0 99.89527315992943,19.02571402863694,0 99.89531695789617,19.02572344688164,0 99.89535644753852,19.02573637694295,0 99.89537892335325,19.02574779178182,0 99.89539419344449,19.02575929936681,0 99.89540972587602,19.02577951815073,0 99.8954228643377,19.02579879647984,0 99.89543478139169,19.02583072953411,0 99.8954320188969,19.02588412389755,0 99.8954418322041,19.02602096446613,0 99.8954879371127,19.02633786059646,0 99.89552645250063,19.02665629912071,0 99.89554793781704,19.0268466425283,0 99.89557138043597,19.02699592843769,0 99.89558966807029,19.02714084782436,0 99.89560408837067,19.02725807107856,0 99.89561487903748,19.02737035031834,0 99.89562005584122,19.02743630742955,0 99.89562114534395,19.02749881521009,0 99.89562167107833,19.02756245231704,0 99.89561130553243,19.02762783988515,0 99.89560537737842,19.02765817093927,0 99.89559521283125,19.02768512288381,0 99.89557127640008,19.02772756965667,0 99.89554733995664,19.02777001642645,0 99.89542445772896,19.0279740743686,0 99.89537044529628,19.02807862323104,0 99.89530708546341,19.0281954955259,0 99.89525989457222,19.02827611960237,0 99.89523593668474,19.02835051575817,0 99.89514683815798,19.0286059860174,0 99.89511313018862,19.02869119384166,0 99.89505154656905,19.0288417716292,0 99.89503330019863,19.02887497119722,0 99.89502830822479,19.02891337283744,0 99.89502159224239,19.02895559267422,0 99.89502171984772,19.02898964281345,0 99.89502619496044,19.02902554573819,0 99.89503362828519,19.02906950792946,0 99.89504027161452,19.02909371984957,0 99.89505742924955,19.02913074623569,0 99.89507626593576,19.02915571442912,0 99.8951020364743,19.02918101300531,0 99.89512781692184,19.02920478428118,0 99.89515587687916,19.02922918354419,0 99.89518293528239,19.02924749324099,0 99.8952054056399,19.02926499669601,0 99.89524514437868,19.02929151450337,0 99.89527312365445,19.02931347096141,0 99.895314588754,19.02933534931465,0 99.89536640019051,19.02936756698853,0 99.8957950794526,19.0295949904059,0 99.89599845475423,19.02970180051762,0 99.89619940622181,19.02981235748906,0 99.89637669999999,19.0299071,0 99.89661812147696,19.03004284947437,0 99.8968845263062,19.03019144595034,0 99.8974879729395,19.03052189694616,0 99.89755282971426,19.0305608835642,0 99.89781283399932,19.03067617138518,0 99.89789051264691,19.03072755617714,0 99.89795930000001,19.0307576,0 99.89802217839114,19.03077573377248,0 99.89809331170518,19.03077269427273,0 99.89815468448204,19.03074586920518,0 99.89819928274848,19.03072524751923,0 99.89824967965964,19.03068889002353,0 99.8982808639928,19.03064712641381,0 99.8983121047694,19.03059906561032,0 99.89832820462186,19.03056664456518,0 99.89836823247249,19.03055325755728,0 99.89840705083154,19.03055134153423,0 99.89846339999998,19.030555,0 99.89851530556776,19.03056279252525,0 99.89855913291414,19.03058044880468,0 99.89859201932987,19.03059878325855,0 99.89866064995948,19.03062436884472,0 99.89881119635083,19.03067528264911,0 99.89897638258951,19.03071532640133,0 99.89913077484105,19.03072290189377,0 99.90038680925953,19.03072974435802,0 99.90075141849086,19.03073561376684,0 99.90120392650371,19.03074003862613,0 99.90180363427636,19.03072881997875,0 99.90211450000001,19.0307233,0 99.90247346754609,19.03072060033864,0 99.90280594122312,19.03072466244829,0 99.90296601356582,19.03075452049856,0 99.90301301433178,19.03078474881597,0 99.9030687932183,19.03081609000107,0 99.90311408026656,19.03084053994406,0 99.90317949773292,19.03086867259323,0 99.90325741356051,19.03091993175522,0 99.90331882247371,19.03096468623951,0 99.90335869500483,19.03100667695655,0 99.90339330849079,19.03105423708957,0 99.90348614747889,19.03117065241454,0 99.90355288464332,19.03126558699391,0 99.90358790674149,19.03132560729573,0 99.90361616925183,19.03139177324995,0 99.90364426288785,19.03146432418097,0 99.90367054563394,19.03153088006843,0 99.90367558961638,19.03156941445745,0 99.90367726439285,19.03160991502987,0 99.9036480622611,19.03166570139807,0 99.90360637720066,19.03172021606663,0 99.90355474947106,19.0317704092955,0 99.9034953878998,19.03182084458735,0 99.90344042601154,19.03187516062668,0 99.90336418972686,19.03194868057768,0 99.90325881097749,19.03205083230764,0 99.90318203415607,19.03212055998557,0 99.90308937072703,19.03219545570093,0 99.90300402042037,19.03226661247516,0 99.90293781103847,19.03229983824288,0 99.90287082890815,19.03232380332928,0 99.90281199518822,19.03234020130864,0 99.90274230038312,19.03235336391326,0 99.90267069564503,19.03236896543336,0 99.90256903880508,19.03238022636807,0 99.90246715913889,19.03237796566177,0 99.9022642420725,19.03237216961657,0 99.90203856704537,19.03236449556066,0 99.90184453195384,19.0323669878867,0 99.90171065727786,19.03236255176473,0 99.90158905597671,19.03235925110403,0 99.90147809088879,19.03235520801571,0 99.90137013694205,19.03235903004138,0 99.90129142591296,19.03235975181337,0 99.90117126148779,19.03237205548169,0 99.90099159942248,19.03239217487802,0 99.90079025930075,19.03241228691405,0 99.90070374382101,19.03243032816493,0 99.90066473478841,19.03244814141809,0 99.90063822027953,19.03246238841982,0 99.90061548102753,19.03248135070449,0 99.90060387770819,19.03248770594838,0 99.90058983276614,19.03249757630878,0 99.90058044178842,19.03251435957366,0 99.90057790745033,19.03253480313065,0 99.90058519748841,19.03255490527734,0 99.90059599932668,19.0325665828992,0 99.90060742710121,19.03257575648998,0 99.90062371145244,19.03258261776118,0 99.90064008586346,19.03258846592277,0 99.90066318726721,19.0325904353246,0 99.90068752661128,19.032588751556,0 99.90072034324557,19.03257987906681,0 99.90074607663034,19.03257214778958,0 99.90076843065123,19.03256681237663,0 99.90081520353111,19.03255668237442,0 99.90086414318344,19.03254706677683,0 99.90091538546289,19.03253959422253,0 99.90100440021287,19.03252823212013,0 99.9011779567457,19.03250793583945,0 99.90134220000002,19.0324987,0 99.9014281,19.0324913,0 99.90151841429336,19.03248823091122,0 99.9015887182551,19.03248999331211,0 99.90168854584277,19.03249389816736,0 99.9018004,19.0324959,0 99.90185095404367,19.03249898502155,0 99.90194493603417,19.03250126245788,0 99.90206431097658,19.03250878009941,0 99.9022861984467,19.03252604515544,0 99.90245597366335,19.03253608783253,0 99.90254332844084,19.03252962315672,0 99.90263576983902,19.03252441828935,0 99.9027332200109,19.03250558504811,0 99.90281327200171,19.03248748092446,0 99.90290253752971,19.03246174321059,0 99.90305435811182,19.03238759830954,0 99.90315517121809,19.03232247992193,0 99.90333918199846,19.03216831933792,0 99.90352852143906,19.03197470097052,0 99.90370737124795,19.03179001177737,0 99.90384054954362,19.03166395733304,0 99.90397109001033,19.03153304613473,0 99.90407499629475,19.03142754645866,0 99.90421907766778,19.03128352504267,0 99.90434938854679,19.03116670816095,0 99.90445972251143,19.03109089364101,0 99.9046152850847,19.03100756932649,0 99.90480655819309,19.03090342724408,0 99.90496413600029,19.03083809307064,0 99.90516192815463,19.03073746876915,0 99.90522619719064,19.03070195209334,0 99.90528269729116,19.03066220292013,0 99.90539987095825,19.03057007601139,0 99.90547287354526,19.03048629328018,0 99.90553796431156,19.03040644332452,0 99.90558369656586,19.03034415480203,0 99.90565125993676,19.03024085810583,0 99.90574141800496,19.03009191072951,0 99.90585318677218,19.02991250813858,0 99.90595108898574,19.02976240350803,0 99.90600752580717,19.02965930029432,0 99.90605078165807,19.02955335699993,0 99.90607407967558,19.02947872885956,0 99.90609806083113,19.02940401413673,0 99.90616139637841,19.02922565981362,0 99.9061897224248,19.02915601076307,0 99.90622688740874,19.02908767489572,0 99.90628658872578,19.02898560212174,0 99.9063293893816,19.02892731520017,0 99.90634847665316,19.02889924483679,0 99.90637435290922,19.02887755491659,0 99.90639292080505,19.02886686371473,0 99.90641082436308,19.02885677683301,0 99.9064485014122,19.02883903393725,0 99.90648798052901,19.02882401818241,0 99.90651969576905,19.02881603577983,0 99.90662869849709,19.02879139607569,0 99.90673479482462,19.02876897669316,0 99.90690634593645,19.02873571959951,0 99.90712580576009,19.02869517246023,0 99.90717220114318,19.02868790473777,0 99.90721681624652,19.02868507219764,0 99.90725612174253,19.02868340043183,0 99.90729190577115,19.02868577572207,0 99.9073126384004,19.02868966880358,0 99.90733647986221,19.02869547099459,0 99.90736273894528,19.02870250864797,0 99.90740073632364,19.02872367470639,0 99.90742850075655,19.02873861940959,0 99.907521,19.0287925,0 99.9076565,19.0288739,0 99.90772860000001,19.0289235,0 99.9078609,19.0290031,0 99.90803540000002,19.0291096,0 99.90808250000001,19.0291377,0 99.90818866802736,19.02920843843264,0 99.90833645758383,19.02930407272108,0 99.90853244448058,19.02943447755415,0 99.90856460594527,19.02946468987593,0 99.90868932819077,19.02957382588789,0 99.90880418652473,19.02967335409655,0 99.90887129016326,19.02973511061561,0 99.90894447163554,19.02979568378725,0 99.9089824961809,19.02982050275534,0 99.90901153136822,19.02983896507903,0 99.90905479126673,19.02986077477356,0 99.90908869877673,19.02987745690941,0 99.90912389605154,19.02988680553812,0 99.90915792905449,19.02989656816431,0 99.90919608857622,19.02990607736695,0 99.90922624129252,19.02991129868187,0 99.90926052688887,19.02991640750294,0 99.90930308433268,19.02992062537152,0 99.90934058256964,19.02992321917916,0 99.90937335755596,19.02992624284858,0 99.90939904234845,19.02992551920986,0 99.90943616927039,19.02992746433799,0 99.90948261263841,19.02992858096647,0 99.90952680215651,19.02992792250604,0 99.90957283029385,19.0299238894257,0 99.90960660868049,19.02992256350347,0 99.90964157683351,19.02991843005227,0 99.90967464424344,19.0299150367702,0 99.90984097381811,19.0298975531796,0 99.91026415619285,19.02983985282127,0 99.91050910104917,19.02981047793745,0 99.91057523420405,19.02980069939127,0 99.91062127425697,19.02979570005842,0 99.91066185077509,19.02979312754055,0 99.91069825878597,19.02979156269507,0 99.91073620964383,19.02979459919177,0 99.91077416935616,19.02979966915855,0 99.91080542413501,19.02980942720705,0 99.91083294101841,19.02981838846855,0 99.91084728478859,19.02982447461733,0 99.91086358249737,19.0298323588577,0 99.9108793385896,19.02984162092145,0 99.91089544490808,19.02985254630534,0 99.91091782148723,19.02986821374753,0 99.91093956983327,19.02988772356298,0 99.91095182457181,19.02990638660984,0 99.91096434050667,19.02992244341209,0 99.91097574489642,19.02994032080113,0 99.91098639280325,19.02995944812126,0 99.91099597924197,19.02997493035704,0 99.91100369742543,19.02999331724477,0 99.91101028822673,19.03001127358357,0 99.91101836931729,19.03003371602654,0 99.91102447064193,19.03005568062547,0 99.91103017363338,19.03008176303325,0 99.91103363677878,19.03010373346703,0 99.91103923292769,19.03012626108437,0 99.91104824961165,19.03019001492088,0 99.91106227635682,19.03026418513848,0 99.91107432528027,19.03038302101941,0 99.91107475417263,19.03052789879625,0 99.91107416271883,19.03060580521239,0 99.91108254638814,19.03072213659476,0 99.91108770993813,19.03077140883892,0 99.9110929233691,19.0308199952959,0 99.91109752378419,19.03086150239242,0 99.91110305161634,19.03088887944081,0 99.91110952104293,19.03091662404688,0 99.91111627525905,19.03093596916484,0 99.91112236026913,19.03095526933439,0 99.91112990790893,19.03097999218157,0 99.91113823713863,19.03100282898556,0 99.91114598080819,19.03101990717161,0 99.91115945252641,19.03103951537188,0 99.91117104793692,19.03105696064103,0 99.91118264334986,19.03107440590946,0 99.91119693321056,19.03109257113401,0 99.91121084787653,19.0311051840196,0 99.91123947517495,19.03113386121693,0 99.91128121373795,19.03116556364382,0 99.91132138898637,19.03118761230077,0 99.91136445659612,19.03120546130565,0 99.91141701585288,19.03122167297516,0 99.91148735246944,19.03122731081861,0 99.9115471140735,19.03122368771228,0 99.91162162576744,19.03121438503779,0 99.9116974232885,19.03119714802417,0 99.91180149947577,19.03116538934337,0 99.91196875770136,19.03110616625279,0 99.91210144872753,19.03105485266454,0 99.91227561708942,19.03098802274804,0 99.91261132034577,19.03086139384195,0 99.91285733662848,19.03077492029177,0 99.91296684690185,19.0307378588575,0 99.91319071392341,19.03066153898197,0 99.91379190672743,19.03049003763992,0 99.91403249951296,19.03042338922324,0 99.91457715356186,19.03027847476828,0 99.91466906077154,19.03025474406395,0 99.91508423483164,19.03014743380043,0 99.91526225901504,19.03009896044673,0 99.91550838416386,19.030037131432,0 99.91571414680106,19.0299799337813,0 99.91618670353884,19.02985214996097,0 99.91650351304787,19.02976893024233,0 99.91696551290912,19.02964044775683,0 99.91756001666634,19.02948706705062,0 99.91759329487401,19.02947839089694,0 99.91762590921188,19.02947631066712,0 99.91766462891573,19.02947648217331,0 99.91770748606611,19.02947930354638,0 99.91775176712677,19.02949060330645,0 99.91778608589827,19.02950196130066,0 99.91782395880952,19.02951924755491,0 99.91786803393487,19.02954434244534,0 99.91792400478163,19.02957614057685,0 99.91809030867432,19.0296935834934,0 99.91824079383302,19.02981005700926,0 99.91849174008128,19.0299961228666,0 99.91872267263297,19.03016312105965,0 99.91880734217206,19.03022303949539,0 99.91888486655162,19.03027535618796,0 99.91895832148151,19.03031973316981,0 99.91902534393846,19.03035143190946,0 99.91908618739174,19.0303735165807,0 99.9191579,19.0303916,0 99.9192156,19.0304071,0 99.91928160000001,19.0304197,0 99.9195386,19.0304647,0 99.9196534,19.0304849,0 99.91993692757995,19.03053448737826,0 99.9202226703556,19.03057644198491,0 99.92057264048063,19.03061773327401,0 99.92080357986745,19.03064468726654,0 99.92150185116616,19.03072277729565,0 99.92167665043961,19.03073325090539,0 99.92185967933837,19.03073844680939,0 99.92211365937348,19.0307633862421,0 99.92231483875703,19.03078023487368,0 99.92256247153024,19.03079331675647,0 99.92280917013859,19.03080498383355,0 99.92287764839816,19.03081060434582,0 99.92294612666231,19.03081622483285,0 99.92301870915057,19.03082730171078,0 99.92307103859886,19.03083175940958,0 99.92316210728406,19.03083670953029,0 99.92325736831344,19.03084008473956,0 
							</coordinates>
						</LineString>
					</Placemark>
				</Folder>
			</Folder>
		</Folder>
		<Folder id="5D100A430F000001">
			<name>รร.สาธิต - PKY</name>
			<open>1</open>
			<styleUrl>#__managed_style_20F7ECF35D40375C4343</styleUrl>
			<Folder id="5D100A430F000002">
				<name>สายประตู2</name>
				<open>1</open>
				<styleUrl>#__managed_style_20F7ECF35D40375C4343</styleUrl>
				<Folder id="5D100A430F000003">
					<name>ขาไป</name>
					<open>1</open>
					<styleUrl>#__managed_style_20F7ECF35D40375C4343</styleUrl>
					<Placemark id="5D100A430F000004">
						<name>ขาไป(ประตู2 -PKY)</name>
						<visibility>0</visibility>
						<LookAt>
							<longitude>99.89517599174086</longitude>
							<latitude>19.025544222204</latitude>
							<altitude>493.1554316821016</altitude>
							<heading>0</heading>
							<tilt>0</tilt>
							<gx:fovy>35</gx:fovy>
							<range>269.264810280547</range>
							<altitudeMode>absolute</altitudeMode>
						</LookAt>
						<styleUrl>#__managed_style_2D4458C78140375C4344</styleUrl>
						<LineString>
							<coordinates>
								99.88374658418003,19.03800159516403,0 99.88405080091532,19.0384307108821,0 99.88430942298923,19.03844697706255,0 99.88450231662941,19.03844343442096,0 99.88461906715695,19.0384442250764,0 99.88474553975782,19.03844323682419,0 99.88488260387707,19.03841802606992,0 99.88505899556853,19.0383552040126,0 99.88518683277358,19.03830543236954,0 99.88533180595265,19.03821776480762,0 99.88546286010666,19.0381120032899,0 99.88557103143231,19.03801597112127,0 99.88563860306732,19.03793412536583,0 99.88562082071617,19.03781592545424,0 99.88559898730952,19.0376937712688,0 99.88553003172076,19.0371991133618,0 99.88549199811521,19.03695070624599,0 99.88541392540181,19.03644035694392,0 99.88537019388235,19.03614202382073,0 99.88534846007664,19.03595495628555,0 99.88532289397182,19.03581923049663,0 99.88531328801011,19.03569464057993,0 99.88531822751411,19.03560731757238,0 99.88533691010019,19.03548166052708,0 99.88538633396962,19.0353253192116,0 99.88543170516731,19.03519527186752,0 99.88559032872995,19.03482268082127,0 99.88564668664293,19.03466039806131,0 99.88574550823876,19.03442668731427,0 99.88578100891131,19.03433874416792,0 99.88586076656911,19.03429096537984,0 99.88600061341094,19.03426627180104,0 99.88615966240828,19.03422593125281,0 99.88629184130178,19.03419690859671,0 99.88647998840189,19.03411873069826,0 99.88697494018341,19.0338442349715,0 99.88754024807358,19.0335747831083,0 99.88831406762394,19.03322756178801,0 99.88876275601957,19.0330439259026,0 99.88886830419717,19.03299989382626,0 99.88899442164902,19.03295362646572,0 99.88909245820905,19.03293814349001,0 99.88919249542172,19.03293436160502,0 99.88935560324025,19.03294360746212,0 99.88958923225638,19.03296067384601,0 99.88991873971594,19.03300766370084,0 99.89046022224052,19.03308732123927,0 99.89060300082519,19.03310969657737,0 99.89087837378447,19.03315046944374,0 99.89105467189526,19.03316600305211,0 99.89119559351815,19.03315596664167,0 99.89141652101436,19.03311527408745,0 99.89210870009698,19.0329117401437,0 99.89222643859665,19.03285515580214,0 99.89234889264787,19.0327615591471,0 99.89286584286218,19.03232254062518,0 99.89293606154786,19.03225235897821,0 99.89303817430958,19.03216423138436,0 99.89321631943866,19.03207033399987,0 99.89337116104052,19.03199338281528,0 99.89346377853389,19.03194740340066,0 99.89357570980454,19.03188031442313,0 99.89366584575204,19.03182202243636,0 99.89374865443715,19.03171612278004,0 99.89378674081121,19.03162492034289,0 99.89380814557944,19.0315454896689,0 99.89380821959219,19.03144003694293,0 99.8938111891257,19.0313384623114,0 99.89383147020027,19.03117277571529,0 99.89387341944084,19.0310250623555,0 99.89394202066185,19.03088765355147,0 99.89404641932924,19.03075493463347,0 99.89427810967919,19.03045526694001,0 99.89440086902029,19.03027703043358,0 99.89456003214377,19.03007833921059,0 99.89467830135439,19.02992006911838,0 99.89489528887751,19.02959492496378,0 99.89504872528708,19.02941339637376,0 99.89516773890013,19.02936742616508,0 99.89536165789555,19.02936517335189,0 99.89553496493048,19.02945464989065,0 99.8956472059235,19.02950663103545,0 99.8957909360923,19.02958835952943,0 99.89623059389582,19.02982275081187,0 99.89651916292154,19.02998215661095,0 99.89762886458874,19.03058646589058,0 99.89789642607406,19.03074283660456,0 99.89797574091463,19.03077051430689,0 99.89802576650422,19.03076885191444,0 99.89810651363553,19.03075855342183,0 99.89819044818792,19.03072047119806,0 99.89826747564908,19.03065283379683,0 99.89830721497324,19.03057825494918,0 99.89831860954244,19.03049858633603,0 99.89830183476444,19.03041020422584,0 99.89825091911501,19.03031472595517,0 99.89817697777677,19.03026155491692,0 99.89811132973028,19.03021996589302,0 99.89804695600685,19.03022073925172,0 99.89798680742362,19.03020929282043,0 99.89789866584151,19.03015813336543,0 99.89780043643562,19.03009925367595,0 99.89766447649455,19.03002235994458,0 99.89736718262351,19.02985437520363,0 99.89695372745589,19.02962902251676,0 99.89602907724262,19.02906676625737,0 99.89579525248433,19.02889877605056,0 99.89564010313106,19.02881273625589,0 99.89549582856999,19.02872016098726,0 99.89535812225992,19.02860222177917,0 99.89527948967483,19.02846940514449,0 99.89528483621797,19.02829129377546,0 99.89538186107799,19.0281178262212,0 99.89549981220323,19.02792055148779,0 99.8955874779132,19.02775947005829,0 99.89565603009936,19.02760117804823,0 99.89568160034864,19.02743348489374,0 99.89564389488612,19.02717540233767,0 99.8956163933647,19.02693470839399,0 99.89558013011494,19.02663808220543,0 99.89552216718873,19.02623593016471,0 99.89547838627659,19.02591446546274,0 99.89546898705771,19.02584296596501,0 99.89544063246279,19.02577010252438,0 99.89539306267936,19.02571588990027,0 99.89533537778134,19.02567248585128,0 99.89525066933936,19.02564679956969,0 99.89518382197004,19.02563750451342,0 99.89508556047655,19.02562083495386,0 99.89510474779443,19.02552385645054,0 99.8951212248048,19.02539419330053,0 
							</coordinates>
						</LineString>
					</Placemark>
				</Folder>
				<Folder id="5D100A430F000005">
					<name>ขากลับ</name>
					<open>1</open>
					<styleUrl>#__managed_style_20F7ECF35D40375C4343</styleUrl>
					<Placemark id="5D100A430F000006">
						<name>ขากลับ(PKY-ประตูสอง)</name>
						<LookAt>
							<longitude>99.88405258778333</longitude>
							<latitude>19.03800187500909</latitude>
							<altitude>501.2639515096912</altitude>
							<heading>359.9999991404968</heading>
							<tilt>0</tilt>
							<gx:fovy>35</gx:fovy>
							<range>253.3278234279715</range>
							<altitudeMode>absolute</altitudeMode>
						</LookAt>
						<styleUrl>#__managed_style_2D4458C78140375C4344</styleUrl>
						<LineString>
							<coordinates>
								99.89500746470381,19.02568979427765,0 99.89518839942333,19.02570409621946,0 99.8953039029355,19.02572769612649,0 99.89535432872684,19.02574024380433,0 99.89538165525263,19.0257625760207,0 99.89540146812841,19.02579685468859,0 99.89542132504333,19.0258330962303,0 99.89543280990168,19.02591373039553,0 99.89544388224044,19.02599967651794,0 99.89556172351578,19.02690736048758,0 99.89558484303716,19.0270744840834,0 99.89562326835804,19.02740836574026,0 99.89562398283012,19.02744829372728,0 99.89563065917883,19.02749993208368,0 99.89562384081221,19.02755344712503,0 99.8956143140593,19.02761199531638,0 99.89558148522752,19.02768831945664,0 99.89553031124539,19.02777871895195,0 99.89526609838336,19.0282618221375,0 99.89519665771263,19.02848227265025,0 99.89510960494384,19.02872159617619,0 99.89505878452069,19.02883718269872,0 99.89503250382963,19.02891343594033,0 99.89500011903917,19.02903936329047,0 99.89498988866654,19.02918123876464,0 99.89493725611395,19.02933082145098,0 99.89487339058364,19.02943422841302,0 99.89467758889566,19.02974490479581,0 99.89453612234126,19.02996131300419,0 99.89435545439575,19.0302068713647,0 99.89427523372744,19.03033708856531,0 99.89394364762026,19.03077369777099,0 99.89382721175468,19.03096154845359,0 99.89377645500844,19.03108836412873,0 99.89373983158298,19.03124496102409,0 99.89373208569853,19.03135284671156,0 99.89372995066557,19.0314854771668,0 99.89372395973814,19.03158489275161,0 99.89369678633537,19.0316643660268,0 99.89363508924538,19.03173250706551,0 99.89355493034621,19.03178592804946,0 99.89342480568934,19.03185705223564,0 99.89325423605659,19.03195638893194,0 99.89309692022231,19.03203669733083,0 99.89297096544514,19.03210478490448,0 99.89285703832628,19.03221153355356,0 99.89269470443008,19.03237954659483,0 99.89249069767838,19.0325376204533,0 99.89240820938092,19.03262298391729,0 99.89232695077655,19.03269794533674,0 99.89222243691006,19.03276618433424,0 99.89205820848525,19.03285293035004,0 99.89189055433205,19.03289535149158,0 99.8917878091496,19.03294203909315,0 99.89157374840003,19.03299376700947,0 99.89142104285847,19.03303842812664,0 99.89128426499248,19.03307369354501,0 99.89111100638533,19.03309476332735,0 99.89083263425958,19.03307458241199,0 99.89059743712949,19.03304086561351,0 99.89034370482528,19.03300945139909,0 99.89003725638267,19.0329653043871,0 99.88973823972539,19.03291305688654,0 99.88950833004733,19.0328907536329,0 99.88930679615363,19.03287577669349,0 99.8890962137534,19.03288281720246,0 99.8889001647976,19.0329286601588,0 99.88863917218426,19.03302342265307,0 99.8868127739313,19.03384164818589,0 99.88646492511987,19.03401673535854,0 99.88632596478526,19.03408298953789,0 99.88624622783186,19.03411383674497,0 99.8860937978567,19.03416166345136,0 99.88575863359699,19.03423708602534,0 99.88531679209034,19.03434546841701,0 99.88511258543826,19.03439299247472,0 99.88486204092561,19.03442928652921,0 99.88466244562041,19.03445835780227,0 99.88435365663798,19.03447164830357,0 99.88423904053101,19.03447333597937,0 99.88414804119958,19.03446674681264,0 99.88404553163095,19.0345578755516,0 99.88401885849477,19.03470852274721,0 99.88404049013053,19.03498862622263,0 99.88408689314005,19.03515026289387,0 99.88415149785131,19.03529103330785,0 99.88416840349491,19.03533920601283,0 99.88428848290133,19.03549346636028,0 99.88441617078161,19.03560489304711,0 99.88466148115162,19.03572742944696,0 99.88487917302962,19.0358052342796,0 99.88524749492225,19.03595045222763,0 99.88528293916507,19.03598693666731,0 99.88531038408357,19.03612523921261,0 99.88547221913548,19.03723468254493,0 99.88555818565675,19.03790774728216,0 99.88553516178114,19.03795233504847,0 99.88539988000963,19.03808777594475,0 99.88528503914934,19.03818393184861,0 99.88517793373984,19.03824714618315,0 99.88501066701217,19.03831223190349,0 99.88483870748495,19.03836486466089,0 99.88470602367821,19.0383824229073,0 99.88424886549046,19.0383799050688,0 99.88410021909523,19.0383667933872,0 99.88402931766326,19.03835037204915,0 99.88396812978897,19.03825392798879,0 99.88388595360168,19.03812545921905,0 99.88381814649459,19.03804042488115,0 99.8837714941651,19.03798493051888,0 
							</coordinates>
						</LineString>
					</Placemark>
				</Folder>
			</Folder>
		</Folder>
		<Folder id="5D1009F29F000007">
			<name>จุดจอด</name>
			<open>1</open>
			<styleUrl>#__managed_style_20F7ECF35D40375C4343</styleUrl>
			<Placemark id="5D1009F29F000008">
				<name>สถานีชาร์จ</name>
				<LookAt>
					<longitude>99.92345868076127</longitude>
					<latitude>19.03135846581405</latitude>
					<altitude>468.324751456469</altitude>
					<heading>0</heading>
					<tilt>0</tilt>
					<gx:fovy>35</gx:fovy>
					<range>734.6556386763406</range>
					<altitudeMode>absolute</altitudeMode>
				</LookAt>
				<styleUrl>#__managed_style_13A524AAA240375C4343</styleUrl>
				<Point>
					<coordinates>99.92445937023484,19.03131839662782,466.42123819271</coordinates>
				</Point>
			</Placemark>
			<Placemark id="5D1009F29F000009">
				<name>จุดจอดรถบัสหน้ามหาวิทยาลัย</name>
				<styleUrl>#__managed_style_13A524AAA240375C4343</styleUrl>
				<Point>
					<coordinates>99.923098,19.030564,0</coordinates>
				</Point>
			</Placemark>
			<Placemark id="5D1009F29F000013">
				<name>สถานีหน้าคณะทันตแพทยศาสตร์(ขาไป)</name>
				<LookAt>
					<longitude>99.91478808480865</longitude>
					<latitude>19.02931871572977</latitude>
					<altitude>496.4235333172153</altitude>
					<heading>0</heading>
					<tilt>0</tilt>
					<gx:fovy>35</gx:fovy>
					<range>800.0936039215594</range>
					<altitudeMode>absolute</altitudeMode>
				</LookAt>
				<styleUrl>#__managed_style_13A524AAA240375C4343</styleUrl>
				<Point>
					<coordinates>99.91511731812263,19.03018576512214,509.8011858280373</coordinates>
				</Point>
			</Placemark>
			<Placemark id="5D1009F29F00000A">
				<name>สถานีหน้าคณะทันตแพทยศาสตร์(ขากลับ)</name>
				<styleUrl>#__managed_style_13A524AAA240375C4343</styleUrl>
				<Point>
					<coordinates>99.91542589999999,19.0298661,0</coordinates>
				</Point>
			</Placemark>
			<Placemark id="5D1009F29F00000B">
				<name>สถานีหน้าเรือนเอื้องคำ</name>
				<styleUrl>#__managed_style_13A524AAA240375C4343</styleUrl>
				<Point>
					<coordinates>99.906696,19.028584,0</coordinates>
				</Point>
			</Placemark>
			<Placemark id="5D1009F29F00000C">
				<name>สถานีหน้าคณะวิศวกรรมศาสตร์(ขาไป)</name>
				<LookAt>
					<longitude>99.90111458526931</longitude>
					<latitude>19.03095636325637</latitude>
					<altitude>500.9971810078289</altitude>
					<heading>0</heading>
					<tilt>0</tilt>
					<gx:fovy>35</gx:fovy>
					<range>358.382471220466</range>
					<altitudeMode>absolute</altitudeMode>
				</LookAt>
				<styleUrl>#__managed_style_13A524AAA240375C4343</styleUrl>
				<Point>
					<coordinates>99.90122070886962,19.03052994712539,496.0665564205555</coordinates>
				</Point>
			</Placemark>
			<Placemark id="5D1009F29F000011">
				<name>สถานีหน้าคณะศิลปศาสตร์</name>
				<styleUrl>#__managed_style_13A524AAA240375C4343</styleUrl>
				<Point>
					<coordinates>99.89576676362599,19.02964859160329,0</coordinates>
				</Point>
			</Placemark>
			<Placemark id="5D1009BDA7000008">
				<name>สถานีหน้าคณะวิศวกรรมศาสตร์(ขาไป)</name>
				<LookAt>
					<longitude>99.90128059343807</longitude>
					<latitude>19.03050241490234</latitude>
					<altitude>495.0692885564591</altitude>
					<heading>355.1946821480171</heading>
					<tilt>0</tilt>
					<gx:fovy>35</gx:fovy>
					<range>314.278141885152</range>
					<altitudeMode>absolute</altitudeMode>
				</LookAt>
				<styleUrl>#__managed_style_0FAB3DC67F40375C4343</styleUrl>
				<Point>
					<coordinates>99.90120302155064,19.03080133829537,498.7823650358051</coordinates>
				</Point>
			</Placemark>
			<Placemark id="5D1009BDA7000004">
				<name>จุดจอดรถบัสประตูสาม</name>
				<styleUrl>#__managed_style_0FAB3DC67F40375C4343</styleUrl>
				<Point>
					<coordinates>99.89530321535115,19.02258994476954,0</coordinates>
				</Point>
			</Placemark>
			<Placemark id="5D1009BDA7000005">
				<name>สถานีหน้าคณะเทคโนโลยีสารสนเทศและการสื่อสาร</name>
				<styleUrl>#__managed_style_0FAB3DC67F40375C4343</styleUrl>
				<Point>
					<coordinates>99.89982899158804,19.02846854942618,0</coordinates>
				</Point>
			</Placemark>
			<Placemark id="5D1009BDA7000007">
				<name>สถานีหน้าศูนย์การเรียนรู้เศรษฐกิจพอเพียง</name>
				<styleUrl>#__managed_style_0FAB3DC67F40375C4343</styleUrl>
				<Point>
					<coordinates>99.89934755606482,19.02713329155001,0</coordinates>
				</Point>
			</Placemark>
			<Placemark id="5D100A430F000008">
				<name>จุดจอดรถประตูสอง</name>
				<styleUrl>#__managed_style_13A524AAA240375C4343</styleUrl>
				<Point>
					<coordinates>99.8837,19.03796,0</coordinates>
				</Point>
			</Placemark>
			<Placemark id="5D100A430F000009">
				<name>สถานีหน้าอาคารสงวนเสริมศรี(ขาไป)</name>
				<LookAt>
					<longitude>99.88640177660656</longitude>
					<latitude>19.03415421868581</latitude>
					<altitude>496.5071420762269</altitude>
					<heading>0</heading>
					<tilt>0</tilt>
					<gx:fovy>35</gx:fovy>
					<range>258.0846316773751</range>
					<altitudeMode>absolute</altitudeMode>
				</LookAt>
				<styleUrl>#__managed_style_13A524AAA240375C4343</styleUrl>
				<Point>
					<coordinates>99.8863160460846,19.03422787265817,497.5799179430396</coordinates>
				</Point>
			</Placemark>
			<Placemark id="5D100A430F00000A">
				<name>สถานีหน้าเวียงพะเยา(ขาไป)</name>
				<styleUrl>#__managed_style_13A524AAA240375C4343</styleUrl>
				<Point>
					<coordinates>99.8908747,19.0331648,0</coordinates>
				</Point>
			</Placemark>
			<Placemark id="5D100A430F00000B">
				<name>สถานีหน้าอาคาร ๙๙ ปี(ขาไป)</name>
				<styleUrl>#__managed_style_13A524AAA240375C4343</styleUrl>
				<Point>
					<coordinates>99.8934952,19.0320031,0</coordinates>
				</Point>
			</Placemark>
			<Placemark id="5D100A430F00000D">
				<name>สถานีหน้าคณะวิทยาศาสตร์</name>
				<LookAt>
					<longitude>99.89774682367599</longitude>
					<latitude>19.03070376015712</latitude>
					<altitude>500.5475657660169</altitude>
					<heading>0</heading>
					<tilt>0</tilt>
					<gx:fovy>35</gx:fovy>
					<range>108.2404204132945</range>
					<altitudeMode>absolute</altitudeMode>
				</LookAt>
				<styleUrl>#__managed_style_13A524AAA240375C4343</styleUrl>
				<Point>
					<coordinates>99.89763188572527,19.03064180111028,499.4408044737885</coordinates>
				</Point>
			</Placemark>
			<Placemark id="5D100A430F00000E">
				<name>สถานีหน้าหอประชุมพญางำเมือง</name>
				<LookAt>
					<longitude>99.8976817855573</longitude>
					<latitude>19.03007929376302</latitude>
					<altitude>499.5804535798746</altitude>
					<heading>0</heading>
					<tilt>0</tilt>
					<gx:fovy>35</gx:fovy>
					<range>109.2075405129799</range>
					<altitudeMode>absolute</altitudeMode>
				</LookAt>
				<styleUrl>#__managed_style_13A524AAA240375C4343</styleUrl>
				<Point>
					<coordinates>99.89771432901691,19.029995860899,499.8032626251336</coordinates>
				</Point>
			</Placemark>
			<Placemark id="5D100A430F00000F">
				<name>สถานีโรงเรียนสาธิตมหาวิทยาลัยพะเยา</name>
				<LookAt>
					<longitude>99.88368602846764</longitude>
					<latitude>19.03506648501906</latitude>
					<altitude>516.1864143468084</altitude>
					<heading>0</heading>
					<tilt>0</tilt>
					<gx:fovy>35</gx:fovy>
					<range>238.4053664545718</range>
					<altitudeMode>absolute</altitudeMode>
				</LookAt>
				<styleUrl>#__managed_style_059CA6086040375C4344</styleUrl>
				<Point>
					<coordinates>99.88415110783785,19.035317140434,514.1973380283002</coordinates>
				</Point>
			</Placemark>
			<Placemark id="5D100A430F000010">
				<name>สถานีหน้าโรงเรียนสาธิตมหาวิทยาลัยพะเยา</name>
				<styleUrl>#__managed_style_13A524AAA240375C4343</styleUrl>
				<Point>
					<coordinates>99.8842468,19.0344118,0</coordinates>
				</Point>
			</Placemark>
			<Placemark id="5D100A430F000011">
				<name>สถานีหน้าอาคารสงวนเสริมศรี(ขากลับ)</name>
				<LookAt>
					<longitude>99.88640177660656</longitude>
					<latitude>19.03415421868581</latitude>
					<altitude>496.5071420762269</altitude>
					<heading>0</heading>
					<tilt>0</tilt>
					<gx:fovy>35</gx:fovy>
					<range>258.0846316773751</range>
					<altitudeMode>absolute</altitudeMode>
				</LookAt>
				<styleUrl>#__managed_style_13A524AAA240375C4343</styleUrl>
				<Point>
					<coordinates>99.88622870331207,19.0340626303379,498.1745192995843</coordinates>
				</Point>
			</Placemark>
			<Placemark id="5D100A430F000012">
				<name>สถานีหน้าเวียงพะเยา(ขากลับ)</name>
				<LookAt>
					<longitude>99.89085219804917</longitude>
					<latitude>19.03315138602208</latitude>
					<altitude>482.4272458722069</altitude>
					<heading>0</heading>
					<tilt>0</tilt>
					<gx:fovy>35</gx:fovy>
					<range>272.1645365588484</range>
					<altitudeMode>absolute</altitudeMode>
				</LookAt>
				<styleUrl>#__managed_style_13A524AAA240375C4343</styleUrl>
				<Point>
					<coordinates>99.89089175528702,19.03301679547779,482.1235080019113</coordinates>
				</Point>
			</Placemark>
			<Placemark id="5D100A430F000013">
				<name>สถานีหน้าอาคาร ๙๙ ปี(ขากลับ)</name>
				<LookAt>
					<longitude>99.89367817027345</longitude>
					<latitude>19.03198666176191</latitude>
					<altitude>484.9833947992344</altitude>
					<heading>0</heading>
					<tilt>0</tilt>
					<gx:fovy>35</gx:fovy>
					<range>269.6084181910555</range>
					<altitudeMode>absolute</altitudeMode>
				</LookAt>
				<styleUrl>#__managed_style_13A524AAA240375C4343</styleUrl>
				<Point>
					<coordinates>99.89337849153321,19.03184193253481,487.3404772598108</coordinates>
				</Point>
			</Placemark>
			<Placemark id="5D100A430F000014">
				<name>สถานีหน้าตึกอธิการบดี</name>
				<LookAt>
					<longitude>99.89611699538119</longitude>
					<latitude>19.02914226982073</latitude>
					<altitude>489.3381485816424</altitude>
					<heading>0</heading>
					<tilt>0</tilt>
					<gx:fovy>35</gx:fovy>
					<range>119.4498375580588</range>
					<altitudeMode>absolute</altitudeMode>
				</LookAt>
				<styleUrl>#__managed_style_13A524AAA240375C4343</styleUrl>
				<Point>
					<coordinates>99.89607658781621,19.02903294604012,489.9763021808629</coordinates>
				</Point>
			</Placemark>
			<Placemark id="5D100A430F000015">
				<name>จุดจอดรถบัสPKY</name>
				<styleUrl>#__managed_style_1718CD0CA940375C4344</styleUrl>
				<Point>
					<coordinates>99.89512014456365,19.02539606318856,0</coordinates>
				</Point>
			</Placemark>
		</Folder>
	</Folder>
</Document>
</kml>
