<?xml version="1.0" encoding="UTF-8"?>
<kml xmlns="http://www.opengis.net/kml/2.2">
  <Document>
    <name>ทุกสาย</name>
    <description/>
    <Style id="icon-1899-DB4436-nodesc-normal">
      <IconStyle>
        <color>ff3644db</color>
        <scale>1</scale>
        <Icon>
          <href>assets/images/bus-stop-1.png</href>
        </Icon>
        <hotSpot x="32" xunits="pixels" y="64" yunits="insetPixels"/>
      </IconStyle>
      <LabelStyle>
        <scale>0</scale>
      </LabelStyle>
      <BalloonStyle>
        <text><![CDATA[<h3>$[name]</h3>]]></text>
      </BalloonStyle>
    </Style>
    <Style id="icon-1899-DB4436-nodesc-highlight">
      <IconStyle>
        <color>ff3644db</color>
        <scale>1</scale>
        <Icon>
          <href>assets/images/bus-stop-1.png</href>
        </Icon>
        <hotSpot x="32" xunits="pixels" y="64" yunits="insetPixels"/>
      </IconStyle>
      <LabelStyle>
        <scale>1</scale>
      </LabelStyle>
      <BalloonStyle>
        <text><![CDATA[<h3>$[name]</h3>]]></text>
      </BalloonStyle>
    </Style>
    <StyleMap id="icon-1899-DB4436-nodesc">
      <Pair>
        <key>normal</key>
        <styleUrl>#icon-1899-DB4436-nodesc-normal</styleUrl>
      </Pair>
      <Pair>
        <key>highlight</key>
        <styleUrl>#icon-1899-DB4436-nodesc-highlight</styleUrl>
      </Pair>
    </StyleMap>
    <Style id="line-0288D1-5456-nodesc-normal">
      <LineStyle>
        <color>ffd18802</color>
        <width>5.456</width>
      </LineStyle>
      <BalloonStyle>
        <text><![CDATA[<h3>$[name]</h3>]]></text>
      </BalloonStyle>
    </Style>
    <Style id="line-0288D1-5456-nodesc-highlight">
      <LineStyle>
        <color>ffd18802</color>
        <width>8.184</width>
      </LineStyle>
      <BalloonStyle>
        <text><![CDATA[<h3>$[name]</h3>]]></text>
      </BalloonStyle>
    </Style>
    <StyleMap id="line-0288D1-5456-nodesc">
      <Pair>
        <key>normal</key>
        <styleUrl>#line-0288D1-5456-nodesc-normal</styleUrl>
      </Pair>
      <Pair>
        <key>highlight</key>
        <styleUrl>#line-0288D1-5456-nodesc-highlight</styleUrl>
      </Pair>
    </StyleMap>
    <Style id="line-0288D1-5650-nodesc-normal">
      <LineStyle>
        <color>ffd18802</color>
        <width>5.65</width>
      </LineStyle>
      <BalloonStyle>
        <text><![CDATA[<h3>$[name]</h3>]]></text>
      </BalloonStyle>
    </Style>
    <Style id="line-0288D1-5650-nodesc-highlight">
      <LineStyle>
        <color>ffd18802</color>
        <width>8.475</width>
      </LineStyle>
      <BalloonStyle>
        <text><![CDATA[<h3>$[name]</h3>]]></text>
      </BalloonStyle>
    </Style>
    <StyleMap id="line-0288D1-5650-nodesc">
      <Pair>
        <key>normal</key>
        <styleUrl>#line-0288D1-5650-nodesc-normal</styleUrl>
      </Pair>
      <Pair>
        <key>highlight</key>
        <styleUrl>#line-0288D1-5650-nodesc-highlight</styleUrl>
      </Pair>
    </StyleMap>
    <Style id="line-0F9D58-5456-nodesc-normal">
      <LineStyle>
        <color>ff589d0f</color>
        <width>5.456</width>
      </LineStyle>
      <BalloonStyle>
        <text><![CDATA[<h3>$[name]</h3>]]></text>
      </BalloonStyle>
    </Style>
    <Style id="line-0F9D58-5456-nodesc-highlight">
      <LineStyle>
        <color>ff589d0f</color>
        <width>8.184</width>
      </LineStyle>
      <BalloonStyle>
        <text><![CDATA[<h3>$[name]</h3>]]></text>
      </BalloonStyle>
    </Style>
    <StyleMap id="line-0F9D58-5456-nodesc">
      <Pair>
        <key>normal</key>
        <styleUrl>#line-0F9D58-5456-nodesc-normal</styleUrl>
      </Pair>
      <Pair>
        <key>highlight</key>
        <styleUrl>#line-0F9D58-5456-nodesc-highlight</styleUrl>
      </Pair>
    </StyleMap>
    <Style id="line-0F9D58-5844-nodesc-normal">
      <LineStyle>
        <color>ff589d0f</color>
        <width>5.844</width>
      </LineStyle>
      <BalloonStyle>
        <text><![CDATA[<h3>$[name]</h3>]]></text>
      </BalloonStyle>
    </Style>
    <Style id="line-0F9D58-5844-nodesc-highlight">
      <LineStyle>
        <color>ff589d0f</color>
        <width>8.766</width>
      </LineStyle>
      <BalloonStyle>
        <text><![CDATA[<h3>$[name]</h3>]]></text>
      </BalloonStyle>
    </Style>
    <StyleMap id="line-0F9D58-5844-nodesc">
      <Pair>
        <key>normal</key>
        <styleUrl>#line-0F9D58-5844-nodesc-normal</styleUrl>
      </Pair>
      <Pair>
        <key>highlight</key>
        <styleUrl>#line-0F9D58-5844-nodesc-highlight</styleUrl>
      </Pair>
    </StyleMap>
    <Style id="line-FF5252-5650-nodesc-normal">
      <LineStyle>
        <color>ff5252ff</color>
        <width>5.65</width>
      </LineStyle>
      <BalloonStyle>
        <text><![CDATA[<h3>$[name]</h3>]]></text>
      </BalloonStyle>
    </Style>
    <Style id="line-FF5252-5650-nodesc-highlight">
      <LineStyle>
        <color>ff5252ff</color>
        <width>8.475</width>
      </LineStyle>
      <BalloonStyle>
        <text><![CDATA[<h3>$[name]</h3>]]></text>
      </BalloonStyle>
    </Style>
    <StyleMap id="line-FF5252-5650-nodesc">
      <Pair>
        <key>normal</key>
        <styleUrl>#line-FF5252-5650-nodesc-normal</styleUrl>
      </Pair>
      <Pair>
        <key>highlight</key>
        <styleUrl>#line-FF5252-5650-nodesc-highlight</styleUrl>
      </Pair>
    </StyleMap>
    <Style id="line-FF5252-5844-nodesc-normal">
      <LineStyle>
        <color>ff5252ff</color>
        <width>5.844</width>
      </LineStyle>
      <BalloonStyle>
        <text><![CDATA[<h3>$[name]</h3>]]></text>
      </BalloonStyle>
    </Style>
    <Style id="line-FF5252-5844-nodesc-highlight">
      <LineStyle>
        <color>ff5252ff</color>
        <width>8.766</width>
      </LineStyle>
      <BalloonStyle>
        <text><![CDATA[<h3>$[name]</h3>]]></text>
      </BalloonStyle>
    </Style>
    <StyleMap id="line-FF5252-5844-nodesc">
      <Pair>
        <key>normal</key>
        <styleUrl>#line-FF5252-5844-nodesc-normal</styleUrl>
      </Pair>
      <Pair>
        <key>highlight</key>
        <styleUrl>#line-FF5252-5844-nodesc-highlight</styleUrl>
      </Pair>
    </StyleMap>
    <Folder>
      <name>หน้ามหาวิทยาลัย - PKY</name>
      <Placemark>
        <name>จุดจอดรถบัสหน้ามหาวิทยาลัย</name>
        <styleUrl>#icon-1899-DB4436-nodesc</styleUrl>
        <Point>
          <coordinates>
            99.923098,19.030564,0
          </coordinates>
        </Point>
      </Placemark>
      <Placemark>
        <name>สถานีหน้าคณะทันตแพทยศาสตร์</name>
        <styleUrl>#icon-1899-DB4436-nodesc</styleUrl>
        <Point>
          <coordinates>
            99.9154259,19.0298661,0
          </coordinates>
        </Point>
      </Placemark>
      <Placemark>
        <name>สถานีหน้าคณะวิศวกรรมศาสตร์</name>
        <styleUrl>#icon-1899-DB4436-nodesc</styleUrl>
        <Point>
          <coordinates>
            99.9011997,19.0307963,0
          </coordinates>
        </Point>
      </Placemark>
      <Placemark>
        <name>สถานีหน้าคณะพยาบาลศาสตร์</name>
        <styleUrl>#icon-1899-DB4436-nodesc</styleUrl>
        <Point>
          <coordinates>
            99.897615,19.0306625,0
          </coordinates>
        </Point>
      </Placemark>
      <Placemark>
        <name>สถานีหน้าหอประชุมพญางำเมือง</name>
        <styleUrl>#icon-1899-DB4436-nodesc</styleUrl>
        <Point>
          <coordinates>
            99.8977114,19.0299998,0
          </coordinates>
        </Point>
      </Placemark>
      <Placemark>
        <name>สถานีหน้าอาคารสำนักงานอธิการบดี</name>
        <styleUrl>#icon-1899-DB4436-nodesc</styleUrl>
        <Point>
          <coordinates>
            99.8960666,19.0290339,0
          </coordinates>
        </Point>
      </Placemark>
      <Placemark>
        <name>สถานีหน้าคณะศิลปศาสตร์</name>
        <styleUrl>#icon-1899-DB4436-nodesc</styleUrl>
        <Point>
          <coordinates>
            99.8957507,19.0294776,0
          </coordinates>
        </Point>
      </Placemark>
      <Placemark>
        <name>สายหน้ามอ - ขากลับ</name>
        <styleUrl>#line-0F9D58-5844-nodesc</styleUrl>
        <LineString>
          <tessellate>1</tessellate>
          <coordinates>
            99.895015,19.02562,0
            99.8950116,19.0256586,0
            99.8953579,19.0257083,0
            99.8953827,19.0257219,0
            99.8954028,19.0257397,0
            99.8954236,19.0257758,0
            99.8954444,19.0258227,0
            99.8954608,19.0259331,0
            99.895488,19.0261552,0
            99.8955547,19.0266516,0
            99.8955801,19.0268295,0
            99.8956036,19.0269914,0
            99.8956298,19.0271496,0
            99.8956609,19.0274278,0
            99.8956559,19.0275933,0
            99.8956425,19.0276627,0
            99.8956247,19.0277166,0
            99.8955788,19.0278168,0
            99.8953662,19.0282039,0
            99.8952811,19.0285328,0
            99.8952804,19.0285376,0
            99.8952134,19.0286188,0
            99.8951718,19.028693,0
            99.8951371,19.0287642,0
            99.8951352,19.0287784,0
            99.895118,19.0288259,0
            99.895116,19.0288917,0
            99.895097,19.0289256,0
            99.8950867,19.0289497,0
            99.89508,19.0289732,0
            99.8950761,19.0289974,0
            99.8950749,19.0290154,0
            99.8950864,19.0290972,0
            99.8950992,19.0291266,0
            99.8951182,19.0291534,0
            99.8951352,19.0291769,0
            99.8951628,19.0292006,0
            99.8952173,19.029235,0
            99.8952763,19.0292667,0
            99.8955796,19.0294549,0
            99.8952763,19.0292667,0
            99.8955796,19.0294549,0
            99.895799,19.029579,0
            99.8960069,19.0296898,0
            99.8963767,19.0299071,0
            99.8966223,19.030022,0
            99.8968819,19.0301751,0
            99.8974954,19.0305082,0
            99.8975566,19.030537,0
            99.8979032,19.0307246,0
            99.8979593,19.0307576,0
            99.8980251,19.0307782,0
            99.8980926,19.0307826,0
            99.8981228,19.0307793,0
            99.8981557,19.0307722,0
            99.8981889,19.0307613,0
            99.8982159,19.0307473,0
            99.8982461,19.0307278,0
            99.8982697,19.0307091,0
            99.8983103,19.0306613,0
            99.8983273,19.0306314,0
            99.89834,19.0306013,0
            99.8983484,19.0305697,0
            99.8984634,19.030555,0
            99.89884,19.0306662,0
            99.8991276,19.0307148,0
            99.9004154,19.0307107,0
            99.9007419,19.0307072,0
            99.9010854,19.0307099,0
            99.9017701,19.0307179,0
            99.9014239,19.0307151,0
            99.9021145,19.0307233,0
            99.9024547,19.0307295,0
            99.9027985,19.0307349,0
            99.9030336,19.0307361,0
            99.9030477,19.0307715,0
            99.9030621,19.0307933,0
            99.9030908,19.0308222,0
            99.9031168,19.0308389,0
            99.9031452,19.0308514,0
            99.9031636,19.0308569,0
            99.9031926,19.0308622,0
            99.9032297,19.0308623,0
            99.9032707,19.0308538,0
            99.9032762,19.0308511,0
            99.9033175,19.0309061,0
            99.9033982,19.0310138,0
            99.9034917,19.0311345,0
            99.9035668,19.0312636,0
            99.9035766,19.0312806,0
            99.9036156,19.0313608,0
            99.9036602,19.0314508,0
            99.9036738,19.0314803,0
            99.9037091,19.0315316,0
            99.9037298,19.031563,0
            99.9037587,19.0316081,0
            99.9036608,19.031709,0
            99.9035481,19.0318229,0
            99.9033924,19.0319611,0
            99.9032894,19.0320669,0
            99.9031898,19.0321468,0
            99.9031054,19.0322053,0
            99.9029712,19.0322775,0
            99.902885,19.0323101,0
            99.902745,19.032354,0
            99.9026304,19.0323737,0
            99.9025436,19.0323753,0
            99.9024579,19.0323793,0
            99.9019437,19.0323813,0
            99.9015847,19.0323779,0
            99.9015456,19.0323771,0
            99.9014269,19.0323888,0
            99.9013413,19.0323959,0
            99.9011708,19.0324105,0
            99.9009991,19.0324261,0
            99.9007523,19.0324478,0
            99.9007412,19.0324317,0
            99.9007229,19.0324126,0
            99.9007084,19.032404,0
            99.9006854,19.032393,0
            99.9006618,19.0323859,0
            99.9006319,19.0323824,0
            99.9005993,19.0323872,0
            99.9005703,19.0323969,0
            99.9005524,19.0324065,0
            99.9005401,19.0324148,0
            99.9005282,19.0324253,0
            99.9005139,19.0324426,0
            99.9005014,19.0324658,0
            99.9004915,19.0324955,0
            99.9004895,19.0325249,0
            99.9004932,19.0325479,0
            99.9004978,19.0325631,0
            99.9005044,19.0325793,0
            99.9005238,19.0326061,0
            99.9005412,19.0326214,0
            99.9005617,19.0326345,0
            99.9005833,19.0326442,0
            99.9006219,19.0326509,0
            99.9006522,19.0326488,0
            99.9006869,19.0326395,0
            99.900707,19.0326296,0
            99.9007307,19.0326115,0
            99.9007436,19.0325983,0
            99.9007529,19.0325844,0
            99.9007638,19.0325664,0
            99.9007705,19.0325463,0
            99.9009131,19.0325343,0
            99.9009993,19.0325275,0
            99.9013422,19.0324987,0
            99.9014281,19.0324913,0
            99.901513,19.0324838,0
            99.9015548,19.03248,0
            99.901685,19.0324883,0
            99.9018004,19.0324959,0
            99.9018333,19.0324915,0
            99.9018568,19.0324915,0
            99.9019429,19.0324925,0
            99.9020294,19.0324931,0
            99.9022871,19.032491,0
            99.9026185,19.0324881,0
            99.9026836,19.0324777,0
            99.9027755,19.0324591,0
            99.9028911,19.0324228,0
            99.903026,19.0323599,0
            99.9031236,19.0322921,0
            99.9032973,19.0321484,0
            99.9035094,19.0319359,0
            99.9036691,19.0317744,0
            99.9037458,19.0316949,0
            99.9039169,19.0315183,0
            99.9040584,19.0313678,0
            99.904165,19.0312552,0
            99.9043142,19.0311242,0
            99.9044053,19.0310534,0
            99.9044314,19.0310356,0
            99.9045179,19.0309892,0
            99.9046049,19.0309443,0
            99.9047763,19.0308613,0
            99.9049072,19.0308033,0
            99.9051794,19.0306545,0
            99.9052893,19.0305921,0
            99.905375,19.0305301,0
            99.905435,19.0304751,0
            99.9055002,19.0303956,0
            99.9055405,19.0303387,0
            99.9056034,19.0302279,0
            99.9057082,19.0300692,0
            99.9058176,19.0299067,0
            99.9059216,19.0297531,0
            99.9060192,19.0295499,0
            99.9060882,19.029404,0
            99.9061414,19.029223,0
            99.9062093,19.029084,0
            99.9062701,19.0289768,0
            99.9063116,19.0289192,0
            99.9063504,19.0288728,0
            99.9064033,19.028842,0
            99.906474,19.0288195,0
            99.9067344,19.0287551,0
            99.9069217,19.0287224,0
            99.9071373,19.0286772,0
            99.9072169,19.0286682,0
            99.9072956,19.028672,0
            99.9073175,19.0286745,0
            99.9073506,19.0286821,0
            99.9073745,19.0286932,0
            99.9074492,19.0287387,0
            99.907521,19.0287925,0
            99.9076565,19.0288739,0
            99.9077286,19.0289235,0
            99.9078609,19.0290031,0
            99.9080354,19.0291096,0
            99.9080825,19.0291377,0
            99.9082092,19.0292018,0
            99.9083802,19.0293039,0
            99.9085522,19.0294234,0
            99.9085938,19.0294529,0
            99.9088348,19.0296648,0
            99.9088963,19.0297147,0
            99.9089792,19.0297778,0
            99.9090282,19.0298054,0
            99.9090688,19.0298243,0
            99.909125,19.0298471,0
            99.9092369,19.0298797,0
            99.9094056,19.0298988,0
            99.9096674,19.0298869,0
            99.90984,19.0298668,0
            99.9102689,19.0298153,0
            99.9105249,19.0297848,0
            99.9107172,19.0297645,0
            99.9107838,19.0297766,0
            99.9108039,19.0297783,0
            99.9108374,19.0297868,0
            99.9108548,19.0297942,0
            99.910882,19.0298106,0
            99.9110186,19.0299252,0
            99.9110973,19.0301091,0
            99.9111195,19.0302117,0
            99.9111471,19.0304507,0
            99.9111431,19.0306586,0
            99.9111505,19.0309076,0
            99.9112058,19.0310296,0
            99.9112434,19.0310809,0
            99.9112998,19.0311368,0
            99.9113187,19.0311488,0
            99.911358,19.0311672,0
            99.9114158,19.0311837,0
            99.9115175,19.0311974,0
            99.9116042,19.0311905,0
            99.9116472,19.031184,0
            99.9117355,19.0311566,0
            99.9118993,19.0310973,0
            99.9120051,19.0310555,0
            99.9121981,19.0309776,0
            99.9124146,19.0308876,0
            99.9126717,19.0308018,0
            99.9128448,19.030743,0
            99.9129398,19.0307069,0
            99.9131871,19.0306325,0
            99.9137895,19.0304533,0
            99.9140247,19.030381,0
            99.91456,19.030251,0
            99.9146459,19.0302282,0
            99.9150756,19.0301159,0
            99.9152552,19.0300694,0
            99.9155041,19.0300037,0
            99.9156886,19.0299552,0
            99.9161785,19.0298271,0
            99.9165224,19.0297376,0
            99.9169645,19.0296244,0
            99.9170486,19.0296014,0
            99.9171367,19.0295758,0
            99.9173062,19.0295251,0
            99.9175576,19.0294653,0
            99.9176525,19.0294575,0
            99.9177358,19.0294692,0
            99.9177637,19.0294783,0
            99.9178044,19.029488,0
            99.9178325,19.0295014,0
            99.9179079,19.0295448,0
            99.9179448,19.0295661,0
            99.9183376,19.0298668,0
            99.9185088,19.0299946,0
            99.9187671,19.0301837,0
            99.9188823,19.0302686,0
            99.9191579,19.0303916,0
            99.9192156,19.0304071,0
            99.9192816,19.0304197,0
            99.9195386,19.0304647,0
            99.9196534,19.0304849,0
            99.9202258,19.0305608,0
            99.9205689,19.0306042,0
            99.9208051,19.0306355,0
            99.9215125,19.030699,0
            99.9218561,19.0307288,0
            99.9221142,19.0307503,0
            99.9222864,19.0307657,0
            99.9227999,19.0307836,0
            99.9229711,19.0307892,0
            99.923023,19.0307907,0
          </coordinates>
        </LineString>
      </Placemark>
      <Placemark>
        <name>สายหน้ามอ - ขาไป</name>
        <styleUrl>#line-0F9D58-5456-nodesc</styleUrl>
        <LineString>
          <tessellate>1</tessellate>
          <coordinates>
            99.923097,19.030563,0
            99.9230916,19.0306691,0
            99.9230192,19.0306655,0
            99.9225582,19.0306411,0
            99.9224103,19.0306338,0
            99.9222835,19.0306231,0
            99.922026,19.0306005,0
            99.921742,19.0305759,0
            99.9214258,19.0305487,0
            99.9210227,19.0305134,0
            99.9208336,19.0304904,0
            99.9206156,19.0304629,0
            99.9204731,19.0304449,0
            99.9203171,19.0304287,0
            99.9199364,19.0303891,0
            99.9194723,19.0303222,0
            99.9191552,19.0302653,0
            99.9190743,19.0302419,0
            99.9190239,19.0302134,0
            99.9189189,19.0301474,0
            99.9188259,19.03009,0
            99.9186266,19.0299316,0
            99.9185073,19.0298556,0
            99.9182503,19.0296599,0
            99.9180785,19.0295289,0
            99.9180231,19.0294852,0
            99.9179456,19.0294548,0
            99.9178138,19.0293896,0
            99.9177338,19.029369,0
            99.9176579,19.0293553,0
            99.9176245,19.029356,0
            99.9175637,19.0293637,0
            99.9174731,19.0293805,0
            99.9171735,19.0294653,0
            99.916809,19.029563,0
            99.9164478,19.0296576,0
            99.9159833,19.0297791,0
            99.9158353,19.0298193,0
            99.9156763,19.029862,0
            99.9154179,19.0299316,0
            99.9152467,19.0299782,0
            99.9150349,19.0300293,0
            99.9147667,19.0300946,0
            99.9143887,19.0301891,0
            99.9142645,19.0302202,0
            99.9140113,19.0302903,0
            99.9138278,19.0303401,0
            99.9136809,19.0303809,0
            99.9134768,19.0304383,0
            99.9132194,19.030519,0
            99.912902,19.030617,0
            99.9128049,19.0306537,0
            99.9127649,19.0306676,0
            99.9126452,19.030708,0
            99.912416,19.0307977,0
            99.9121158,19.0309134,0
            99.9118136,19.0310246,0
            99.9116744,19.0310755,0
            99.9115935,19.0310871,0
            99.9114766,19.031085,0
            99.9114402,19.0310759,0
            99.9113926,19.0310507,0
            99.9113478,19.0310224,0
            99.9113161,19.0309886,0
            99.9112871,19.0309529,0
            99.9112474,19.0308826,0
            99.91124,19.0308494,0
            99.9112444,19.030683,0
            99.9112447,19.030522,0
            99.9112405,19.0304469,0
            99.9112396,19.0303712,0
            99.911227,19.0302249,0
            99.9111884,19.0300704,0
            99.9111598,19.0299566,0
            99.911066,19.0298279,0
            99.9110115,19.0297674,0
            99.9109765,19.0297454,0
            99.9108523,19.0296872,0
            99.9108227,19.029682,0
            99.9107837,19.0296686,0
            99.9107088,19.0296601,0
            99.9106916,19.0296624,0
            99.9106128,19.0296711,0
            99.9104761,19.029685,0
            99.9100104,19.0297502,0
            99.9099281,19.0297628,0
            99.9098753,19.0297678,0
            99.9096672,19.0297903,0
            99.9095481,19.0298031,0
            99.9094107,19.029801,0
            99.9092836,19.0298001,0
            99.9092007,19.0297799,0
            99.9091525,19.029764,0
            99.9090547,19.0297189,0
            99.9089815,19.0296544,0
            99.9088968,19.0295781,0
            99.9088148,19.0295091,0
            99.908726,19.0294344,0
            99.9086681,19.0293908,0
            99.9085513,19.0293003,0
            99.9083378,19.0291579,0
            99.9082034,19.0290789,0
            99.9081202,19.0290292,0
            99.9080262,19.0289706,0
            99.907839,19.0288522,0
            99.9076991,19.0287651,0
            99.907675,19.0287485,0
            99.9075524,19.0286829,0
            99.907421,19.0286071,0
            99.9073468,19.0285787,0
            99.9073071,19.0285702,0
            99.907278,19.0285693,0
            99.9072376,19.0285634,0
            99.9071705,19.0285613,0
            99.9071285,19.0285642,0
            99.9070913,19.0285695,0
            99.9070081,19.0285879,0
            99.9068931,19.028618,0
            99.906835,19.0286292,0
            99.9067505,19.0286433,0
            99.9064716,19.0287005,0
            99.9064092,19.0287247,0
            99.9063522,19.0287542,0
            99.9062932,19.02879,0
            99.9062341,19.0288477,0
            99.9061965,19.0288885,0
            99.9061519,19.0289557,0
            99.9060841,19.029106,0
            99.9060563,19.0291784,0
            99.9060288,19.0292589,0
            99.9059981,19.029342,0
            99.9059683,19.029422,0
            99.9059326,19.0295026,0
            99.9058946,19.0295845,0
            99.9058061,19.0297474,0
            99.9057053,19.0299115,0
            99.9056066,19.0300718,0
            99.9054853,19.0302568,0
            99.9054658,19.0302876,0
            99.9054436,19.0303139,0
            99.9053758,19.0303961,0
            99.9053443,19.0304322,0
            99.9052934,19.0304791,0
            99.9052277,19.0305333,0
            99.9051038,19.0305989,0
            99.9049466,19.0306783,0
            99.9046994,19.0307899,0
            99.9043293,19.0309941,0
            99.9042608,19.0310446,0
            99.9041763,19.0311187,0
            99.9041213,19.0311675,0
            99.9040399,19.0311917,0
            99.9039173,19.0312245,0
            99.9038327,19.0312386,0
            99.9038027,19.0312446,0
            99.903745,19.0312366,0
            99.9036933,19.0312148,0
            99.903621,19.031163,0
            99.903541,19.0310804,0
            99.9034867,19.0309848,0
            99.9034308,19.0308821,0
            99.9033857,19.0308014,0
            99.903368,19.0307715,0
            99.9033855,19.030735,0
            99.9033921,19.0306848,0
            99.9033877,19.0306537,0
            99.9033787,19.030624,0
            99.9033638,19.0305974,0
            99.9033401,19.0305687,0
            99.9033006,19.0305391,0
            99.9032759,19.0305284,0
            99.9032463,19.0305204,0
            99.9032171,19.0305171,0
            99.9031919,19.0305177,0
            99.9031647,19.0305222,0
            99.9031348,19.0305325,0
            99.9031143,19.0305418,0
            99.9030883,19.0305609,0
            99.9030606,19.0305904,0
            99.9030383,19.0306259,0
            99.9029731,19.0306301,0
            99.9028871,19.0306377,0
            99.902802,19.0306463,0
            99.9027484,19.0306518,0
            99.9022857,19.0306586,0
            99.901866,19.030659,0
            99.901201,19.030652,0
            99.9009611,19.0306487,0
            99.9007493,19.0306473,0
            99.9005667,19.0306462,0
            99.9003995,19.0306489,0
            99.8998831,19.0306584,0
            99.8997124,19.0306616,0
            99.8992487,19.0306585,0
            99.8991113,19.0306591,0
            99.8990669,19.0306508,0
            99.8990244,19.0306433,0
            99.8989246,19.0306233,0
            99.8988529,19.0306058,0
            99.8987692,19.0305839,0
            99.8987083,19.030557,0
            99.898413,19.0304266,0
            99.8982505,19.0302953,0
            99.8982231,19.0302777,0
            99.897743,19.0300853,0
            99.8976777,19.0300482,0
            99.8976083,19.0300089,0
            99.8974727,19.0299328,0
            99.8973591,19.0298584,0
            99.8972222,19.0297825,0
            99.8970503,19.0296885,0
            99.8967094,19.0295003,0
            99.8965739,19.0294241,0
            99.896016,19.029095,0
            99.895721,19.0289173,0
            99.8956737,19.0289037,0
            99.8955913,19.0288585,0
            99.8955061,19.0288298,0
            99.8954188,19.0288007,0
            99.895382,19.0286914,0
            99.8954188,19.0288007,0
            99.8953342,19.0287851,0
            99.8952483,19.0287961,0
            99.8951624,19.0288426,0
            99.895116,19.0288917,0
            99.8951624,19.0288426,0
            99.8952483,19.0287961,0
            99.8953342,19.0287851,0
            99.8954188,19.0288007,0
            99.895382,19.0286914,0
            99.8953295,19.0286003,0
            99.8952914,19.028534,0
            99.8953064,19.0284788,0
            99.8953348,19.0283666,0
            99.8953558,19.0282857,0
            99.8953688,19.0282342,0
            99.8953757,19.0282064,0
            99.8954205,19.0281259,0
            99.8955112,19.0279597,0
            99.8955559,19.0278791,0
            99.8955908,19.0278169,0
            99.895635,19.0277176,0
            99.8956524,19.0276642,0
            99.8956667,19.027595,0
            99.8956717,19.0274276,0
            99.895644,19.0271784,0
            99.89561,19.026974,0
            99.895581,19.026761,0
            99.895518,19.026306,0
            99.8954997,19.0261545,0
            99.8954847,19.0260511,0
            99.8954706,19.0259315,0
            99.8954537,19.0258201,0
            99.8954332,19.0257735,0
            99.8954097,19.0257328,0
            99.8953912,19.0257148,0
            99.8953603,19.0256986,0
            99.8952944,19.0256863,0
            99.8950842,19.0256582,0
            99.895012,19.02565,0
            99.895014,19.025619,0
          </coordinates>
        </LineString>
      </Placemark>
      <Placemark>
        <name>สถานีหน้าเรือนเอื้องคำ</name>
        <styleUrl>#icon-1899-DB4436-nodesc</styleUrl>
        <Point>
          <coordinates>
            99.906696,19.028584,0
          </coordinates>
        </Point>
      </Placemark>
      <Placemark>
        <name>จุดจอดรถบัสPKY</name>
        <styleUrl>#icon-1899-DB4436-nodesc</styleUrl>
        <Point>
          <coordinates>
            99.895015,19.02562,0
          </coordinates>
        </Point>
      </Placemark>
    </Folder>
    <Folder>
      <name>ประตูสาม - ICT</name>
      <Placemark>
        <name>จุดจอดรถบัสประตูสาม</name>
        <styleUrl>#icon-1899-DB4436-nodesc</styleUrl>
        <Point>
          <coordinates>
            99.89537,19.02281,0
          </coordinates>
        </Point>
      </Placemark>
      <Placemark>
        <name>สถานีหน้าคณะเทคโนโลยีสารสนเทศและการสื่อสาร</name>
        <styleUrl>#icon-1899-DB4436-nodesc</styleUrl>
        <Point>
          <coordinates>
            99.8998267,19.0284949,0
          </coordinates>
        </Point>
      </Placemark>
      <Placemark>
        <name>สถานีหน้าคณะวิศวกรรมศาสตร์</name>
        <styleUrl>#icon-1899-DB4436-nodesc</styleUrl>
        <Point>
          <coordinates>
            99.901226,19.0305663,0
          </coordinates>
        </Point>
      </Placemark>
      <Placemark>
        <name>สายประตูสาม - ขาไป</name>
        <styleUrl>#line-0288D1-5456-nodesc</styleUrl>
        <LineString>
          <tessellate>1</tessellate>
          <coordinates>
            99.895369,19.0228094,0
            99.895369,19.0228206,0
            99.8953857,19.022813,0
            99.8954633,19.022795,0
            99.8955684,19.0227872,0
            99.8957956,19.0227799,0
            99.8960194,19.0227771,0
            99.896446,19.0227756,0
            99.8969642,19.0227718,0
            99.8974863,19.022766,0
            99.897756,19.0227629,0
            99.8978551,19.0227623,0
            99.898026,19.0227649,0
            99.8981067,19.0227666,0
            99.8982973,19.0227777,0
            99.8984047,19.0227727,0
            99.898627,19.022788,0
            99.898688,19.0228023,0
            99.8987409,19.0228267,0
            99.8988757,19.0229132,0
            99.8989743,19.022993,0
            99.8990274,19.0230548,0
            99.899055,19.0231044,0
            99.8990704,19.023176,0
            99.899058,19.0234168,0
            99.89904,19.0235628,0
            99.8990377,19.0236674,0
            99.8990374,19.0237239,0
            99.899047,19.0237874,0
            99.899076,19.0238892,0
            99.899142,19.024202,0
            99.899207,19.0244708,0
            99.8994867,19.0256568,0
            99.8996416,19.0262575,0
            99.8996805,19.0264184,0
            99.8997023,19.0265001,0
            99.8997094,19.0265191,0
            99.8997194,19.0265811,0
            99.8997177,19.0266623,0
            99.8997027,19.0267113,0
            99.8996279,19.0268249,0
            99.8995417,19.0269686,0
            99.8993874,19.0272262,0
            99.8992737,19.0274288,0
            99.8992015,19.0275553,0
            99.8990844,19.0277713,0
            99.8990305,19.0279002,0
            99.8989454,19.0281268,0
            99.8988513,19.0283782,0
            99.89879,19.0285784,0
            99.8990246,19.028579,0
            99.8992827,19.028578,0
            99.8998229,19.0285757,0
            99.8998267,19.0284949,0
            99.8998229,19.0285757,0
            99.9005523,19.0285732,0
            99.9015138,19.0285308,0
            99.9016846,19.0285237,0
            99.9018571,19.0285191,0
            99.9021995,19.0285132,0
            99.9025445,19.0285076,0
            99.9027133,19.0285046,0
            99.9028014,19.0285042,0
            99.902858,19.0285048,0
            99.9029424,19.0285299,0
            99.9029919,19.0285723,0
            99.9029872,19.0285806,0
            99.9029642,19.0286593,0
            99.9029976,19.0288685,0
            99.9030093,19.0290158,0
            99.9030486,19.0295027,0
            99.9030815,19.0299078,0
            99.903099,19.030071,0
            99.9031157,19.0302329,0
            99.903142,19.0304766,0
            99.9031468,19.030524,0
            99.9031348,19.0305325,0
            99.9031143,19.0305418,0
            99.9030883,19.0305609,0
            99.9030722,19.0305774,0
            99.9030606,19.0305904,0
            99.9030533,19.0306008,0
            99.9030443,19.0306195,0
            99.9030406,19.0306243,0
            99.9030333,19.0306256,0
            99.9027474,19.0306512,0
            99.9022847,19.030658,0
            99.9021147,19.0306601,0
            99.9019816,19.0306591,0
            99.9012325,19.0306502,0
            99.9004841,19.0306469,0
            99.9003125,19.0306497,0
            99.8999687,19.0306562,0
            99.8997977,19.0306593,0
            99.8995729,19.0306589,0
            99.8991113,19.0306591,0
            99.8989246,19.0306233,0
            99.8987674,19.0305817,0
            99.898413,19.0304266,0
            99.898199,19.0302698,0
            99.8982124,19.0302331,0
            99.8983517,19.0298269,0
            99.8984898,19.0294206,0
            99.8986017,19.029096,0
            99.898676,19.0288817,0
            99.89879,19.0285784,0
          </coordinates>
        </LineString>
      </Placemark>
      <Placemark>
        <name>สายประตูสาม - ขากลับ</name>
        <styleUrl>#line-0288D1-5650-nodesc</styleUrl>
        <LineString>
          <tessellate>1</tessellate>
          <coordinates>
            99.89537,19.02281,0
            99.8953685,19.0228319,0
            99.8953896,19.022823,0
            99.8954671,19.0228056,0
            99.895506,19.0228021,0
            99.8955915,19.022797,0
            99.8959355,19.0227875,0
            99.8961923,19.0227859,0
            99.8966211,19.022784,0
            99.8974844,19.0227767,0
            99.8977557,19.0227729,0
            99.8980809,19.0227755,0
            99.8981664,19.0227793,0
            99.8982988,19.0227878,0
            99.8983384,19.0227856,0
            99.8984054,19.0227828,0
            99.8986274,19.022798,0
            99.8986874,19.022811,0
            99.8987384,19.0228357,0
            99.8988715,19.0229206,0
            99.89897,19.0230012,0
            99.89902,19.0230604,0
            99.8990472,19.0231086,0
            99.8990619,19.0231768,0
            99.8990502,19.0234161,0
            99.8990321,19.0235622,0
            99.8990286,19.0237246,0
            99.899038,19.0237886,0
            99.8990685,19.0238957,0
            99.8991037,19.0240653,0
            99.8991312,19.0241962,0
            99.8991587,19.0243091,0
            99.8991986,19.0244717,0
            99.8992576,19.0247154,0
            99.899332,19.0250406,0
            99.8994473,19.0255272,0
            99.8995285,19.0258511,0
            99.899613,19.0261763,0
            99.8996911,19.0264955,0
            99.8997018,19.0265218,0
            99.8997102,19.026581,0
            99.8997089,19.0266622,0
            99.8996951,19.0267085,0
            99.899671,19.0267443,0
            99.8996187,19.0268254,0
            99.8995674,19.0269075,0
            99.89938,19.027221,0
            99.8992666,19.0274242,0
            99.8991922,19.0275551,0
            99.899103,19.0277186,0
            99.8990765,19.0277681,0
            99.8990236,19.0278936,0
            99.8989364,19.0281265,0
            99.898876,19.0282863,0
            99.8988459,19.0283671,0
            99.8987817,19.0285686,0
            99.8986657,19.0288805,0
            99.898313,19.0299087,0
            99.8981889,19.0302668,0
            99.8981317,19.030242,0
            99.8976522,19.030033,0
            99.8974627,19.0299251,0
            99.8973591,19.0298584,0
            99.8971369,19.0297344,0
            99.8965739,19.0294241,0
            99.8957193,19.0289202,0
            99.8955913,19.0288585,0
            99.8955061,19.0288298,0
            99.8954094,19.0287992,0
            99.8953721,19.0287893,0
            99.8953342,19.0287851,0
            99.8952949,19.0287865,0
            99.8952483,19.0287961,0
            99.895203,19.0288159,0
            99.8951624,19.0288426,0
            99.895116,19.0288917,0
            99.895097,19.0289256,0
            99.89508,19.0289732,0
            99.8950749,19.0290154,0
            99.8950779,19.0290546,0
            99.8950863,19.0290901,0
            99.8950877,19.029109,0
            99.8951352,19.0291769,0
            99.8951702,19.0292092,0
            99.8952173,19.029235,0
            99.8952396,19.0292448,0
            99.8958233,19.029593,0
            99.8952396,19.0292448,0
            99.8958233,19.029593,0
            99.8952396,19.0292448,0
            99.8958233,19.029593,0
            99.8960209,19.0296961,0
            99.8963767,19.0299071,0
            99.8966248,19.0300207,0
            99.8967935,19.0301217,0
            99.8969876,19.0302322,0
            99.8973948,19.0304532,0
            99.8975566,19.030537,0
            99.8979032,19.0307246,0
            99.8979593,19.0307576,0
            99.8979918,19.0307696,0
            99.8980251,19.0307782,0
            99.8980572,19.0307813,0
            99.8980926,19.0307826,0
            99.8981228,19.0307793,0
            99.8981557,19.0307722,0
            99.8981889,19.0307613,0
            99.8982159,19.0307473,0
            99.8982461,19.0307278,0
            99.898273,19.0307069,0
            99.8982903,19.0306866,0
            99.8983103,19.0306613,0
            99.8983273,19.0306314,0
            99.89834,19.0306013,0
            99.8983484,19.0305697,0
            99.8984102,19.0305587,0
            99.8984634,19.030555,0
            99.89884,19.0306662,0
            99.8991276,19.0307148,0
            99.899454,19.0307165,0
            99.8997971,19.0307151,0
            99.9004154,19.0307107,0
            99.9007419,19.0307072,0
            99.9012562,19.0307123,0
            99.9021145,19.0307233,0
            99.9030336,19.0307361,0
            99.9030477,19.0307715,0
            99.9030621,19.0307933,0
            99.9030908,19.0308222,0
            99.9031168,19.0308389,0
            99.9031452,19.0308514,0
            99.9031636,19.0308569,0
            99.9031926,19.0308622,0
            99.9032297,19.0308623,0
            99.9032707,19.0308538,0
            99.9032935,19.0308442,0
            99.9033076,19.0308365,0
            99.903328,19.0308216,0
            99.9033605,19.0307893,0
            99.9033733,19.0307668,0
            99.9033855,19.030735,0
            99.9033921,19.0306848,0
            99.9033885,19.0306605,0
            99.9033784,19.0306266,0
            99.9033638,19.0305974,0
            99.9033401,19.0305687,0
            99.9033006,19.0305391,0
            99.9032759,19.0305284,0
            99.9032641,19.0305255,0
            99.9032581,19.030476,0
            99.9032473,19.0303946,0
            99.9032252,19.0302323,0
            99.9032084,19.030071,0
            99.903185,19.0298269,0
            99.9031534,19.0295024,0
            99.9031313,19.0292592,0
            99.9030998,19.0288532,0
            99.9030931,19.0287724,0
            99.9030894,19.0287245,0
            99.903074,19.0286399,0
            99.9030271,19.028581,0
            99.9029975,19.0285648,0
            99.9029468,19.0285216,0
            99.90286,19.0284943,0
            99.9027148,19.0284956,0
            99.9022857,19.0285026,0
            99.901771,19.0285108,0
            99.9015997,19.0285178,0
            99.9012564,19.0285336,0
            99.9007414,19.0285552,0
            99.9005516,19.0285628,0
            99.9002264,19.0285656,0
            99.8998254,19.0285663,0
            99.8998267,19.0284949,0
            99.8998254,19.0285663,0
            99.8987817,19.0285686,0
            99.8988459,19.0283671,0
            99.898876,19.0282863,0
            99.8989364,19.0281265,0
            99.8990236,19.0278936,0
            99.8990765,19.0277681,0
          </coordinates>
        </LineString>
      </Placemark>
      <Placemark>
        <name>สถานีหน้าศูนย์การเรียนรู้เศรษฐกิจพอเพียง</name>
        <styleUrl>#icon-1899-DB4436-nodesc</styleUrl>
        <Point>
          <coordinates>
            99.899542,19.02696,0
          </coordinates>
        </Point>
      </Placemark>
    </Folder>
    <Folder>
      <name>รร.สาธิต - PKY</name>
      <Placemark>
        <name>สถานีหน้าอาคารสงวนเสริมศรี</name>
        <styleUrl>#icon-1899-DB4436-nodesc</styleUrl>
        <Point>
          <coordinates>
            99.8863112,19.0342438,0
          </coordinates>
        </Point>
      </Placemark>
      <Placemark>
        <name>สถานีหน้าอาคาร ๙๙ ปี</name>
        <styleUrl>#icon-1899-DB4436-nodesc</styleUrl>
        <Point>
          <coordinates>
            99.8934952,19.0320031,0
          </coordinates>
        </Point>
      </Placemark>
      <Placemark>
        <name>สายหอพัก - ขาไป</name>
        <styleUrl>#line-FF5252-5650-nodesc</styleUrl>
        <LineString>
          <tessellate>1</tessellate>
          <coordinates>
            99.8840528,19.0344885,0
            99.8843384,19.0344927,0
            99.8844334,19.0344914,0
            99.8846043,19.0344831,0
            99.8846759,19.0344793,0
            99.8848314,19.0344642,0
            99.8851197,19.034417,0
            99.8852056,19.0344002,0
            99.885378,19.0343613,0
            99.8858321,19.0342537,0
            99.8859325,19.0342392,0
            99.8860168,19.0342195,0
            99.8862665,19.0341427,0
            99.8863112,19.0342438,0
            99.8862665,19.0341427,0
            99.8864999,19.0340524,0
            99.8866632,19.0339815,0
            99.8870092,19.0338036,0
            99.88718,19.0337303,0
            99.8873052,19.033676,0
            99.8874645,19.0336071,0
            99.8875968,19.0335504,0
            99.8877209,19.033498,0
            99.887832,19.0334503,0
            99.887988,19.0333906,0
            99.8881506,19.0333286,0
            99.8883673,19.033214,0
            99.8886385,19.0331077,0
            99.8889513,19.032986,0
            99.8891126,19.032936,0
            99.8893238,19.0329342,0
            99.8894096,19.0329363,0
            99.8896503,19.032941,0
            99.889704,19.0329507,0
            99.8903895,19.03306,0
            99.8907836,19.0331197,0
            99.8910419,19.03315,0
            99.8911675,19.0331485,0
            99.891283,19.033154,0
            99.891549,19.033126,0
            99.8921276,19.0329021,0
            99.8922138,19.0328605,0
            99.8924209,19.0327297,0
            99.8927576,19.0324331,0
            99.893096,19.0321371,0
            99.8932754,19.0320181,0
            99.8933587,19.0319653,0
            99.893439,19.031917,0
            99.8934952,19.0320031,0
            99.893439,19.031917,0
            99.8935643,19.0318371,0
            99.8936208,19.0318126,0
            99.8936876,19.0317768,0
            99.8937594,19.0316989,0
            99.8937803,19.0316729,0
            99.8937866,19.0316621,0
            99.8938258,19.0315305,0
            99.8938323,19.0315111,0
            99.8938422,19.0314504,0
            99.8938535,19.0313678,0
            99.893855,19.0312693,0
            99.8938881,19.0310683,0
            99.8939274,19.0309635,0
            99.8940592,19.030764,0
            99.8943402,19.0303959,0
            99.8944367,19.0302609,0
            99.894782,19.0297321,0
            99.8949517,19.0294732,0
            99.8951279,19.0293888,0
            99.8952787,19.0293721,0
            99.8953377,19.0293723,0
            99.8954087,19.0293846,0
            99.8955796,19.0294549,0
            99.8956794,19.0295091,0
            99.895798,19.029579,0
            99.8958498,19.0296084,0
            99.8960069,19.0296898,0
            99.8961931,19.0297997,0
            99.8963767,19.0299071,0
            99.8965062,19.0299676,0
            99.8966223,19.030022,0
            99.8967684,19.0301074,0
            99.8968819,19.0301751,0
            99.8971846,19.0303415,0
            99.8974954,19.0305082,0
            99.8975566,19.030537,0
            99.8979032,19.0307246,0
            99.8979593,19.0307576,0
            99.8979918,19.0307696,0
            99.8980251,19.0307782,0
            99.8980572,19.0307813,0
            99.8980926,19.0307826,0
            99.8981228,19.0307793,0
            99.8981557,19.0307722,0
            99.8981889,19.0307613,0
            99.8982159,19.0307473,0
            99.8982506,19.030725,0
            99.8982697,19.0307091,0
            99.8982903,19.0306866,0
            99.8983103,19.0306613,0
            99.8983273,19.0306314,0
            99.89834,19.0306013,0
            99.8983501,19.0305627,0
            99.8983519,19.0305286,0
            99.8983501,19.0304903,0
            99.8983444,19.0304533,0
            99.8983367,19.0304241,0
            99.8983348,19.0304117,0
            99.8983306,19.0304006,0
            99.8983104,19.0303599,0
            99.8982926,19.0303341,0
            99.8982752,19.0303154,0
            99.8982505,19.0302953,0
            99.8982231,19.0302777,0
            99.8981317,19.030242,0
            99.897748,19.030086,0
            99.8976515,19.0300305,0
            99.8974775,19.0299328,0
            99.8973992,19.0298842,0
            99.8973607,19.0298563,0
            99.8970513,19.0296863,0
            99.8967174,19.0295024,0
            99.8965739,19.0294241,0
            99.8962973,19.0292594,0
            99.8960187,19.0290938,0
            99.895721,19.0289173,0
            99.8956737,19.0289037,0
            99.8955883,19.028855,0
            99.8955061,19.0288298,0
            99.8954476,19.0288127,0
            99.8954188,19.0288007,0
            99.895382,19.0286914,0
            99.8952934,19.0285344,0
            99.895367,19.0282432,0
            99.8953716,19.0282259,0
            99.8953763,19.028209,0
            99.8955124,19.0279616,0
            99.8955908,19.0278169,0
            99.8956347,19.0277205,0
            99.895652,19.0276716,0
            99.8956667,19.027595,0
            99.8956717,19.0274276,0
            99.8956457,19.0271744,0
            99.8956169,19.0270066,0
            99.8955928,19.0268388,0
            99.8955673,19.0266675,0
            99.8955458,19.0265032,0
            99.8955009,19.0261615,0
            99.8954815,19.0260135,0
            99.8954696,19.0259154,0
            99.8954557,19.0258205,0
            99.8954339,19.0257706,0
            99.8954117,19.0257328,0
            99.8953912,19.0257148,0
            99.895363,19.0256993,0
            99.8952944,19.0256863,0
            99.8952487,19.0256796,0
            99.8950123,19.0256484,0
            99.895014,19.02562,0
          </coordinates>
        </LineString>
      </Placemark>
      <Placemark>
        <name>สายหอพัก - ขากลับ</name>
        <styleUrl>#line-FF5252-5844-nodesc</styleUrl>
        <LineString>
          <tessellate>1</tessellate>
          <coordinates>
            99.895015,19.02562,0
            99.8950116,19.0256586,0
            99.8952486,19.0256909,0
            99.8953579,19.0257083,0
            99.8953827,19.0257219,0
            99.8954028,19.0257397,0
            99.8954236,19.0257758,0
            99.8954444,19.0258227,0
            99.895488,19.0261552,0
            99.8955022,19.0262583,0
            99.895513,19.0263381,0
            99.8955441,19.0265819,0
            99.895579,19.0268256,0
            99.8956026,19.0269879,0
            99.8956338,19.027178,0
            99.8956609,19.0274278,0
            99.8956559,19.0275933,0
            99.8956405,19.0276687,0
            99.8956247,19.0277166,0
            99.8955791,19.0278142,0
            99.895505,19.02795,0
            99.8954198,19.0281063,0
            99.8953662,19.0282039,0
            99.8953588,19.0282286,0
            99.8952804,19.0285376,0
            99.8952134,19.0286188,0
            99.8951718,19.028693,0
            99.8951371,19.0287642,0
            99.8951352,19.0287784,0
            99.895118,19.0288259,0
            99.895116,19.0288917,0
            99.895097,19.0289256,0
            99.8950867,19.0289497,0
            99.89508,19.0289732,0
            99.8950761,19.0289974,0
            99.8950749,19.0290154,0
            99.895076,19.0290431,0
            99.8950801,19.0290679,0
            99.8950864,19.0290972,0
            99.8950901,19.0291072,0
            99.8951185,19.0291566,0
            99.8951352,19.0291769,0
            99.8951531,19.0291946,0
            99.8951702,19.0292092,0
            99.8951938,19.0292237,0
            99.8952173,19.029235,0
            99.8952396,19.0292448,0
            99.8952641,19.0292519,0
            99.8952897,19.0292566,0
            99.8953228,19.0292556,0
            99.8953747,19.0292419,0
            99.8953228,19.0292556,0
            99.8952897,19.0292566,0
            99.8952641,19.0292519,0
            99.8952396,19.0292448,0
            99.8952173,19.029235,0
            99.8951938,19.0292237,0
            99.8951702,19.0292092,0
            99.8951531,19.0291946,0
            99.8951352,19.0291769,0
            99.8951185,19.0291566,0
            99.8950901,19.0291072,0
            99.8950603,19.0291751,0
            99.8950191,19.0292266,0
            99.8949832,19.029297,0
            99.8949388,19.0294687,0
            99.8949583,19.0294551,0
            99.8951231,19.0293775,0
            99.8951773,19.0293428,0
            99.89521,19.0293271,0
            99.8952522,19.0293113,0
            99.8952908,19.0292894,0
            99.8953231,19.0292769,0
            99.8953747,19.0292419,0
            99.8954102,19.0292314,0
            99.8954452,19.029215,0
            99.8954576,19.0292083,0
            99.8954726,19.0291971,0
            99.8954962,19.0291775,0
            99.895508,19.0291642,0
            99.8955239,19.0291443,0
            99.8955362,19.0291257,0
            99.8955461,19.0291057,0
            99.8955537,19.029083,0
            99.8955622,19.0290393,0
            99.8955628,19.0290156,0
            99.8955583,19.0289793,0
            99.8955498,19.0289469,0
            99.8955294,19.0289053,0
            99.8955035,19.0288716,0
            99.8954413,19.0288257,0
            99.895505,19.0288416,0
            99.8954413,19.0288257,0
            99.8954222,19.0288166,0
            99.8954104,19.0288131,0
            99.8953984,19.0288077,0
            99.8953706,19.028801,0
            99.8953476,19.028798,0
            99.8953254,19.0287974,0
            99.8953046,19.0287978,0
            99.8952854,19.0288014,0
            99.8952568,19.0288077,0
            99.8952163,19.0288229,0
            99.8952001,19.0288314,0
            99.8951718,19.0288509,0
            99.8951393,19.0288686,0
            99.895116,19.0288917,0
            99.895118,19.0288259,0
            99.8951352,19.0287784,0
            99.8951371,19.0287642,0
            99.8951718,19.028693,0
            99.8952134,19.0286188,0
            99.8952804,19.0285376,0
            99.8952933,19.0285571,0
            99.8953719,19.0286964,0
            99.8954104,19.0288131,0
            99.8954222,19.0288166,0
            99.8954413,19.0288257,0
            99.895505,19.0288416,0
            99.8955831,19.0288679,0
            99.8956663,19.0289158,0
            99.8957149,19.02893,0
            99.8959962,19.0290977,0
            99.8962684,19.0292593,0
            99.8965417,19.0294216,0
            99.8965665,19.0294356,0
            99.8968354,19.0295839,0
            99.8969822,19.0296647,0
            99.8971358,19.0297493,0
            99.897354,19.0298688,0
            99.8973943,19.0298977,0
            99.8974801,19.02995,0
            99.8977387,19.030097,0
            99.8978226,19.0301442,0
            99.8981283,19.0302548,0
            99.8981595,19.0302644,0
            99.8982162,19.0302894,0
            99.8982416,19.0303046,0
            99.8982638,19.0303236,0
            99.8982819,19.0303426,0
            99.8982983,19.0303664,0
            99.8983224,19.0304143,0
            99.8983228,19.0304203,0
            99.8983305,19.0304542,0
            99.8983365,19.030491,0
            99.8983379,19.0305268,0
            99.8983355,19.0305639,0
            99.8983261,19.030601,0
            99.8983147,19.030626,0
            99.898299,19.0306548,0
            99.8982815,19.0306783,0
            99.8982574,19.0307027,0
            99.8982366,19.0307198,0
            99.8982101,19.0307353,0
            99.8981813,19.0307496,0
            99.8981521,19.0307591,0
            99.8981213,19.0307661,0
            99.8980898,19.0307693,0
            99.8980566,19.0307683,0
            99.8980254,19.0307645,0
            99.8979956,19.0307572,0
            99.897964,19.0307455,0
            99.8979345,19.030729,0
            99.8975594,19.0305246,0
            99.8973096,19.0303953,0
            99.8971191,19.03029,0
            99.8968794,19.0301585,0
            99.8966283,19.0300098,0
            99.8963809,19.0298953,0
            99.8961928,19.0297842,0
            99.8960201,19.0296818,0
            99.8958481,19.029593,0
            99.8957623,19.029542,0
            99.8956771,19.0294919,0
            99.8955816,19.0294412,0
            99.8954099,19.0293721,0
            99.8953385,19.0293598,0
            99.8952745,19.0293595,0
            99.8951231,19.0293775,0
            99.8949583,19.0294551,0
            99.8949388,19.0294687,0
            99.894733,19.0297803,0
            99.894561,19.030044,0
            99.8944265,19.0302503,0
            99.8943739,19.0303289,0
            99.8941999,19.0305568,0
            99.8940755,19.0307197,0
            99.8940483,19.0307559,0
            99.8939652,19.0308823,0
            99.8939149,19.0309606,0
            99.8938757,19.0310643,0
            99.8938411,19.0312706,0
            99.8938391,19.0313676,0
            99.8938277,19.0314503,0
            99.8938177,19.031509,0
            99.8937757,19.0316577,0
            99.89379,19.0316631,0
            99.8937757,19.0316577,0
            99.8937688,19.0316693,0
            99.8937803,19.0316729,0
            99.8937688,19.0316693,0
            99.8936801,19.0317668,0
            99.8936177,19.0317998,0
            99.8935604,19.0318245,0
            99.89343,19.0319031,0
            99.8934952,19.0320031,0
            99.89343,19.0319031,0
            99.893381,19.0319374,0
            99.8932529,19.0320185,0
            99.893088,19.0321282,0
            99.8927497,19.0324239,0
            99.8925375,19.0326115,0
            99.8924729,19.0326678,0
            99.8924149,19.0327204,0
            99.8922392,19.0328301,0
            99.8922084,19.0328507,0
            99.8921239,19.03289,0
            99.8919864,19.0329426,0
            99.8915445,19.0331166,0
            99.8912827,19.0331426,0
            99.8911663,19.0331366,0
            99.8910423,19.0331372,0
            99.8908703,19.0331194,0
            99.8907848,19.0331087,0
            99.8906986,19.0330953,0
            99.8903905,19.0330478,0
            99.8899261,19.0329736,0
            99.8897082,19.0329388,0
            99.889657,19.032929,0
            99.8894976,19.0329251,0
            99.8894115,19.0329239,0
            99.8891114,19.0329239,0
            99.8889666,19.0329679,0
            99.8889458,19.032974,0
            99.8886387,19.0330947,0
            99.8883624,19.0332025,0
            99.8881455,19.0333166,0
            99.8878276,19.0334396,0
            99.8875909,19.03354,0
            99.887307,19.033662,0
            99.8869771,19.0338067,0
            99.886923,19.0338361,0
            99.8868306,19.0338853,0
            99.8866474,19.0339767,0
            99.8864931,19.0340433,0
            99.8863228,19.0341086,0
            99.8861648,19.0341625,0
            99.8860136,19.0342101,0
            99.8859243,19.0342293,0
            99.8858316,19.034244,0
            99.8854761,19.0343281,0
            99.8852913,19.0343721,0
            99.8851199,19.0344078,0
            99.8848244,19.0344559,0
            99.8846553,19.0344712,0
            99.884519,19.0344782,0
            99.8843323,19.0344843,0
            99.8840549,19.0344793,0
            99.8843323,19.0344843,0
            99.884519,19.0344782,0
            99.8846553,19.0344712,0
            99.8848244,19.0344559,0
            99.8851199,19.0344078,0
            99.8852913,19.0343721,0
            99.8854761,19.0343281,0
            99.8858316,19.034244,0
            99.8858381,19.0342404,0
            99.8859243,19.0342293,0
            99.8860136,19.0342101,0
            99.8861648,19.0341625,0
            99.8862635,19.0341284,0
            99.8863112,19.0342438,0
            99.8862635,19.0341284,0
            99.8863228,19.0341086,0
            99.8864931,19.0340433,0
            99.8866474,19.0339767,0
            99.8868306,19.0338853,0
            99.886923,19.0338361,0
            99.8869771,19.0338067,0
            99.8870105,19.0337923,0
            99.8870949,19.0337557,0
            99.887307,19.033662,0
            99.8870949,19.0337557,0
          </coordinates>
        </LineString>
      </Placemark>
      <Placemark>
        <name>สถานีหน้าเวียงพะเยา</name>
        <styleUrl>#icon-1899-DB4436-nodesc</styleUrl>
        <Point>
          <coordinates>
            99.8908747,19.0331648,0
          </coordinates>
        </Point>
      </Placemark>
      <Placemark>
        <name>สถานีหน้าโรงเรียนสาธิตมหาวิทยาลัยพะเยา</name>
        <styleUrl>#icon-1899-DB4436-nodesc</styleUrl>
        <Point>
          <coordinates>
            99.8842468,19.0344118,0
          </coordinates>
        </Point>
      </Placemark>
      <Placemark>
        <name>จุดจอดรถบัสPKY</name>
        <styleUrl>#icon-1899-DB4436-nodesc</styleUrl>
        <Point>
          <coordinates>
            99.895015,19.02562,0
          </coordinates>
        </Point>
      </Placemark>
    </Folder>
  </Document>
</kml>
