<?xml version="1.0" encoding="UTF-8"?>
<kml xmlns="http://www.opengis.net/kml/2.2">
  <Document>
    <name>รร.สาธิต - PKY</name>
    <Style id="icon-1899-DB4436-nodesc-normal">
      <IconStyle>
        <color>ff3644db</color>
        <scale>1</scale>
        <Icon>
          <href>assets/images/bus-stop-1.png</href>
        </Icon>
        <hotSpot x="32" xunits="pixels" y="64" yunits="insetPixels"/>
      </IconStyle>
      <LabelStyle>
        <scale>0</scale>
      </LabelStyle>
      <BalloonStyle>
        <text><![CDATA[<h3>$[name]</h3>]]></text>
      </BalloonStyle>
    </Style>
    <Style id="icon-1899-DB4436-nodesc-highlight">
      <IconStyle>
        <color>ff3644db</color>
        <scale>1</scale>
        <Icon>
          <href>assets/images/bus-stop-1.png</href>
        </Icon>
        <hotSpot x="32" xunits="pixels" y="64" yunits="insetPixels"/>
      </IconStyle>
      <LabelStyle>
        <scale>1</scale>
      </LabelStyle>
      <BalloonStyle>
        <text><![CDATA[<h3>$[name]</h3>]]></text>
      </BalloonStyle>
    </Style>
    <StyleMap id="icon-1899-DB4436-nodesc">
      <Pair>
        <key>normal</key>
        <styleUrl>#icon-1899-DB4436-nodesc-normal</styleUrl>
      </Pair>
      <Pair>
        <key>highlight</key>
        <styleUrl>#icon-1899-DB4436-nodesc-highlight</styleUrl>
      </Pair>
    </StyleMap>
    <Style id="line-FF5252-6425-nodesc-normal">
      <LineStyle>
        <color>ff5252ff</color>
        <width>6.425</width>
      </LineStyle>
      <BalloonStyle>
        <text><![CDATA[<h3>$[name]</h3>]]></text>
      </BalloonStyle>
    </Style>
    <Style id="line-FF5252-6425-nodesc-highlight">
      <LineStyle>
        <color>ff5252ff</color>
        <width>9.6375</width>
      </LineStyle>
      <BalloonStyle>
        <text><![CDATA[<h3>$[name]</h3>]]></text>
      </BalloonStyle>
    </Style>
    <StyleMap id="line-FF5252-6425-nodesc">
      <Pair>
        <key>normal</key>
        <styleUrl>#line-FF5252-6425-nodesc-normal</styleUrl>
      </Pair>
      <Pair>
        <key>highlight</key>
        <styleUrl>#line-FF5252-6425-nodesc-highlight</styleUrl>
      </Pair>
    </StyleMap>
    <Style id="line-FF5252-6619-nodesc-normal">
      <LineStyle>
        <color>ff5252ff</color>
        <width>6.619</width>
      </LineStyle>
      <BalloonStyle>
        <text><![CDATA[<h3>$[name]</h3>]]></text>
      </BalloonStyle>
    </Style>
    <Style id="line-FF5252-6619-nodesc-highlight">
      <LineStyle>
        <color>ff5252ff</color>
        <width>9.9285</width>
      </LineStyle>
      <BalloonStyle>
        <text><![CDATA[<h3>$[name]</h3>]]></text>
      </BalloonStyle>
    </Style>
    <StyleMap id="line-FF5252-6619-nodesc">
      <Pair>
        <key>normal</key>
        <styleUrl>#line-FF5252-6619-nodesc-normal</styleUrl>
      </Pair>
      <Pair>
        <key>highlight</key>
        <styleUrl>#line-FF5252-6619-nodesc-highlight</styleUrl>
      </Pair>
    </StyleMap>
    <Placemark>
      <name>สถานีหน้าอาคารสงวนเสริมศรี</name>
      <styleUrl>#icon-1899-DB4436-nodesc</styleUrl>
      <Point>
        <coordinates>
          99.8863112,19.0342438,0
        </coordinates>
      </Point>
    </Placemark>
    <Placemark>
      <name>สถานีหน้าอาคาร ๙๙ ปี</name>
      <styleUrl>#icon-1899-DB4436-nodesc</styleUrl>
      <Point>
        <coordinates>
          99.8934952,19.0320031,0
        </coordinates>
      </Point>
    </Placemark>
    <Placemark>
      <name>สถานีหน้าเวียงพะเยา</name>
      <styleUrl>#icon-1899-DB4436-nodesc</styleUrl>
      <Point>
        <coordinates>
          99.8908747,19.0331648,0
        </coordinates>
      </Point>
    </Placemark>
    <Placemark>
      <name>สถานีหน้าโรงเรียนสาธิตมหาวิทยาลัยพะเยา</name>
      <styleUrl>#icon-1899-DB4436-nodesc</styleUrl>
      <Point>
        <coordinates>
          99.8842468,19.0344118,0
        </coordinates>
      </Point>
    </Placemark>
    <Placemark>
      <name>จุดจอดรถบัสPKY</name>
      <styleUrl>#icon-1899-DB4436-nodesc</styleUrl>
      <Point>
        <coordinates>
          99.895015,19.02562,0
        </coordinates>
      </Point>
    </Placemark>
    <Placemark>
      <name>สายหอพัก - ขากลับ</name>
      <styleUrl>#line-FF5252-6619-nodesc</styleUrl>
      <LineString>
        <tessellate>1</tessellate>
        <coordinates>
          99.8840528,19.0344885,0
          99.8843384,19.0344927,0
          99.8844334,19.0344914,0
          99.8846043,19.0344831,0
          99.8846759,19.0344793,0
          99.8848314,19.0344642,0
          99.8851197,19.034417,0
          99.8852056,19.0344002,0
          99.885378,19.0343613,0
          99.8858321,19.0342537,0
          99.8859325,19.0342392,0
          99.8860168,19.0342195,0
          99.8862665,19.0341427,0
          99.8863112,19.0342438,0
          99.8862665,19.0341427,0
          99.8864999,19.0340524,0
          99.8866632,19.0339815,0
          99.8870092,19.0338036,0
          99.88718,19.0337303,0
          99.8873052,19.033676,0
          99.8874645,19.0336071,0
          99.8875968,19.0335504,0
          99.8877209,19.033498,0
          99.887832,19.0334503,0
          99.887988,19.0333906,0
          99.8881506,19.0333286,0
          99.8883673,19.033214,0
          99.8886385,19.0331077,0
          99.8889513,19.032986,0
          99.8891126,19.032936,0
          99.8893238,19.0329342,0
          99.8894096,19.0329363,0
          99.8896503,19.032941,0
          99.889704,19.0329507,0
          99.8903895,19.03306,0
          99.8907836,19.0331197,0
          99.8910419,19.03315,0
          99.8911675,19.0331485,0
          99.891283,19.033154,0
          99.891549,19.033126,0
          99.8921276,19.0329021,0
          99.8922138,19.0328605,0
          99.8924209,19.0327297,0
          99.8927576,19.0324331,0
          99.893096,19.0321371,0
          99.8932754,19.0320181,0
          99.8933587,19.0319653,0
          99.893439,19.031917,0
          99.8934952,19.0320031,0
          99.893439,19.031917,0
          99.8935643,19.0318371,0
          99.8936208,19.0318126,0
          99.8936876,19.0317768,0
          99.8937594,19.0316989,0
          99.8937803,19.0316729,0
          99.8937866,19.0316621,0
          99.8938258,19.0315305,0
          99.8938323,19.0315111,0
          99.8938422,19.0314504,0
          99.8938535,19.0313678,0
          99.893855,19.0312693,0
          99.8938881,19.0310683,0
          99.8939274,19.0309635,0
          99.8940592,19.030764,0
          99.8943402,19.0303959,0
          99.8943874,19.0303341,0
          99.8944367,19.0302609,0
          99.894782,19.0297321,0
          99.8949517,19.0294732,0
          99.8951279,19.0293888,0
          99.8952787,19.0293721,0
          99.8953377,19.0293723,0
          99.8954087,19.0293846,0
          99.8955796,19.0294549,0
          99.8956794,19.0295091,0
          99.895798,19.029579,0
          99.8958498,19.0296084,0
          99.8960069,19.0296898,0
          99.8961931,19.0297997,0
          99.8963767,19.0299071,0
          99.8965062,19.0299676,0
          99.8966223,19.030022,0
          99.8967684,19.0301074,0
          99.8968819,19.0301751,0
          99.8971846,19.0303415,0
          99.8974954,19.0305082,0
          99.8975566,19.030537,0
          99.8979032,19.0307246,0
          99.8979593,19.0307576,0
          99.8979918,19.0307696,0
          99.8980251,19.0307782,0
          99.8980572,19.0307813,0
          99.8980926,19.0307826,0
          99.8981228,19.0307793,0
          99.8981557,19.0307722,0
          99.8981889,19.0307613,0
          99.8982159,19.0307473,0
          99.8982506,19.030725,0
          99.8982697,19.0307091,0
          99.8982903,19.0306866,0
          99.8983103,19.0306613,0
          99.8983273,19.0306314,0
          99.89834,19.0306013,0
          99.8983501,19.0305627,0
          99.8983519,19.0305286,0
          99.8983501,19.0304903,0
          99.8983444,19.0304533,0
          99.8983367,19.0304241,0
          99.8983348,19.0304117,0
          99.8983306,19.0304006,0
          99.8983104,19.0303599,0
          99.8982926,19.0303341,0
          99.8982752,19.0303154,0
          99.8982505,19.0302953,0
          99.8982231,19.0302777,0
          99.8981317,19.030242,0
          99.897748,19.030086,0
          99.8976515,19.0300305,0
          99.8974775,19.0299328,0
          99.8973992,19.0298842,0
          99.8973607,19.0298563,0
          99.8970513,19.0296863,0
          99.8967174,19.0295024,0
          99.8965739,19.0294241,0
          99.8962973,19.0292594,0
          99.8960187,19.0290938,0
          99.895721,19.0289173,0
          99.8956737,19.0289037,0
          99.8955883,19.028855,0
          99.8955061,19.0288298,0
          99.8954476,19.0288127,0
          99.8954188,19.0288007,0
          99.895382,19.0286914,0
          99.8952934,19.0285344,0
          99.895367,19.0282432,0
          99.8953716,19.0282259,0
          99.8953763,19.028209,0
          99.8955124,19.0279616,0
          99.8955908,19.0278169,0
          99.8956347,19.0277205,0
          99.895652,19.0276716,0
          99.8956667,19.027595,0
          99.8956717,19.0274276,0
          99.8956457,19.0271744,0
          99.8956169,19.0270066,0
          99.8955928,19.0268388,0
          99.8955673,19.0266675,0
          99.8955458,19.0265032,0
          99.8955009,19.0261615,0
          99.8954815,19.0260135,0
          99.8954696,19.0259154,0
          99.8954557,19.0258205,0
          99.8954339,19.0257706,0
          99.8954117,19.0257328,0
          99.8953912,19.0257148,0
          99.895363,19.0256993,0
          99.8952944,19.0256863,0
          99.8952487,19.0256796,0
          99.8950123,19.0256484,0
          99.895014,19.02562,0
        </coordinates>
      </LineString>
    </Placemark>
    <Placemark>
      <name>สายหอพัก - ขาไป</name>
      <styleUrl>#line-FF5252-6425-nodesc</styleUrl>
      <LineString>
        <tessellate>1</tessellate>
        <coordinates>
          99.895015,19.02562,0
          99.8950116,19.0256586,0
          99.8953579,19.0257083,0
          99.8953827,19.0257219,0
          99.8954028,19.0257397,0
          99.8954236,19.0257758,0
          99.8954444,19.0258227,0
          99.8956609,19.0274278,0
          99.8956559,19.0275933,0
          99.8956425,19.0276627,0
          99.8956247,19.0277166,0
          99.8955788,19.0278168,0
          99.8953662,19.0282039,0
          99.8952811,19.0285328,0
          99.8952804,19.0285376,0
          99.8952134,19.0286188,0
          99.8951718,19.028693,0
          99.8951371,19.0287642,0
          99.8951352,19.0287784,0
          99.895118,19.0288259,0
          99.895116,19.0288917,0
          99.895097,19.0289256,0
          99.8950867,19.0289497,0
          99.89508,19.0289732,0
          99.8950761,19.0289974,0
          99.8950749,19.0290154,0
          99.8950761,19.0290439,0
          99.8950796,19.0290673,0
          99.8950863,19.0290901,0
          99.8950877,19.029109,0
          99.8950614,19.0291749,0
          99.895019,19.0292299,0
          99.8949832,19.0292983,0
          99.8949418,19.0294666,0
          99.8944258,19.030253,0
          99.8943741,19.0303303,0
          99.8941997,19.0305582,0
          99.8940466,19.0307576,0
          99.8939147,19.0309615,0
          99.8938758,19.0310656,0
          99.8938415,19.031272,0
          99.8938402,19.0313691,0
          99.8938281,19.0314507,0
          99.8938191,19.0315076,0
          99.8937736,19.0316641,0
          99.8936795,19.0317674,0
          99.8936169,19.0318013,0
          99.8935605,19.0318253,0
          99.8932539,19.0320186,0
          99.8930887,19.0321289,0
          99.8927779,19.0323993,0
          99.8925872,19.0325688,0
          99.8925229,19.0326239,0
          99.8924161,19.0327198,0
          99.8922092,19.0328498,0
          99.8921232,19.0328913,0
          99.8919005,19.0329761,0
          99.8915451,19.0331164,0
          99.8912818,19.0331436,0
          99.8911652,19.0331372,0
          99.8910446,19.0331384,0
          99.8907845,19.0331081,0
          99.889707,19.0329392,0
          99.8896497,19.032928,0
          99.8893411,19.0329227,0
          99.8891109,19.0329232,0
          99.8889471,19.032975,0
          99.8883625,19.0332024,0
          99.8881458,19.033317,0
          99.8878284,19.0334391,0
          99.8872486,19.0336871,0
          99.8870076,19.0337909,0
          99.886831,19.033884,0
          99.8866477,19.0339762,0
          99.8864914,19.0340429,0
          99.8862754,19.0341262,0
          99.8860124,19.034209,0
          99.8859326,19.0342273,0
          99.8858354,19.0342419,0
          99.8852912,19.0343711,0
          99.8852056,19.0343904,0
          99.8851199,19.0344071,0
          99.8849483,19.0344367,0
          99.884863,19.0344502,0
          99.8847771,19.0344605,0
          99.8846915,19.0344686,0
          99.8846053,19.0344736,0
          99.8844338,19.0344812,0
          99.8843477,19.0344844,0
          99.8842616,19.0344831,0
          99.8840537,19.0344791,0
        </coordinates>
      </LineString>
    </Placemark>
  </Document>
</kml>
