<?xml version="1.0" encoding="UTF-8"?>
<kml xmlns="http://www.opengis.net/kml/2.2">
  <Document>
    <name>up bus transit</name>
    <description/>
    <Style id="icon-1899-DB4436-normal">
      <IconStyle>
        <color>ff3644db</color>
        <scale>1</scale>
        <Icon>
          <href>assets/images/bus-stop-1.png</href>
        </Icon>
        <hotSpot x="32" xunits="pixels" y="64" yunits="insetPixels"/>
      </IconStyle>
      <LabelStyle>
        <scale>0</scale>
      </LabelStyle>
    </Style>
    <Style id="icon-1899-DB4436-highlight">
      <IconStyle>
        <color>ff3644db</color>
        <scale>1</scale>
        <Icon>
          <href>assets/images/bus-stop-1.png</href>
        </Icon>
        <hotSpot x="32" xunits="pixels" y="64" yunits="insetPixels"/>
      </IconStyle>
      <LabelStyle>
        <scale>1</scale>
      </LabelStyle>
    </Style>
    <StyleMap id="icon-1899-DB4436">
      <Pair>
        <key>normal</key>
        <styleUrl>#icon-1899-DB4436-normal</styleUrl>
      </Pair>
      <Pair>
        <key>highlight</key>
        <styleUrl>#icon-1899-DB4436-highlight</styleUrl>
      </Pair>
    </StyleMap>
    <Style id="icon-1899-DB4436-nodesc-normal">
      <IconStyle>
        <color>ff3644db</color>
        <scale>1</scale>
        <Icon>
          <href>assets/images/bus-stop-1.png</href>
        </Icon>
        <hotSpot x="32" xunits="pixels" y="64" yunits="insetPixels"/>
      </IconStyle>
      <LabelStyle>
        <scale>0</scale>
      </LabelStyle>
      <BalloonStyle>
        <text><![CDATA[<h3>$[name]</h3>]]></text>
      </BalloonStyle>
    </Style>
    <Style id="icon-1899-DB4436-nodesc-highlight">
      <IconStyle>
        <color>ff3644db</color>
        <scale>1</scale>
        <Icon>
          <href>assets/images/bus-stop-1.png</href>
        </Icon>
        <hotSpot x="32" xunits="pixels" y="64" yunits="insetPixels"/>
      </IconStyle>
      <LabelStyle>
        <scale>1</scale>
      </LabelStyle>
      <BalloonStyle>
        <text><![CDATA[<h3>$[name]</h3>]]></text>
      </BalloonStyle>
    </Style>
    <StyleMap id="icon-1899-DB4436-nodesc">
      <Pair>
        <key>normal</key>
        <styleUrl>#icon-1899-DB4436-nodesc-normal</styleUrl>
      </Pair>
      <Pair>
        <key>highlight</key>
        <styleUrl>#icon-1899-DB4436-nodesc-highlight</styleUrl>
      </Pair>
    </StyleMap>
    <Style id="line-01579B-7588-nodesc-normal">
      <LineStyle>
        <color>ff9b5701</color>
        <width>7.588</width>
      </LineStyle>
      <BalloonStyle>
        <text><![CDATA[<h3>$[name]</h3>]]></text>
      </BalloonStyle>
    </Style>
    <Style id="line-01579B-7588-nodesc-highlight">
      <LineStyle>
        <color>ff9b5701</color>
        <width>11.382</width>
      </LineStyle>
      <BalloonStyle>
        <text><![CDATA[<h3>$[name]</h3>]]></text>
      </BalloonStyle>
    </Style>
    <StyleMap id="line-01579B-7588-nodesc">
      <Pair>
        <key>normal</key>
        <styleUrl>#line-01579B-7588-nodesc-normal</styleUrl>
      </Pair>
      <Pair>
        <key>highlight</key>
        <styleUrl>#line-01579B-7588-nodesc-highlight</styleUrl>
      </Pair>
    </StyleMap>
    <Style id="line-0F9D58-7394-nodesc-normal">
      <LineStyle>
        <color>ff589d0f</color>
        <width>7.394</width>
      </LineStyle>
      <BalloonStyle>
        <text><![CDATA[<h3>$[name]</h3>]]></text>
      </BalloonStyle>
    </Style>
    <Style id="line-0F9D58-7394-nodesc-highlight">
      <LineStyle>
        <color>ff589d0f</color>
        <width>11.091</width>
      </LineStyle>
      <BalloonStyle>
        <text><![CDATA[<h3>$[name]</h3>]]></text>
      </BalloonStyle>
    </Style>
    <StyleMap id="line-0F9D58-7394-nodesc">
      <Pair>
        <key>normal</key>
        <styleUrl>#line-0F9D58-7394-nodesc-normal</styleUrl>
      </Pair>
      <Pair>
        <key>highlight</key>
        <styleUrl>#line-0F9D58-7394-nodesc-highlight</styleUrl>
      </Pair>
    </StyleMap>
    <Style id="line-FF5252-7006-nodesc-normal">
      <LineStyle>
        <color>ff5252ff</color>
        <width>7.006</width>
      </LineStyle>
      <BalloonStyle>
        <text><![CDATA[<h3>$[name]</h3>]]></text>
      </BalloonStyle>
    </Style>
    <Style id="line-FF5252-7006-nodesc-highlight">
      <LineStyle>
        <color>ff5252ff</color>
        <width>10.509</width>
      </LineStyle>
      <BalloonStyle>
        <text><![CDATA[<h3>$[name]</h3>]]></text>
      </BalloonStyle>
    </Style>
    <StyleMap id="line-FF5252-7006-nodesc">
      <Pair>
        <key>normal</key>
        <styleUrl>#line-FF5252-7006-nodesc-normal</styleUrl>
      </Pair>
      <Pair>
        <key>highlight</key>
        <styleUrl>#line-FF5252-7006-nodesc-highlight</styleUrl>
      </Pair>
    </StyleMap>
    <Folder>
      <name>หน้ามหาวิทยาลัย - อาคารเรียนรวม</name>
      <Placemark>
        <name>หน้ามหาวิทยาลัย</name>
        <description>จุดจอดรับ-ส่ง รถโดยสาร</description>
        <styleUrl>#icon-1899-DB4436</styleUrl>
        <Point>
          <coordinates>
            99.9230985,19.0305644,0
          </coordinates>
        </Point>
      </Placemark>
      <Placemark>
        <name>โรงแรมเอื้องคำ
</name>
        <description>จุดรับ-ส่งระหว่างทาง</description>
        <styleUrl>#icon-1899-DB4436</styleUrl>
        <Point>
          <coordinates>
            99.9066959,19.0285841,0
          </coordinates>
        </Point>
      </Placemark>
      <Placemark>
        <name>คณะทันตกรรมศาสตร์
</name>
        <description>จุดรับ-ส่งระหว่างทาง</description>
        <styleUrl>#icon-1899-DB4436</styleUrl>
        <Point>
          <coordinates>
            99.9154382,19.0299269,0
          </coordinates>
        </Point>
      </Placemark>
      <Placemark>
        <name>คณะวิศวกรรมศาสตร์
</name>
        <description>จุดรับ-ส่งระหว่างทาง</description>
        <styleUrl>#icon-1899-DB4436</styleUrl>
        <Point>
          <coordinates>
            99.9011969,19.0307895,0
          </coordinates>
        </Point>
      </Placemark>
      <Placemark>
        <name>จุดรับ-ส่งระหว่างทาง
</name>
        <styleUrl>#icon-1899-DB4436-nodesc</styleUrl>
        <Point>
          <coordinates>
            99.8974966,19.0305039,0
          </coordinates>
        </Point>
      </Placemark>
      <Placemark>
        <name>จุดรับ-ส่งระหว่างทาง
</name>
        <styleUrl>#icon-1899-DB4436-nodesc</styleUrl>
        <Point>
          <coordinates>
            99.8977487,19.0300855,0
          </coordinates>
        </Point>
      </Placemark>
      <Placemark>
        <name>จุดรับ-ส่งระหว่างทาง
</name>
        <styleUrl>#icon-1899-DB4436-nodesc</styleUrl>
        <Point>
          <coordinates>
            99.896017,19.0290959,0
          </coordinates>
        </Point>
      </Placemark>
      <Placemark>
        <name>จุดรับ-ส่งระหว่างทาง
</name>
        <styleUrl>#icon-1899-DB4436-nodesc</styleUrl>
        <Point>
          <coordinates>
            99.8957989,19.0295787,0
          </coordinates>
        </Point>
      </Placemark>
      <Placemark>
        <name>อาคารเรียนรวม</name>
        <description>จุดจอดรับ-ส่ง รถโดยสาร</description>
        <styleUrl>#icon-1899-DB4436</styleUrl>
        <Point>
          <coordinates>
            99.8950147,19.0256201,0
          </coordinates>
        </Point>
      </Placemark>
      <Placemark>
        <name>หน้ามหาวิทยาลัย - อาคารเรียนรวม</name>
        <styleUrl>#line-0F9D58-7394-nodesc</styleUrl>
        <LineString>
          <tessellate>1</tessellate>
          <coordinates>
            99.9230985,19.0305644,0
            99.9230949,19.0306782,0
            99.9230362,19.030676,0
            99.9223161,19.0306366,0
            99.921455,19.0305632,0
            99.9206196,19.0304807,0
            99.9194729,19.0303273,0
            99.9191175,19.0302589,0
            99.9190424,19.0302272,0
            99.9188707,19.0301232,0
            99.918514,19.0298684,0
            99.918058,19.0295261,0
            99.9179521,19.0294639,0
            99.9177965,19.0293942,0
            99.9176705,19.0293752,0
            99.9175163,19.0293777,0
            99.9154375,19.0299369,0
            99.9137531,19.0303673,0
            99.9129666,19.030605,0
            99.9118192,19.0310297,0
            99.9116586,19.0310858,0
            99.9115571,19.031095,0
            99.911492,19.0310925,0
            99.9114116,19.0310684,0
            99.9113317,19.0310171,0
            99.91127,19.0309448,0
            99.9112311,19.0308611,0
            99.9112332,19.0308046,0
            99.9112372,19.0305219,0
            99.9112218,19.0302291,0
            99.9111789,19.0300655,0
            99.9111453,19.0299489,0
            99.9110656,19.029838,0
            99.9109817,19.0297562,0
            99.910851,19.0296972,0
            99.9107819,19.0296732,0
            99.9107114,19.0296643,0
            99.9105341,19.0296861,0
            99.9096346,19.0298019,0
            99.9095377,19.0298106,0
            99.9094066,19.0298072,0
            99.9092895,19.0298079,0
            99.909192,19.0297838,0
            99.9090535,19.0297245,0
            99.909017,19.0296935,0
            99.908844,19.0295426,0
            99.9086532,19.029387,0
            99.908493,19.0292669,0
            99.9074237,19.0286152,0
            99.9073272,19.0285791,0
            99.9072065,19.0285692,0
            99.9070969,19.0285742,0
            99.9069423,19.0286128,0
            99.9067183,19.0286567,0
            99.9064764,19.0287053,0
            99.9064404,19.0287191,0
            99.9063797,19.0287486,0
            99.9063143,19.0287837,0
            99.9062816,19.0288106,0
            99.9062258,19.0288659,0
            99.9061715,19.0289383,0
            99.9061316,19.0290161,0
            99.9060659,19.02918,0
            99.9059898,19.0293825,0
            99.9059037,19.0295819,0
            99.9058497,19.0296912,0
            99.9056168,19.030069,0
            99.905495,19.0302601,0
            99.9053621,19.0304243,0
            99.9052756,19.030501,0
            99.9052285,19.0305409,0
            99.9051439,19.0305853,0
            99.9049621,19.0306779,0
            99.9046896,19.0308025,0
            99.9043359,19.030997,0
            99.9041266,19.0311708,0
            99.9040528,19.0311945,0
            99.9039261,19.0312293,0
            99.9038346,19.031244,0
            99.9037972,19.0312498,0
            99.9037424,19.0312423,0
            99.903692,19.0312189,0
            99.9036223,19.0311644,0
            99.9035432,19.0310946,0
            99.9034835,19.0309939,0
            99.9034158,19.0308658,0
            99.9033836,19.0308101,0
            99.903366,19.030782,0
            99.9033657,19.0307671,0
            99.9033815,19.0307275,0
            99.9033868,19.0306818,0
            99.9033761,19.0306248,0
            99.9033412,19.0305741,0
            99.9032996,19.0305431,0
            99.9032492,19.0305227,0
            99.9031995,19.0305196,0
            99.9031533,19.0305272,0
            99.9031071,19.0305501,0
            99.9030715,19.0305849,0
            99.903046,19.0306245,0
            99.9030205,19.0306274,0
            99.9029246,19.0306387,0
            99.902863,19.0306457,0
            99.9027463,19.0306558,0
            99.9018672,19.0306603,0
            99.901202,19.0306527,0
            99.8992493,19.0306616,0
            99.8991681,19.0306623,0
            99.899093,19.0306597,0
            99.8990145,19.0306439,0
            99.8989381,19.0306306,0
            99.8988717,19.0306154,0
            99.8987993,19.0305958,0
            99.898708,19.0305641,0
            99.8984144,19.0304328,0
            99.8983371,19.0304145,0
            99.8983108,19.0303671,0
            99.8982554,19.0303025,0
            99.8981984,19.0302749,0
            99.8981354,19.0302484,0
            99.8980743,19.0302395,0
            99.8980341,19.0302445,0
            99.8980053,19.0302407,0
            99.8979557,19.0302135,0
            99.8977487,19.0300855,0
            99.8976797,19.0300542,0
            99.8976107,19.0300144,0
            99.8974727,19.0299363,0
            99.896873,19.0295983,0
            99.896017,19.0290959,0
            99.8957169,19.0289236,0
            99.8956687,19.0289097,0
            99.8955873,19.0288618,0
            99.895542,19.0288458,0
            99.8955058,19.0288352,0
            99.8954484,19.0288245,0
            99.8954086,19.0287934,0
            99.8953788,19.028693,0
            99.8953543,19.0286518,0
            99.8952886,19.0285358,0
            99.895301,19.0284823,0
            99.895319,19.0284125,0
            99.8953392,19.0283263,0
            99.8953526,19.0282724,0
            99.8953656,19.0282221,0
            99.8953955,19.0281628,0
            99.8956034,19.0277711,0
            99.8956282,19.0277228,0
            99.8956496,19.0276626,0
            99.895661,19.0275935,0
            99.8956671,19.0274316,0
            99.8956416,19.0271878,0
            99.8956108,19.0269748,0
            99.8955816,19.0267621,0
            99.8955189,19.026307,0
            99.8954991,19.0261656,0
            99.8954706,19.0259637,0
            99.8954527,19.0258298,0
            99.8954385,19.0257999,0
            99.8954069,19.0257361,0
            99.8953931,19.025726,0
            99.8953618,19.0257039,0
            99.8952788,19.0256911,0
            99.8951058,19.0256645,0
            99.8950133,19.0256512,0
            99.8950147,19.0256201,0
          </coordinates>
        </LineString>
      </Placemark>
    </Folder>
    <Folder>
      <name>สนามกีฬา - อาคารเรียนรวม </name>
      <Placemark>
        <name>สนามกีฬา</name>
        <description>จุดจอดรับ-ส่ง รถโดยสาร</description>
        <styleUrl>#icon-1899-DB4436</styleUrl>
        <Point>
          <coordinates>
            99.8873093,19.0336345,0
          </coordinates>
        </Point>
      </Placemark>
      <Placemark>
        <name>หอพัก UP Dorm
</name>
        <description>จุดรับ-ส่งระหว่างทาง</description>
        <styleUrl>#icon-1899-DB4436</styleUrl>
        <Point>
          <coordinates>
            99.8896574,19.0329292,0
          </coordinates>
        </Point>
      </Placemark>
      <Placemark>
        <name>ศูนย์บรรณสารฯ
</name>
        <description>จุดรับ-ส่งระหว่างทาง</description>
        <styleUrl>#icon-1899-DB4436</styleUrl>
        <Point>
          <coordinates>
            99.8942139,19.0318512,0
          </coordinates>
        </Point>
      </Placemark>
      <Placemark>
        <name>สายสีแดง</name>
        <styleUrl>#line-FF5252-7006-nodesc</styleUrl>
        <LineString>
          <tessellate>1</tessellate>
          <coordinates>
            99.8873093,19.0336345,0
            99.8873196,19.0336635,0
            99.8878305,19.0334452,0
            99.8881494,19.0333219,0
            99.8883649,19.0332084,0
            99.8889507,19.0329805,0
            99.8891126,19.0329304,0
            99.8896574,19.0329292,0
            99.8897067,19.0329453,0
            99.8910458,19.0331444,0
            99.8912844,19.0331544,0
            99.89155,19.0331265,0
            99.8921293,19.0328932,0
            99.8924272,19.0327252,0
            99.8930897,19.0321344,0
            99.8935596,19.0318338,0
            99.893687,19.031773,0
            99.8937819,19.0316655,0
            99.8938651,19.0316943,0
            99.8940669,19.0318607,0
            99.8942139,19.0318512,0
            99.8940666,19.0318607,0
            99.8938647,19.0316944,0
            99.8937815,19.0316659,0
            99.8938238,19.0315141,0
            99.8938466,19.0313699,0
            99.8938486,19.0312694,0
            99.8938825,19.0310659,0
            99.89392,19.0309658,0
            99.8944338,19.0302593,0
            99.8949557,19.0294514,0
            99.8951475,19.0293767,0
            99.895283,19.029366,0
            99.895409,19.0293761,0
            99.8955901,19.0294528,0
            99.8957989,19.0295787,0
            99.896381,19.0299018,0
            99.8966345,19.030021,0
            99.8969084,19.030182,0
            99.8974966,19.0305039,0
            99.8976857,19.0305747,0
            99.8977549,19.0305917,0
            99.8978155,19.0306106,0
            99.8978668,19.03068,0
            99.897907,19.0307218,0
            99.8979741,19.030756,0
            99.8980384,19.0307738,0
            99.8981028,19.0307738,0
            99.8981618,19.0307636,0
            99.8982128,19.0307421,0
            99.8982637,19.0307091,0
            99.898304,19.0306622,0
            99.8983321,19.0306115,0
            99.8983429,19.0305557,0
            99.8983455,19.0304949,0
            99.8983415,19.0304327,0
            99.8983371,19.0304145,0
            99.8983108,19.0303671,0
            99.8982554,19.0303025,0
            99.8981354,19.0302484,0
            99.8980743,19.0302395,0
            99.8980341,19.0302445,0
            99.8980053,19.0302407,0
            99.8979557,19.0302135,0
            99.8977487,19.0300855,0
            99.8976797,19.0300542,0
            99.8974048,19.0298942,0
            99.8967096,19.0295033,0
            99.896017,19.0290959,0
            99.8957169,19.0289236,0
            99.8956687,19.0289097,0
            99.8955873,19.0288618,0
            99.8955058,19.0288352,0
            99.8954484,19.0288245,0
            99.8954086,19.0287934,0
            99.8953788,19.028693,0
            99.8952886,19.0285358,0
            99.8953633,19.0282274,0
            99.8956282,19.0277228,0
            99.8956496,19.0276626,0
            99.895661,19.0275935,0
            99.8956671,19.0274316,0
            99.8956402,19.0271827,0
            99.8954527,19.0258298,0
            99.8954069,19.0257361,0
            99.8953618,19.0257039,0
            99.8950133,19.0256512,0
            99.8950147,19.0256201,0
          </coordinates>
        </LineString>
      </Placemark>
    </Folder>
    <Folder>
      <name>ประตู 3 - อาคาร ICT</name>
      <Placemark>
        <name>ประตู 3</name>
        <description>จุดจอดรับ-ส่ง รถโดยสาร</description>
        <styleUrl>#icon-1899-DB4436</styleUrl>
        <Point>
          <coordinates>
            99.89537,19.02281,0
          </coordinates>
        </Point>
      </Placemark>
      <Placemark>
        <name>อาคาร ICT
</name>
        <description>จุดรับ-ส่งระหว่างทาง</description>
        <styleUrl>#icon-1899-DB4436</styleUrl>
        <Point>
          <coordinates>
            99.8995421,19.0269597,0
          </coordinates>
        </Point>
      </Placemark>
      <Placemark>
        <name>จุดรับ-ส่งระหว่างทาง
</name>
        <styleUrl>#icon-1899-DB4436-nodesc</styleUrl>
        <Point>
          <coordinates>
            99.8998244,19.0285566,0
          </coordinates>
        </Point>
      </Placemark>
      <Placemark>
        <name>จุดรับ-ส่งระหว่างทาง
</name>
        <styleUrl>#icon-1899-DB4436-nodesc</styleUrl>
        <Point>
          <coordinates>
            99.9012345,19.030636,0
          </coordinates>
        </Point>
      </Placemark>
      <Placemark>
        <name>สายสีน้ำเงิน</name>
        <styleUrl>#line-01579B-7588-nodesc</styleUrl>
        <LineString>
          <tessellate>1</tessellate>
          <coordinates>
            99.89537,19.02281,0
            99.8953702,19.0228248,0
            99.8953879,19.0228182,0
            99.8954654,19.0228004,0
            99.8956763,19.02279,0
            99.8964494,19.0227798,0
            99.8974869,19.0227716,0
            99.8977591,19.0227672,0
            99.898301,19.0227836,0
            99.8984062,19.0227786,0
            99.8986295,19.0227931,0
            99.8986926,19.0228084,0
            99.8988723,19.0229155,0
            99.8989728,19.0229979,0
            99.8990211,19.0230556,0
            99.899052,19.0231063,0
            99.8990661,19.023176,0
            99.8990553,19.0234131,0
            99.8990359,19.0235646,0
            99.8990332,19.023668,0
            99.8990337,19.0237266,0
            99.8990425,19.0237893,0
            99.899072,19.0238933,0
            99.8991369,19.0242023,0
            99.8992046,19.0244723,0
            99.8994817,19.0256584,0
            99.8997038,19.0265204,0
            99.8997146,19.0265825,0
            99.8997132,19.0266674,0
            99.8996985,19.0267105,0
            99.8995421,19.0269597,0
            99.8993837,19.0272224,0
            99.8992684,19.0274304,0
            99.8990806,19.0277701,0
            99.8989385,19.0281353,0
            99.8988499,19.0283736,0
            99.8987909,19.0285714,0
            99.8998244,19.0285566,0
            99.9005505,19.0285638,0
            99.9015456,19.0285207,0
            99.9028545,19.0285004,0
            99.9029376,19.0285232,0
            99.9029973,19.0285708,0
            99.9029712,19.0286582,0
            99.903002,19.0288522,0
            99.9030134,19.0290057,0
            99.9030529,19.029502,0
            99.9030972,19.0299889,0
            99.9031174,19.0302247,0
            99.9031481,19.0304761,0
            99.9031533,19.0305272,0
            99.9031071,19.0305501,0
            99.9030715,19.0305849,0
            99.903046,19.0306245,0
            99.9027463,19.0306558,0
            99.901202,19.0306527,0
            99.899093,19.0306597,0
            99.898708,19.0305641,0
            99.8984144,19.0304328,0
            99.8983371,19.0304145,0
            99.8983108,19.0303671,0
            99.8982554,19.0303025,0
            99.8981951,19.0302756,0
            99.898205,19.0302362,0
            99.8984705,19.0294514,0
            99.898673,19.0288758,0
            99.8987897,19.0285728,0
          </coordinates>
        </LineString>
      </Placemark>
    </Folder>
  </Document>
</kml>
