<?xml version="1.0" encoding="UTF-8"?>
<kml xmlns="http://www.opengis.net/kml/2.2">
  <Document>
    <name>ประตูสาม - ICT</name>
    <Style id="icon-1899-DB4436-nodesc-normal">
      <IconStyle>
        <color>ff3644db</color>
        <scale>1</scale>
        <Icon>
          <href>assets/images/bus-stop-1.png</href>
        </Icon>
        <hotSpot x="32" xunits="pixels" y="64" yunits="insetPixels"/>
      </IconStyle>
      <LabelStyle>
        <scale>0</scale>
      </LabelStyle>
      <BalloonStyle>
        <text><![CDATA[<h3>$[name]</h3>]]></text>
      </BalloonStyle>
    </Style>
    <Style id="icon-1899-DB4436-nodesc-highlight">
      <IconStyle>
        <color>ff3644db</color>
        <scale>1</scale>
        <Icon>
          <href>assets/images/bus-stop-1.png</href>
        </Icon>
        <hotSpot x="32" xunits="pixels" y="64" yunits="insetPixels"/>
      </IconStyle>
      <LabelStyle>
        <scale>1</scale>
      </LabelStyle>
      <BalloonStyle>
        <text><![CDATA[<h3>$[name]</h3>]]></text>
      </BalloonStyle>
    </Style>
    <StyleMap id="icon-1899-DB4436-nodesc">
      <Pair>
        <key>normal</key>
        <styleUrl>#icon-1899-DB4436-nodesc-normal</styleUrl>
      </Pair>
      <Pair>
        <key>highlight</key>
        <styleUrl>#icon-1899-DB4436-nodesc-highlight</styleUrl>
      </Pair>
    </StyleMap>
    <Style id="line-0288D1-5650-nodesc-normal">
      <LineStyle>
        <color>ffd18802</color>
        <width>5.65</width>
      </LineStyle>
      <BalloonStyle>
        <text><![CDATA[<h3>$[name]</h3>]]></text>
      </BalloonStyle>
    </Style>
    <Style id="line-0288D1-5650-nodesc-highlight">
      <LineStyle>
        <color>ffd18802</color>
        <width>8.475</width>
      </LineStyle>
      <BalloonStyle>
        <text><![CDATA[<h3>$[name]</h3>]]></text>
      </BalloonStyle>
    </Style>
    <StyleMap id="line-0288D1-5650-nodesc">
      <Pair>
        <key>normal</key>
        <styleUrl>#line-0288D1-5650-nodesc-normal</styleUrl>
      </Pair>
      <Pair>
        <key>highlight</key>
        <styleUrl>#line-0288D1-5650-nodesc-highlight</styleUrl>
      </Pair>
    </StyleMap>
    <Placemark>
      <name>จุดจอดรถบัสประตูสาม</name>
      <styleUrl>#icon-1899-DB4436-nodesc</styleUrl>
      <Point>
        <coordinates>
          99.89537,19.02281,0
        </coordinates>
      </Point>
    </Placemark>
    <Placemark>
      <name>สถานีหน้าคณะเทคโนโลยีสารสนเทศและการสื่อสาร</name>
      <styleUrl>#icon-1899-DB4436-nodesc</styleUrl>
      <Point>
        <coordinates>
          99.8998267,19.0284949,0
        </coordinates>
      </Point>
    </Placemark>
    <Placemark>
      <name>สถานีหน้าคณะวิศวกรรมศาสตร์</name>
      <styleUrl>#icon-1899-DB4436-nodesc</styleUrl>
      <Point>
        <coordinates>
          99.901226,19.0305663,0
        </coordinates>
      </Point>
    </Placemark>
    <Placemark>
      <name>สถานีหน้าศูนย์การเรียนรู้เศรษฐกิจพอเพียง</name>
      <styleUrl>#icon-1899-DB4436-nodesc</styleUrl>
      <Point>
        <coordinates>
          99.899542,19.02696,0
        </coordinates>
      </Point>
    </Placemark>
    <Placemark>
      <name>สายประตูสาม - ขากลับ</name>
      <styleUrl>#line-0288D1-5650-nodesc</styleUrl>
      <LineString>
        <tessellate>1</tessellate>
        <coordinates>
          99.89537,19.02281,0
          99.8953685,19.0228319,0
          99.8953896,19.022823,0
          99.8954671,19.0228056,0
          99.895506,19.0228021,0
          99.8955915,19.022797,0
          99.8959355,19.0227875,0
          99.8961923,19.0227859,0
          99.8966211,19.022784,0
          99.8974844,19.0227767,0
          99.8977557,19.0227729,0
          99.8980809,19.0227755,0
          99.8981664,19.0227793,0
          99.8982988,19.0227878,0
          99.8983384,19.0227856,0
          99.8984054,19.0227828,0
          99.8986274,19.022798,0
          99.8986874,19.022811,0
          99.8987384,19.0228357,0
          99.8988715,19.0229206,0
          99.89897,19.0230012,0
          99.89902,19.0230604,0
          99.8990472,19.0231086,0
          99.8990619,19.0231768,0
          99.8990502,19.0234161,0
          99.8990321,19.0235622,0
          99.8990286,19.0237246,0
          99.899038,19.0237886,0
          99.8990685,19.0238957,0
          99.8991037,19.0240653,0
          99.8991312,19.0241962,0
          99.8991587,19.0243091,0
          99.8991986,19.0244717,0
          99.8992576,19.0247154,0
          99.899332,19.0250406,0
          99.8994473,19.0255272,0
          99.8994819,19.02568,0
          99.8995285,19.0258511,0
          99.899613,19.0261763,0
          99.8996911,19.0264955,0
          99.8997018,19.0265218,0
          99.8997102,19.026581,0
          99.8997089,19.0266622,0
          99.8996951,19.0267085,0
          99.899671,19.0267443,0
          99.8996187,19.0268254,0
          99.8995674,19.0269075,0
          99.89938,19.027221,0
          99.8992666,19.0274242,0
          99.8991922,19.0275551,0
          99.899103,19.0277186,0
          99.8990765,19.0277681,0
          99.8990236,19.0278936,0
          99.8989364,19.0281265,0
          99.898876,19.0282863,0
          99.8988459,19.0283671,0
          99.8987817,19.0285686,0
          99.8986657,19.0288805,0
          99.898313,19.0299087,0
          99.8981889,19.0302668,0
          99.8981317,19.030242,0
          99.8976522,19.030033,0
          99.8974627,19.0299251,0
          99.8973591,19.0298584,0
          99.8971369,19.0297344,0
          99.8965739,19.0294241,0
          99.8957193,19.0289202,0
          99.8955913,19.0288585,0
          99.8955061,19.0288298,0
          99.8954094,19.0287992,0
          99.8953721,19.0287893,0
          99.8953342,19.0287851,0
          99.8952949,19.0287865,0
          99.8952483,19.0287961,0
          99.895203,19.0288159,0
          99.8951624,19.0288426,0
          99.895116,19.0288917,0
          99.895097,19.0289256,0
          99.89508,19.0289732,0
          99.8950749,19.0290154,0
          99.8950779,19.0290546,0
          99.8950863,19.0290901,0
          99.8950877,19.029109,0
          99.8951352,19.0291769,0
          99.8951702,19.0292092,0
          99.8952173,19.029235,0
          99.8952396,19.0292448,0
          99.8958233,19.029593,0
          99.8952396,19.0292448,0
          99.8958233,19.029593,0
          99.8952396,19.0292448,0
          99.8958233,19.029593,0
          99.8960209,19.0296961,0
          99.8963767,19.0299071,0
          99.8966248,19.0300207,0
          99.8967935,19.0301217,0
          99.8969876,19.0302322,0
          99.8973948,19.0304532,0
          99.8975566,19.030537,0
          99.8979032,19.0307246,0
          99.8979593,19.0307576,0
          99.8979918,19.0307696,0
          99.8980251,19.0307782,0
          99.8980572,19.0307813,0
          99.8980926,19.0307826,0
          99.8981228,19.0307793,0
          99.8981557,19.0307722,0
          99.8981889,19.0307613,0
          99.8982159,19.0307473,0
          99.8982461,19.0307278,0
          99.898273,19.0307069,0
          99.8982903,19.0306866,0
          99.8983103,19.0306613,0
          99.8983273,19.0306314,0
          99.89834,19.0306013,0
          99.8983484,19.0305697,0
          99.8984102,19.0305587,0
          99.8984634,19.030555,0
          99.89884,19.0306662,0
          99.8991276,19.0307148,0
          99.899454,19.0307165,0
          99.8997971,19.0307151,0
          99.9004154,19.0307107,0
          99.9007419,19.0307072,0
          99.9012562,19.0307123,0
          99.9021145,19.0307233,0
          99.9030336,19.0307361,0
          99.9030477,19.0307715,0
          99.9030621,19.0307933,0
          99.9030908,19.0308222,0
          99.9031168,19.0308389,0
          99.9031452,19.0308514,0
          99.9031636,19.0308569,0
          99.9031926,19.0308622,0
          99.9032297,19.0308623,0
          99.9032707,19.0308538,0
          99.9032935,19.0308442,0
          99.9033076,19.0308365,0
          99.903328,19.0308216,0
          99.9033605,19.0307893,0
          99.9033733,19.0307668,0
          99.9033855,19.030735,0
          99.9033921,19.0306848,0
          99.9033885,19.0306605,0
          99.9033784,19.0306266,0
          99.9033638,19.0305974,0
          99.9033401,19.0305687,0
          99.9033006,19.0305391,0
          99.9032759,19.0305284,0
          99.9032641,19.0305255,0
          99.9032581,19.030476,0
          99.9032473,19.0303946,0
          99.9032252,19.0302323,0
          99.9032084,19.030071,0
          99.903185,19.0298269,0
          99.9031534,19.0295024,0
          99.9031313,19.0292592,0
          99.9030998,19.0288532,0
          99.9030931,19.0287724,0
          99.9030894,19.0287245,0
          99.903074,19.0286399,0
          99.9030271,19.028581,0
          99.9029975,19.0285648,0
          99.9029468,19.0285216,0
          99.90286,19.0284943,0
          99.9027148,19.0284956,0
          99.9022857,19.0285026,0
          99.901771,19.0285108,0
          99.9015997,19.0285178,0
          99.9012564,19.0285336,0
          99.9007414,19.0285552,0
          99.9005516,19.0285628,0
          99.9002264,19.0285656,0
          99.8998254,19.0285663,0
          99.8998267,19.0284949,0
          99.8998254,19.0285663,0
          99.8987914,19.0285711,0
          99.8988523,19.0283776,0
          99.8988857,19.0282879,0
          99.8989471,19.0281262,0
          99.8990253,19.0279183,0
          99.8990854,19.0277732,0
          99.8992016,19.0275595,0
          99.8992749,19.0274296,0
          99.8993403,19.0273114,0
          99.899389,19.0272261,0
          99.899544,19.0269704,0
          99.8996307,19.026824,0
          99.8996442,19.0268024,0
          99.8996844,19.0267426,0
          99.8997053,19.0267119,0
          99.8997194,19.0266627,0
          99.8997204,19.026582,0
          99.8997168,19.0265581,0
          99.8997108,19.0265188,0
          99.8997001,19.0264919,0
          99.8996017,19.0260951,0
          99.8994966,19.0256901,0
          99.899367,19.0251437,0
          99.8992862,19.0247971,0
          99.8992489,19.024635,0
          99.8992095,19.0244728,0
          99.8991699,19.0243101,0
          99.8991314,19.0241482,0
          99.8990783,19.0238932,0
          99.8990486,19.0237879,0
          99.8990396,19.0237239,0
          99.8990391,19.0236602,0
          99.899042,19.0235622,0
          99.8990602,19.0234174,0
          99.8990723,19.0231768,0
          99.8990553,19.0231043,0
          99.899028,19.0230553,0
          99.8989768,19.0229944,0
          99.8988778,19.0229141,0
          99.8987442,19.0228277,0
          99.8986911,19.0228023,0
          99.8986289,19.0227886,0
          99.8984055,19.0227727,0
          99.8982989,19.0227781,0
          99.8980809,19.0227658,0
          99.8977573,19.0227626,0
          99.897488,19.0227664,0
          99.8966209,19.022775,0
          99.8961923,19.022776,0
          99.8959348,19.0227769,0
          99.8955914,19.0227869,0
          99.8954659,19.0227947,0
          99.895387,19.0228128,0
          99.895369,19.0228201,0
          99.89537,19.02281,0
        </coordinates>
      </LineString>
    </Placemark>
  </Document>
</kml>
